{"type":"FeatureCollection","crs":{"type":"name","properties":{"name":"EPSG:4326"}},"features":[{"type":"Feature","id":1,"geometry":null,"properties":{"ZIP_CODE":"97467","ZIP_TYPE":"STANDARD","PREFERRED_CITY":"REEDSPORT","ACCEPTABLE_CITY1":"WIN BAY","ACCEPTABLE_CITY2":"WINCHESTER BAY","ACCEPTABLE_CITY3":"WINCHESTR BAY","AVOID_CITY1":null,"AVOID_CITY2":null,"AVOID_CITY3":null,"CENSUS_ZCTA":"97467","ObjectId":1}},{"type":"Feature","id":2,"geometry":null,"properties":{"ZIP_CODE":"97469","ZIP_TYPE":"STANDARD","PREFERRED_CITY":"RIDDLE","ACCEPTABLE_CITY1":null,"ACCEPTABLE_CITY2":null,"ACCEPTABLE_CITY3":null,"AVOID_CITY1":null,"AVOID_CITY2":null,"AVOID_CITY3":null,"CENSUS_ZCTA":"97469","ObjectId":2}},{"type":"Feature","id":3,"geometry":null,"properties":{"ZIP_CODE":"97470","ZIP_TYPE":"STANDARD","PREFERRED_CITY":"ROSEBURG","ACCEPTABLE_CITY1":null,"ACCEPTABLE_CITY2":null,"ACCEPTABLE_CITY3":null,"AVOID_CITY1":"RSBG","AVOID_CITY2":null,"AVOID_CITY3":null,"CENSUS_ZCTA":"97470","ObjectId":3}},{"type":"Feature","id":4,"geometry":null,"properties":{"ZIP_CODE":"97471","ZIP_TYPE":"STANDARD","PREFERRED_CITY":"ROSEBURG","ACCEPTABLE_CITY1":null,"ACCEPTABLE_CITY2":null,"ACCEPTABLE_CITY3":null,"AVOID_CITY1":null,"AVOID_CITY2":null,"AVOID_CITY3":null,"CENSUS_ZCTA":"97471","ObjectId":4}},{"type":"Feature","id":5,"geometry":null,"properties":{"ZIP_CODE":"97473","ZIP_TYPE":"STANDARD","PREFERRED_CITY":"SCOTTSBURG","ACCEPTABLE_CITY1":null,"ACCEPTABLE_CITY2":null,"ACCEPTABLE_CITY3":null,"AVOID_CITY1":"GREENACRES","AVOID_CITY2":"MURPHYS CAMP","AVOID_CITY3":null,"CENSUS_ZCTA":"97473","ObjectId":5}},{"type":"Feature","id":6,"geometry":null,"properties":{"ZIP_CODE":"97475","ZIP_TYPE":"PO BOX ONLY","PREFERRED_CITY":"SPRINGFIELD","ACCEPTABLE_CITY1":null,"ACCEPTABLE_CITY2":null,"ACCEPTABLE_CITY3":null,"AVOID_CITY1":null,"AVOID_CITY2":null,"AVOID_CITY3":null,"CENSUS_ZCTA":"NO ZCTA","ObjectId":6}},{"type":"Feature","id":7,"geometry":null,"properties":{"ZIP_CODE":"97476","ZIP_TYPE":"STANDARD","PREFERRED_CITY":"SIXES","ACCEPTABLE_CITY1":null,"ACCEPTABLE_CITY2":null,"ACCEPTABLE_CITY3":null,"AVOID_CITY1":null,"AVOID_CITY2":null,"AVOID_CITY3":null,"CENSUS_ZCTA":"97476","ObjectId":7}},{"type":"Feature","id":8,"geometry":null,"properties":{"ZIP_CODE":"97477","ZIP_TYPE":"STANDARD","PREFERRED_CITY":"SPRINGFIELD","ACCEPTABLE_CITY1":null,"ACCEPTABLE_CITY2":null,"ACCEPTABLE_CITY3":null,"AVOID_CITY1":"SPFD","AVOID_CITY2":"SPFLD","AVOID_CITY3":null,"CENSUS_ZCTA":"97477","ObjectId":8}},{"type":"Feature","id":9,"geometry":null,"properties":{"ZIP_CODE":"97478","ZIP_TYPE":"STANDARD","PREFERRED_CITY":"SPRINGFIELD","ACCEPTABLE_CITY1":null,"ACCEPTABLE_CITY2":null,"ACCEPTABLE_CITY3":null,"AVOID_CITY1":null,"AVOID_CITY2":null,"AVOID_CITY3":null,"CENSUS_ZCTA":"97478","ObjectId":9}},{"type":"Feature","id":10,"geometry":null,"properties":{"ZIP_CODE":"97479","ZIP_TYPE":"STANDARD","PREFERRED_CITY":"SUTHERLIN","ACCEPTABLE_CITY1":null,"ACCEPTABLE_CITY2":null,"ACCEPTABLE_CITY3":null,"AVOID_CITY1":null,"AVOID_CITY2":null,"AVOID_CITY3":null,"CENSUS_ZCTA":"97479","ObjectId":10}},{"type":"Feature","id":11,"geometry":null,"properties":{"ZIP_CODE":"97480","ZIP_TYPE":"STANDARD","PREFERRED_CITY":"SWISSHOME","ACCEPTABLE_CITY1":null,"ACCEPTABLE_CITY2":null,"ACCEPTABLE_CITY3":null,"AVOID_CITY1":null,"AVOID_CITY2":null,"AVOID_CITY3":null,"CENSUS_ZCTA":"97480","ObjectId":11}},{"type":"Feature","id":12,"geometry":null,"properties":{"ZIP_CODE":"97481","ZIP_TYPE":"STANDARD","PREFERRED_CITY":"TENMILE","ACCEPTABLE_CITY1":null,"ACCEPTABLE_CITY2":null,"ACCEPTABLE_CITY3":null,"AVOID_CITY1":null,"AVOID_CITY2":null,"AVOID_CITY3":null,"CENSUS_ZCTA":"97481","ObjectId":12}},{"type":"Feature","id":13,"geometry":null,"properties":{"ZIP_CODE":"97484","ZIP_TYPE":"STANDARD","PREFERRED_CITY":"TILLER","ACCEPTABLE_CITY1":null,"ACCEPTABLE_CITY2":null,"ACCEPTABLE_CITY3":null,"AVOID_CITY1":null,"AVOID_CITY2":null,"AVOID_CITY3":null,"CENSUS_ZCTA":"97484","ObjectId":13}},{"type":"Feature","id":14,"geometry":null,"properties":{"ZIP_CODE":"97486","ZIP_TYPE":"STANDARD","PREFERRED_CITY":"UMPQUA","ACCEPTABLE_CITY1":null,"ACCEPTABLE_CITY2":null,"ACCEPTABLE_CITY3":null,"AVOID_CITY1":null,"AVOID_CITY2":null,"AVOID_CITY3":null,"CENSUS_ZCTA":"97486","ObjectId":14}},{"type":"Feature","id":15,"geometry":null,"properties":{"ZIP_CODE":"97487","ZIP_TYPE":"STANDARD","PREFERRED_CITY":"VENETA","ACCEPTABLE_CITY1":null,"ACCEPTABLE_CITY2":null,"ACCEPTABLE_CITY3":null,"AVOID_CITY1":"VAUGHN","AVOID_CITY2":null,"AVOID_CITY3":null,"CENSUS_ZCTA":"97487","ObjectId":15}},{"type":"Feature","id":16,"geometry":null,"properties":{"ZIP_CODE":"97488","ZIP_TYPE":"STANDARD","PREFERRED_CITY":"VIDA","ACCEPTABLE_CITY1":null,"ACCEPTABLE_CITY2":null,"ACCEPTABLE_CITY3":null,"AVOID_CITY1":"FINN ROCK","AVOID_CITY2":null,"AVOID_CITY3":null,"CENSUS_ZCTA":"97488","ObjectId":16}},{"type":"Feature","id":17,"geometry":null,"properties":{"ZIP_CODE":"97489","ZIP_TYPE":"STANDARD","PREFERRED_CITY":"WALTERVILLE","ACCEPTABLE_CITY1":"LEABURG","ACCEPTABLE_CITY2":null,"ACCEPTABLE_CITY3":null,"AVOID_CITY1":null,"AVOID_CITY2":null,"AVOID_CITY3":null,"CENSUS_ZCTA":"97489","ObjectId":17}},{"type":"Feature","id":18,"geometry":null,"properties":{"ZIP_CODE":"97490","ZIP_TYPE":"STANDARD","PREFERRED_CITY":"WALTON","ACCEPTABLE_CITY1":null,"ACCEPTABLE_CITY2":null,"ACCEPTABLE_CITY3":null,"AVOID_CITY1":null,"AVOID_CITY2":null,"AVOID_CITY3":null,"CENSUS_ZCTA":"97490","ObjectId":18}},{"type":"Feature","id":19,"geometry":null,"properties":{"ZIP_CODE":"97491","ZIP_TYPE":"PO BOX ONLY","PREFERRED_CITY":"WEDDERBURN","ACCEPTABLE_CITY1":null,"ACCEPTABLE_CITY2":null,"ACCEPTABLE_CITY3":null,"AVOID_CITY1":null,"AVOID_CITY2":null,"AVOID_CITY3":null,"CENSUS_ZCTA":"NO ZCTA","ObjectId":19}},{"type":"Feature","id":20,"geometry":null,"properties":{"ZIP_CODE":"97492","ZIP_TYPE":"STANDARD","PREFERRED_CITY":"WESTFIR","ACCEPTABLE_CITY1":null,"ACCEPTABLE_CITY2":null,"ACCEPTABLE_CITY3":null,"AVOID_CITY1":null,"AVOID_CITY2":null,"AVOID_CITY3":null,"CENSUS_ZCTA":"97492","ObjectId":20}},{"type":"Feature","id":21,"geometry":null,"properties":{"ZIP_CODE":"97493","ZIP_TYPE":"STANDARD","PREFERRED_CITY":"WESTLAKE","ACCEPTABLE_CITY1":null,"ACCEPTABLE_CITY2":null,"ACCEPTABLE_CITY3":null,"AVOID_CITY1":null,"AVOID_CITY2":null,"AVOID_CITY3":null,"CENSUS_ZCTA":"97493","ObjectId":21}},{"type":"Feature","id":22,"geometry":null,"properties":{"ZIP_CODE":"97494","ZIP_TYPE":"PO BOX ONLY","PREFERRED_CITY":"WILBUR","ACCEPTABLE_CITY1":null,"ACCEPTABLE_CITY2":null,"ACCEPTABLE_CITY3":null,"AVOID_CITY1":null,"AVOID_CITY2":null,"AVOID_CITY3":null,"CENSUS_ZCTA":"97494","ObjectId":22}},{"type":"Feature","id":23,"geometry":null,"properties":{"ZIP_CODE":"97495","ZIP_TYPE":"STANDARD","PREFERRED_CITY":"WINCHESTER","ACCEPTABLE_CITY1":null,"ACCEPTABLE_CITY2":null,"ACCEPTABLE_CITY3":null,"AVOID_CITY1":null,"AVOID_CITY2":null,"AVOID_CITY3":null,"CENSUS_ZCTA":"97495","ObjectId":23}},{"type":"Feature","id":24,"geometry":null,"properties":{"ZIP_CODE":"97496","ZIP_TYPE":"STANDARD","PREFERRED_CITY":"WINSTON","ACCEPTABLE_CITY1":null,"ACCEPTABLE_CITY2":null,"ACCEPTABLE_CITY3":null,"AVOID_CITY1":"CAMAS VALLEY","AVOID_CITY2":null,"AVOID_CITY3":null,"CENSUS_ZCTA":"97496","ObjectId":24}},{"type":"Feature","id":25,"geometry":null,"properties":{"ZIP_CODE":"97497","ZIP_TYPE":"STANDARD","PREFERRED_CITY":"WOLF CREEK","ACCEPTABLE_CITY1":null,"ACCEPTABLE_CITY2":null,"ACCEPTABLE_CITY3":null,"AVOID_CITY1":"SUNNYVALLEY","AVOID_CITY2":null,"AVOID_CITY3":null,"CENSUS_ZCTA":"97497","ObjectId":25}},{"type":"Feature","id":26,"geometry":null,"properties":{"ZIP_CODE":"97498","ZIP_TYPE":"STANDARD","PREFERRED_CITY":"YACHATS","ACCEPTABLE_CITY1":null,"ACCEPTABLE_CITY2":null,"ACCEPTABLE_CITY3":null,"AVOID_CITY1":null,"AVOID_CITY2":null,"AVOID_CITY3":null,"CENSUS_ZCTA":"97498","ObjectId":26}},{"type":"Feature","id":27,"geometry":null,"properties":{"ZIP_CODE":"97499","ZIP_TYPE":"STANDARD","PREFERRED_CITY":"YONCALLA","ACCEPTABLE_CITY1":null,"ACCEPTABLE_CITY2":null,"ACCEPTABLE_CITY3":null,"AVOID_CITY1":null,"AVOID_CITY2":null,"AVOID_CITY3":null,"CENSUS_ZCTA":"97499","ObjectId":27}},{"type":"Feature","id":28,"geometry":null,"properties":{"ZIP_CODE":"97501","ZIP_TYPE":"STANDARD","PREFERRED_CITY":"MEDFORD","ACCEPTABLE_CITY1":null,"ACCEPTABLE_CITY2":null,"ACCEPTABLE_CITY3":null,"AVOID_CITY1":null,"AVOID_CITY2":null,"AVOID_CITY3":null,"CENSUS_ZCTA":"97501","ObjectId":28}},{"type":"Feature","id":29,"geometry":null,"properties":{"ZIP_CODE":"97502","ZIP_TYPE":"STANDARD","PREFERRED_CITY":"CENTRAL POINT","ACCEPTABLE_CITY1":"MEDFORD","ACCEPTABLE_CITY2":null,"ACCEPTABLE_CITY3":null,"AVOID_CITY1":null,"AVOID_CITY2":null,"AVOID_CITY3":null,"CENSUS_ZCTA":"97502","ObjectId":29}},{"type":"Feature","id":30,"geometry":null,"properties":{"ZIP_CODE":"97503","ZIP_TYPE":"STANDARD","PREFERRED_CITY":"WHITE CITY","ACCEPTABLE_CITY1":"MEDFORD","ACCEPTABLE_CITY2":null,"ACCEPTABLE_CITY3":null,"AVOID_CITY1":null,"AVOID_CITY2":null,"AVOID_CITY3":null,"CENSUS_ZCTA":"97503","ObjectId":30}},{"type":"Feature","id":31,"geometry":null,"properties":{"ZIP_CODE":"97504","ZIP_TYPE":"STANDARD","PREFERRED_CITY":"MEDFORD","ACCEPTABLE_CITY1":null,"ACCEPTABLE_CITY2":null,"ACCEPTABLE_CITY3":null,"AVOID_CITY1":null,"AVOID_CITY2":null,"AVOID_CITY3":null,"CENSUS_ZCTA":"97504","ObjectId":31}},{"type":"Feature","id":32,"geometry":null,"properties":{"ZIP_CODE":"97520","ZIP_TYPE":"STANDARD","PREFERRED_CITY":"ASHLAND","ACCEPTABLE_CITY1":null,"ACCEPTABLE_CITY2":null,"ACCEPTABLE_CITY3":null,"AVOID_CITY1":null,"AVOID_CITY2":null,"AVOID_CITY3":null,"CENSUS_ZCTA":"97520","ObjectId":32}},{"type":"Feature","id":33,"geometry":null,"properties":{"ZIP_CODE":"97522","ZIP_TYPE":"STANDARD","PREFERRED_CITY":"BUTTE FALLS","ACCEPTABLE_CITY1":null,"ACCEPTABLE_CITY2":null,"ACCEPTABLE_CITY3":null,"AVOID_CITY1":null,"AVOID_CITY2":null,"AVOID_CITY3":null,"CENSUS_ZCTA":"97522","ObjectId":33}},{"type":"Feature","id":34,"geometry":null,"properties":{"ZIP_CODE":"97523","ZIP_TYPE":"STANDARD","PREFERRED_CITY":"CAVE JUNCTION","ACCEPTABLE_CITY1":null,"ACCEPTABLE_CITY2":null,"ACCEPTABLE_CITY3":null,"AVOID_CITY1":null,"AVOID_CITY2":null,"AVOID_CITY3":null,"CENSUS_ZCTA":"97523","ObjectId":34}},{"type":"Feature","id":35,"geometry":null,"properties":{"ZIP_CODE":"97524","ZIP_TYPE":"STANDARD","PREFERRED_CITY":"EAGLE POINT","ACCEPTABLE_CITY1":null,"ACCEPTABLE_CITY2":null,"ACCEPTABLE_CITY3":null,"AVOID_CITY1":null,"AVOID_CITY2":null,"AVOID_CITY3":null,"CENSUS_ZCTA":"97524","ObjectId":35}},{"type":"Feature","id":36,"geometry":null,"properties":{"ZIP_CODE":"97525","ZIP_TYPE":"STANDARD","PREFERRED_CITY":"GOLD HILL","ACCEPTABLE_CITY1":null,"ACCEPTABLE_CITY2":null,"ACCEPTABLE_CITY3":null,"AVOID_CITY1":null,"AVOID_CITY2":null,"AVOID_CITY3":null,"CENSUS_ZCTA":"97525","ObjectId":36}},{"type":"Feature","id":37,"geometry":null,"properties":{"ZIP_CODE":"97526","ZIP_TYPE":"STANDARD","PREFERRED_CITY":"GRANTS PASS","ACCEPTABLE_CITY1":null,"ACCEPTABLE_CITY2":null,"ACCEPTABLE_CITY3":null,"AVOID_CITY1":"HUGO","AVOID_CITY2":null,"AVOID_CITY3":null,"CENSUS_ZCTA":"97526","ObjectId":37}},{"type":"Feature","id":38,"geometry":null,"properties":{"ZIP_CODE":"97527","ZIP_TYPE":"STANDARD","PREFERRED_CITY":"GRANTS PASS","ACCEPTABLE_CITY1":null,"ACCEPTABLE_CITY2":null,"ACCEPTABLE_CITY3":null,"AVOID_CITY1":null,"AVOID_CITY2":null,"AVOID_CITY3":null,"CENSUS_ZCTA":"97527","ObjectId":38}},{"type":"Feature","id":39,"geometry":null,"properties":{"ZIP_CODE":"97528","ZIP_TYPE":"PO BOX ONLY","PREFERRED_CITY":"GRANTS PASS","ACCEPTABLE_CITY1":null,"ACCEPTABLE_CITY2":null,"ACCEPTABLE_CITY3":null,"AVOID_CITY1":null,"AVOID_CITY2":null,"AVOID_CITY3":null,"CENSUS_ZCTA":"NO ZCTA","ObjectId":39}},{"type":"Feature","id":40,"geometry":null,"properties":{"ZIP_CODE":"97530","ZIP_TYPE":"STANDARD","PREFERRED_CITY":"JACKSONVILLE","ACCEPTABLE_CITY1":"APPLEGATE","ACCEPTABLE_CITY2":null,"ACCEPTABLE_CITY3":null,"AVOID_CITY1":null,"AVOID_CITY2":null,"AVOID_CITY3":null,"CENSUS_ZCTA":"97530","ObjectId":40}},{"type":"Feature","id":41,"geometry":null,"properties":{"ZIP_CODE":"97531","ZIP_TYPE":"STANDARD","PREFERRED_CITY":"KERBY","ACCEPTABLE_CITY1":"CAVE JUNCTION","ACCEPTABLE_CITY2":null,"ACCEPTABLE_CITY3":null,"AVOID_CITY1":null,"AVOID_CITY2":null,"AVOID_CITY3":null,"CENSUS_ZCTA":"97531","ObjectId":41}},{"type":"Feature","id":42,"geometry":null,"properties":{"ZIP_CODE":"97532","ZIP_TYPE":"STANDARD","PREFERRED_CITY":"MERLIN","ACCEPTABLE_CITY1":null,"ACCEPTABLE_CITY2":null,"ACCEPTABLE_CITY3":null,"AVOID_CITY1":null,"AVOID_CITY2":null,"AVOID_CITY3":null,"CENSUS_ZCTA":"97532","ObjectId":42}},{"type":"Feature","id":43,"geometry":null,"properties":{"ZIP_CODE":"97533","ZIP_TYPE":"PO BOX ONLY","PREFERRED_CITY":"MURPHY","ACCEPTABLE_CITY1":null,"ACCEPTABLE_CITY2":null,"ACCEPTABLE_CITY3":null,"AVOID_CITY1":null,"AVOID_CITY2":null,"AVOID_CITY3":null,"CENSUS_ZCTA":"NO ZCTA","ObjectId":43}},{"type":"Feature","id":44,"geometry":null,"properties":{"ZIP_CODE":"97534","ZIP_TYPE":"STANDARD","PREFERRED_CITY":"O BRIEN","ACCEPTABLE_CITY1":null,"ACCEPTABLE_CITY2":null,"ACCEPTABLE_CITY3":null,"AVOID_CITY1":null,"AVOID_CITY2":null,"AVOID_CITY3":null,"CENSUS_ZCTA":"97534","ObjectId":44}},{"type":"Feature","id":45,"geometry":null,"properties":{"ZIP_CODE":"97535","ZIP_TYPE":"STANDARD","PREFERRED_CITY":"PHOENIX","ACCEPTABLE_CITY1":null,"ACCEPTABLE_CITY2":null,"ACCEPTABLE_CITY3":null,"AVOID_CITY1":null,"AVOID_CITY2":null,"AVOID_CITY3":null,"CENSUS_ZCTA":"97535","ObjectId":45}},{"type":"Feature","id":46,"geometry":null,"properties":{"ZIP_CODE":"97536","ZIP_TYPE":"STANDARD","PREFERRED_CITY":"PROSPECT","ACCEPTABLE_CITY1":null,"ACCEPTABLE_CITY2":null,"ACCEPTABLE_CITY3":null,"AVOID_CITY1":null,"AVOID_CITY2":null,"AVOID_CITY3":null,"CENSUS_ZCTA":"97536","ObjectId":46}},{"type":"Feature","id":47,"geometry":null,"properties":{"ZIP_CODE":"97537","ZIP_TYPE":"STANDARD","PREFERRED_CITY":"ROGUE RIVER","ACCEPTABLE_CITY1":null,"ACCEPTABLE_CITY2":null,"ACCEPTABLE_CITY3":null,"AVOID_CITY1":null,"AVOID_CITY2":null,"AVOID_CITY3":null,"CENSUS_ZCTA":"97537","ObjectId":47}},{"type":"Feature","id":48,"geometry":null,"properties":{"ZIP_CODE":"97538","ZIP_TYPE":"STANDARD","PREFERRED_CITY":"SELMA","ACCEPTABLE_CITY1":null,"ACCEPTABLE_CITY2":null,"ACCEPTABLE_CITY3":null,"AVOID_CITY1":null,"AVOID_CITY2":null,"AVOID_CITY3":null,"CENSUS_ZCTA":"97538","ObjectId":48}},{"type":"Feature","id":49,"geometry":null,"properties":{"ZIP_CODE":"97539","ZIP_TYPE":"STANDARD","PREFERRED_CITY":"SHADY COVE","ACCEPTABLE_CITY1":null,"ACCEPTABLE_CITY2":null,"ACCEPTABLE_CITY3":null,"AVOID_CITY1":null,"AVOID_CITY2":null,"AVOID_CITY3":null,"CENSUS_ZCTA":"97539","ObjectId":49}},{"type":"Feature","id":50,"geometry":null,"properties":{"ZIP_CODE":"97540","ZIP_TYPE":"STANDARD","PREFERRED_CITY":"TALENT","ACCEPTABLE_CITY1":null,"ACCEPTABLE_CITY2":null,"ACCEPTABLE_CITY3":null,"AVOID_CITY1":null,"AVOID_CITY2":null,"AVOID_CITY3":null,"CENSUS_ZCTA":"97540","ObjectId":50}},{"type":"Feature","id":51,"geometry":null,"properties":{"ZIP_CODE":"97001","ZIP_TYPE":"PO BOX ONLY","PREFERRED_CITY":"ANTELOPE","ACCEPTABLE_CITY1":null,"ACCEPTABLE_CITY2":null,"ACCEPTABLE_CITY3":null,"AVOID_CITY1":"CLARNO","AVOID_CITY2":null,"AVOID_CITY3":null,"CENSUS_ZCTA":"97001","ObjectId":51}},{"type":"Feature","id":52,"geometry":null,"properties":{"ZIP_CODE":"97002","ZIP_TYPE":"STANDARD","PREFERRED_CITY":"AURORA","ACCEPTABLE_CITY1":null,"ACCEPTABLE_CITY2":null,"ACCEPTABLE_CITY3":null,"AVOID_CITY1":"BUTTEVILLE","AVOID_CITY2":null,"AVOID_CITY3":null,"CENSUS_ZCTA":"97002","ObjectId":52}},{"type":"Feature","id":53,"geometry":null,"properties":{"ZIP_CODE":"97003","ZIP_TYPE":"STANDARD","PREFERRED_CITY":"BEAVERTON","ACCEPTABLE_CITY1":"ALOHA","ACCEPTABLE_CITY2":"HILLSBORO","ACCEPTABLE_CITY3":null,"AVOID_CITY1":null,"AVOID_CITY2":null,"AVOID_CITY3":null,"CENSUS_ZCTA":"97003","ObjectId":53}},{"type":"Feature","id":54,"geometry":null,"properties":{"ZIP_CODE":"97004","ZIP_TYPE":"STANDARD","PREFERRED_CITY":"BEAVERCREEK","ACCEPTABLE_CITY1":null,"ACCEPTABLE_CITY2":null,"ACCEPTABLE_CITY3":null,"AVOID_CITY1":null,"AVOID_CITY2":null,"AVOID_CITY3":null,"CENSUS_ZCTA":"97004","ObjectId":54}},{"type":"Feature","id":55,"geometry":null,"properties":{"ZIP_CODE":"97005","ZIP_TYPE":"STANDARD","PREFERRED_CITY":"BEAVERTON","ACCEPTABLE_CITY1":null,"ACCEPTABLE_CITY2":null,"ACCEPTABLE_CITY3":null,"AVOID_CITY1":"PROGRESS","AVOID_CITY2":null,"AVOID_CITY3":null,"CENSUS_ZCTA":"97005","ObjectId":55}},{"type":"Feature","id":56,"geometry":null,"properties":{"ZIP_CODE":"97006","ZIP_TYPE":"STANDARD","PREFERRED_CITY":"BEAVERTON","ACCEPTABLE_CITY1":"ALOHA","ACCEPTABLE_CITY2":"HILLSBORO","ACCEPTABLE_CITY3":null,"AVOID_CITY1":null,"AVOID_CITY2":null,"AVOID_CITY3":null,"CENSUS_ZCTA":"97006","ObjectId":56}},{"type":"Feature","id":57,"geometry":null,"properties":{"ZIP_CODE":"97007","ZIP_TYPE":"STANDARD","PREFERRED_CITY":"BEAVERTON","ACCEPTABLE_CITY1":"ALOHA","ACCEPTABLE_CITY2":null,"ACCEPTABLE_CITY3":null,"AVOID_CITY1":null,"AVOID_CITY2":null,"AVOID_CITY3":null,"CENSUS_ZCTA":"97007","ObjectId":57}},{"type":"Feature","id":58,"geometry":null,"properties":{"ZIP_CODE":"97008","ZIP_TYPE":"STANDARD","PREFERRED_CITY":"BEAVERTON","ACCEPTABLE_CITY1":null,"ACCEPTABLE_CITY2":null,"ACCEPTABLE_CITY3":null,"AVOID_CITY1":null,"AVOID_CITY2":null,"AVOID_CITY3":null,"CENSUS_ZCTA":"97008","ObjectId":58}},{"type":"Feature","id":59,"geometry":null,"properties":{"ZIP_CODE":"97009","ZIP_TYPE":"STANDARD","PREFERRED_CITY":"BORING","ACCEPTABLE_CITY1":"DAMASCUS","ACCEPTABLE_CITY2":null,"ACCEPTABLE_CITY3":null,"AVOID_CITY1":null,"AVOID_CITY2":null,"AVOID_CITY3":null,"CENSUS_ZCTA":"97009","ObjectId":59}},{"type":"Feature","id":60,"geometry":null,"properties":{"ZIP_CODE":"97010","ZIP_TYPE":"PO BOX ONLY","PREFERRED_CITY":"BRIDAL VEIL","ACCEPTABLE_CITY1":null,"ACCEPTABLE_CITY2":null,"ACCEPTABLE_CITY3":null,"AVOID_CITY1":null,"AVOID_CITY2":null,"AVOID_CITY3":null,"CENSUS_ZCTA":"NO ZCTA","ObjectId":60}},{"type":"Feature","id":61,"geometry":null,"properties":{"ZIP_CODE":"97011","ZIP_TYPE":"STANDARD","PREFERRED_CITY":"BRIGHTWOOD","ACCEPTABLE_CITY1":null,"ACCEPTABLE_CITY2":null,"ACCEPTABLE_CITY3":null,"AVOID_CITY1":null,"AVOID_CITY2":null,"AVOID_CITY3":null,"CENSUS_ZCTA":"97011","ObjectId":61}},{"type":"Feature","id":62,"geometry":null,"properties":{"ZIP_CODE":"97013","ZIP_TYPE":"STANDARD","PREFERRED_CITY":"CANBY","ACCEPTABLE_CITY1":null,"ACCEPTABLE_CITY2":null,"ACCEPTABLE_CITY3":null,"AVOID_CITY1":"BARLOW","AVOID_CITY2":null,"AVOID_CITY3":null,"CENSUS_ZCTA":"97013","ObjectId":62}},{"type":"Feature","id":63,"geometry":null,"properties":{"ZIP_CODE":"97014","ZIP_TYPE":"STANDARD","PREFERRED_CITY":"CASCADE LOCKS","ACCEPTABLE_CITY1":null,"ACCEPTABLE_CITY2":null,"ACCEPTABLE_CITY3":null,"AVOID_CITY1":"DODSON","AVOID_CITY2":null,"AVOID_CITY3":null,"CENSUS_ZCTA":"97014","ObjectId":63}},{"type":"Feature","id":64,"geometry":null,"properties":{"ZIP_CODE":"97015","ZIP_TYPE":"STANDARD","PREFERRED_CITY":"CLACKAMAS","ACCEPTABLE_CITY1":"DAMASCUS","ACCEPTABLE_CITY2":"HAPPY VALLEY","ACCEPTABLE_CITY3":null,"AVOID_CITY1":"CARVER","AVOID_CITY2":null,"AVOID_CITY3":null,"CENSUS_ZCTA":"97015","ObjectId":64}},{"type":"Feature","id":65,"geometry":null,"properties":{"ZIP_CODE":"97016","ZIP_TYPE":"STANDARD","PREFERRED_CITY":"CLATSKANIE","ACCEPTABLE_CITY1":"BIRKENFELD","ACCEPTABLE_CITY2":"WESTPORT","ACCEPTABLE_CITY3":null,"AVOID_CITY1":"MIST","AVOID_CITY2":null,"AVOID_CITY3":null,"CENSUS_ZCTA":"97016","ObjectId":65}},{"type":"Feature","id":66,"geometry":null,"properties":{"ZIP_CODE":"97017","ZIP_TYPE":"STANDARD","PREFERRED_CITY":"COLTON","ACCEPTABLE_CITY1":null,"ACCEPTABLE_CITY2":null,"ACCEPTABLE_CITY3":null,"AVOID_CITY1":null,"AVOID_CITY2":null,"AVOID_CITY3":null,"CENSUS_ZCTA":"97017","ObjectId":66}},{"type":"Feature","id":67,"geometry":null,"properties":{"ZIP_CODE":"97018","ZIP_TYPE":"STANDARD","PREFERRED_CITY":"COLUMBIA CITY","ACCEPTABLE_CITY1":null,"ACCEPTABLE_CITY2":null,"ACCEPTABLE_CITY3":null,"AVOID_CITY1":null,"AVOID_CITY2":null,"AVOID_CITY3":null,"CENSUS_ZCTA":"97018","ObjectId":67}},{"type":"Feature","id":68,"geometry":null,"properties":{"ZIP_CODE":"97019","ZIP_TYPE":"STANDARD","PREFERRED_CITY":"CORBETT","ACCEPTABLE_CITY1":null,"ACCEPTABLE_CITY2":null,"ACCEPTABLE_CITY3":null,"AVOID_CITY1":null,"AVOID_CITY2":null,"AVOID_CITY3":null,"CENSUS_ZCTA":"97019","ObjectId":68}},{"type":"Feature","id":69,"geometry":null,"properties":{"ZIP_CODE":"97020","ZIP_TYPE":"STANDARD","PREFERRED_CITY":"DONALD","ACCEPTABLE_CITY1":null,"ACCEPTABLE_CITY2":null,"ACCEPTABLE_CITY3":null,"AVOID_CITY1":null,"AVOID_CITY2":null,"AVOID_CITY3":null,"CENSUS_ZCTA":"97020","ObjectId":69}},{"type":"Feature","id":70,"geometry":null,"properties":{"ZIP_CODE":"97021","ZIP_TYPE":"STANDARD","PREFERRED_CITY":"DUFUR","ACCEPTABLE_CITY1":"FRIEND","ACCEPTABLE_CITY2":null,"ACCEPTABLE_CITY3":null,"AVOID_CITY1":null,"AVOID_CITY2":null,"AVOID_CITY3":null,"CENSUS_ZCTA":"97021","ObjectId":70}},{"type":"Feature","id":71,"geometry":null,"properties":{"ZIP_CODE":"97022","ZIP_TYPE":"STANDARD","PREFERRED_CITY":"EAGLE CREEK","ACCEPTABLE_CITY1":null,"ACCEPTABLE_CITY2":null,"ACCEPTABLE_CITY3":null,"AVOID_CITY1":"DOVER","AVOID_CITY2":null,"AVOID_CITY3":null,"CENSUS_ZCTA":"97022","ObjectId":71}},{"type":"Feature","id":72,"geometry":null,"properties":{"ZIP_CODE":"97023","ZIP_TYPE":"STANDARD","PREFERRED_CITY":"ESTACADA","ACCEPTABLE_CITY1":null,"ACCEPTABLE_CITY2":null,"ACCEPTABLE_CITY3":null,"AVOID_CITY1":null,"AVOID_CITY2":null,"AVOID_CITY3":null,"CENSUS_ZCTA":"97023","ObjectId":72}},{"type":"Feature","id":73,"geometry":null,"properties":{"ZIP_CODE":"97024","ZIP_TYPE":"STANDARD","PREFERRED_CITY":"FAIRVIEW","ACCEPTABLE_CITY1":null,"ACCEPTABLE_CITY2":null,"ACCEPTABLE_CITY3":null,"AVOID_CITY1":"INTERLACHEN","AVOID_CITY2":"WOOD VILLAGE","AVOID_CITY3":null,"CENSUS_ZCTA":"97024","ObjectId":73}},{"type":"Feature","id":74,"geometry":null,"properties":{"ZIP_CODE":"97026","ZIP_TYPE":"STANDARD","PREFERRED_CITY":"GERVAIS","ACCEPTABLE_CITY1":null,"ACCEPTABLE_CITY2":null,"ACCEPTABLE_CITY3":null,"AVOID_CITY1":"SAINT LOUIS","AVOID_CITY2":null,"AVOID_CITY3":null,"CENSUS_ZCTA":"97026","ObjectId":74}},{"type":"Feature","id":75,"geometry":null,"properties":{"ZIP_CODE":"97027","ZIP_TYPE":"STANDARD","PREFERRED_CITY":"GLADSTONE","ACCEPTABLE_CITY1":null,"ACCEPTABLE_CITY2":null,"ACCEPTABLE_CITY3":null,"AVOID_CITY1":null,"AVOID_CITY2":null,"AVOID_CITY3":null,"CENSUS_ZCTA":"97027","ObjectId":75}},{"type":"Feature","id":76,"geometry":null,"properties":{"ZIP_CODE":"97028","ZIP_TYPE":"STANDARD","PREFERRED_CITY":"GOVERNMENT CAMP","ACCEPTABLE_CITY1":"GOVERNMENT CP","ACCEPTABLE_CITY2":"TIMBERLINE LODGE","ACCEPTABLE_CITY3":"TIMBRLINE LDG","AVOID_CITY1":null,"AVOID_CITY2":null,"AVOID_CITY3":null,"CENSUS_ZCTA":"97028","ObjectId":76}},{"type":"Feature","id":77,"geometry":null,"properties":{"ZIP_CODE":"97029","ZIP_TYPE":"STANDARD","PREFERRED_CITY":"GRASS VALLEY","ACCEPTABLE_CITY1":null,"ACCEPTABLE_CITY2":null,"ACCEPTABLE_CITY3":null,"AVOID_CITY1":null,"AVOID_CITY2":null,"AVOID_CITY3":null,"CENSUS_ZCTA":"97029","ObjectId":77}},{"type":"Feature","id":78,"geometry":null,"properties":{"ZIP_CODE":"97030","ZIP_TYPE":"STANDARD","PREFERRED_CITY":"GRESHAM","ACCEPTABLE_CITY1":null,"ACCEPTABLE_CITY2":null,"ACCEPTABLE_CITY3":null,"AVOID_CITY1":"DAMASCUS","AVOID_CITY2":null,"AVOID_CITY3":null,"CENSUS_ZCTA":"97030","ObjectId":78}},{"type":"Feature","id":79,"geometry":null,"properties":{"ZIP_CODE":"97031","ZIP_TYPE":"STANDARD","PREFERRED_CITY":"HOOD RIVER","ACCEPTABLE_CITY1":null,"ACCEPTABLE_CITY2":null,"ACCEPTABLE_CITY3":null,"AVOID_CITY1":null,"AVOID_CITY2":null,"AVOID_CITY3":null,"CENSUS_ZCTA":"97031","ObjectId":79}},{"type":"Feature","id":80,"geometry":null,"properties":{"ZIP_CODE":"97032","ZIP_TYPE":"STANDARD","PREFERRED_CITY":"HUBBARD","ACCEPTABLE_CITY1":null,"ACCEPTABLE_CITY2":null,"ACCEPTABLE_CITY3":null,"AVOID_CITY1":null,"AVOID_CITY2":null,"AVOID_CITY3":null,"CENSUS_ZCTA":"97032","ObjectId":80}},{"type":"Feature","id":81,"geometry":null,"properties":{"ZIP_CODE":"97033","ZIP_TYPE":"PO BOX ONLY","PREFERRED_CITY":"KENT","ACCEPTABLE_CITY1":null,"ACCEPTABLE_CITY2":null,"ACCEPTABLE_CITY3":null,"AVOID_CITY1":null,"AVOID_CITY2":null,"AVOID_CITY3":null,"CENSUS_ZCTA":"97033","ObjectId":81}},{"type":"Feature","id":82,"geometry":null,"properties":{"ZIP_CODE":"97034","ZIP_TYPE":"STANDARD","PREFERRED_CITY":"LAKE OSWEGO","ACCEPTABLE_CITY1":null,"ACCEPTABLE_CITY2":null,"ACCEPTABLE_CITY3":null,"AVOID_CITY1":"LAKE GROVE","AVOID_CITY2":"OSWEGO","AVOID_CITY3":null,"CENSUS_ZCTA":"97034","ObjectId":82}},{"type":"Feature","id":83,"geometry":null,"properties":{"ZIP_CODE":"97035","ZIP_TYPE":"STANDARD","PREFERRED_CITY":"LAKE OSWEGO","ACCEPTABLE_CITY1":"LAKE GROVE","ACCEPTABLE_CITY2":null,"ACCEPTABLE_CITY3":null,"AVOID_CITY1":"MOUNTAIN PARK","AVOID_CITY2":"RIVERGROVE","AVOID_CITY3":null,"CENSUS_ZCTA":"97035","ObjectId":83}},{"type":"Feature","id":84,"geometry":null,"properties":{"ZIP_CODE":"97036","ZIP_TYPE":"PO BOX ONLY","PREFERRED_CITY":"MARYLHURST","ACCEPTABLE_CITY1":null,"ACCEPTABLE_CITY2":null,"ACCEPTABLE_CITY3":null,"AVOID_CITY1":null,"AVOID_CITY2":null,"AVOID_CITY3":null,"CENSUS_ZCTA":"NO ZCTA","ObjectId":84}},{"type":"Feature","id":85,"geometry":null,"properties":{"ZIP_CODE":"97037","ZIP_TYPE":"STANDARD","PREFERRED_CITY":"MAUPIN","ACCEPTABLE_CITY1":null,"ACCEPTABLE_CITY2":null,"ACCEPTABLE_CITY3":null,"AVOID_CITY1":"PINE GROVE","AVOID_CITY2":null,"AVOID_CITY3":null,"CENSUS_ZCTA":"97037","ObjectId":85}},{"type":"Feature","id":86,"geometry":null,"properties":{"ZIP_CODE":"97038","ZIP_TYPE":"STANDARD","PREFERRED_CITY":"MOLALLA","ACCEPTABLE_CITY1":null,"ACCEPTABLE_CITY2":null,"ACCEPTABLE_CITY3":null,"AVOID_CITY1":"LIBERAL","AVOID_CITY2":null,"AVOID_CITY3":null,"CENSUS_ZCTA":"97038","ObjectId":86}},{"type":"Feature","id":87,"geometry":null,"properties":{"ZIP_CODE":"97039","ZIP_TYPE":"STANDARD","PREFERRED_CITY":"MORO","ACCEPTABLE_CITY1":null,"ACCEPTABLE_CITY2":null,"ACCEPTABLE_CITY3":null,"AVOID_CITY1":null,"AVOID_CITY2":null,"AVOID_CITY3":null,"CENSUS_ZCTA":"97039","ObjectId":87}},{"type":"Feature","id":88,"geometry":null,"properties":{"ZIP_CODE":"97040","ZIP_TYPE":"STANDARD","PREFERRED_CITY":"MOSIER","ACCEPTABLE_CITY1":null,"ACCEPTABLE_CITY2":null,"ACCEPTABLE_CITY3":null,"AVOID_CITY1":null,"AVOID_CITY2":null,"AVOID_CITY3":null,"CENSUS_ZCTA":"97040","ObjectId":88}},{"type":"Feature","id":89,"geometry":null,"properties":{"ZIP_CODE":"97041","ZIP_TYPE":"STANDARD","PREFERRED_CITY":"MOUNT HOOD PARKDALE","ACCEPTABLE_CITY1":"MT HOOD PRKDL","ACCEPTABLE_CITY2":null,"ACCEPTABLE_CITY3":null,"AVOID_CITY1":"MOUNT HOOD","AVOID_CITY2":"MT HOOD","AVOID_CITY3":"PARKDALE","CENSUS_ZCTA":"97041","ObjectId":89}},{"type":"Feature","id":90,"geometry":null,"properties":{"ZIP_CODE":"97042","ZIP_TYPE":"STANDARD","PREFERRED_CITY":"MULINO","ACCEPTABLE_CITY1":null,"ACCEPTABLE_CITY2":null,"ACCEPTABLE_CITY3":null,"AVOID_CITY1":null,"AVOID_CITY2":null,"AVOID_CITY3":null,"CENSUS_ZCTA":"97042","ObjectId":90}},{"type":"Feature","id":91,"geometry":null,"properties":{"ZIP_CODE":"97044","ZIP_TYPE":"PO BOX ONLY","PREFERRED_CITY":"ODELL","ACCEPTABLE_CITY1":null,"ACCEPTABLE_CITY2":null,"ACCEPTABLE_CITY3":null,"AVOID_CITY1":null,"AVOID_CITY2":null,"AVOID_CITY3":null,"CENSUS_ZCTA":"NO ZCTA","ObjectId":91}},{"type":"Feature","id":92,"geometry":null,"properties":{"ZIP_CODE":"97045","ZIP_TYPE":"STANDARD","PREFERRED_CITY":"OREGON CITY","ACCEPTABLE_CITY1":null,"ACCEPTABLE_CITY2":null,"ACCEPTABLE_CITY3":null,"AVOID_CITY1":"REDLAND","AVOID_CITY2":null,"AVOID_CITY3":null,"CENSUS_ZCTA":"97045","ObjectId":92}},{"type":"Feature","id":93,"geometry":null,"properties":{"ZIP_CODE":"97048","ZIP_TYPE":"STANDARD","PREFERRED_CITY":"RAINIER","ACCEPTABLE_CITY1":"PRESCOTT","ACCEPTABLE_CITY2":null,"ACCEPTABLE_CITY3":null,"AVOID_CITY1":null,"AVOID_CITY2":null,"AVOID_CITY3":null,"CENSUS_ZCTA":"97048","ObjectId":93}},{"type":"Feature","id":94,"geometry":null,"properties":{"ZIP_CODE":"97049","ZIP_TYPE":"STANDARD","PREFERRED_CITY":"RHODODENDRON","ACCEPTABLE_CITY1":"ZIGZAG","ACCEPTABLE_CITY2":null,"ACCEPTABLE_CITY3":null,"AVOID_CITY1":null,"AVOID_CITY2":null,"AVOID_CITY3":null,"CENSUS_ZCTA":"97049","ObjectId":94}},{"type":"Feature","id":95,"geometry":null,"properties":{"ZIP_CODE":"97050","ZIP_TYPE":"PO BOX ONLY","PREFERRED_CITY":"RUFUS","ACCEPTABLE_CITY1":null,"ACCEPTABLE_CITY2":null,"ACCEPTABLE_CITY3":null,"AVOID_CITY1":null,"AVOID_CITY2":null,"AVOID_CITY3":null,"CENSUS_ZCTA":"97050","ObjectId":95}},{"type":"Feature","id":96,"geometry":null,"properties":{"ZIP_CODE":"97051","ZIP_TYPE":"STANDARD","PREFERRED_CITY":"SAINT HELENS","ACCEPTABLE_CITY1":null,"ACCEPTABLE_CITY2":null,"ACCEPTABLE_CITY3":null,"AVOID_CITY1":"ST HELENS","AVOID_CITY2":null,"AVOID_CITY3":null,"CENSUS_ZCTA":"97051","ObjectId":96}},{"type":"Feature","id":97,"geometry":null,"properties":{"ZIP_CODE":"97053","ZIP_TYPE":"STANDARD","PREFERRED_CITY":"WARREN","ACCEPTABLE_CITY1":null,"ACCEPTABLE_CITY2":null,"ACCEPTABLE_CITY3":null,"AVOID_CITY1":null,"AVOID_CITY2":null,"AVOID_CITY3":null,"CENSUS_ZCTA":"97053","ObjectId":97}},{"type":"Feature","id":98,"geometry":null,"properties":{"ZIP_CODE":"97054","ZIP_TYPE":"STANDARD","PREFERRED_CITY":"DEER ISLAND","ACCEPTABLE_CITY1":null,"ACCEPTABLE_CITY2":null,"ACCEPTABLE_CITY3":null,"AVOID_CITY1":null,"AVOID_CITY2":null,"AVOID_CITY3":null,"CENSUS_ZCTA":"97054","ObjectId":98}},{"type":"Feature","id":99,"geometry":null,"properties":{"ZIP_CODE":"97055","ZIP_TYPE":"STANDARD","PREFERRED_CITY":"SANDY","ACCEPTABLE_CITY1":null,"ACCEPTABLE_CITY2":null,"ACCEPTABLE_CITY3":null,"AVOID_CITY1":null,"AVOID_CITY2":null,"AVOID_CITY3":null,"CENSUS_ZCTA":"97055","ObjectId":99}},{"type":"Feature","id":100,"geometry":null,"properties":{"ZIP_CODE":"97056","ZIP_TYPE":"STANDARD","PREFERRED_CITY":"SCAPPOOSE","ACCEPTABLE_CITY1":null,"ACCEPTABLE_CITY2":null,"ACCEPTABLE_CITY3":null,"AVOID_CITY1":null,"AVOID_CITY2":null,"AVOID_CITY3":null,"CENSUS_ZCTA":"97056","ObjectId":100}},{"type":"Feature","id":101,"geometry":null,"properties":{"ZIP_CODE":"97136","ZIP_TYPE":"STANDARD","PREFERRED_CITY":"ROCKAWAY BEACH","ACCEPTABLE_CITY1":"ROCKAWAY","ACCEPTABLE_CITY2":"ROCKAWAY BCH","ACCEPTABLE_CITY3":null,"AVOID_CITY1":"BRIGHTON","AVOID_CITY2":"MANHATTAN BEACH","AVOID_CITY3":"TWIN ROCKS","CENSUS_ZCTA":"97136","ObjectId":101}},{"type":"Feature","id":102,"geometry":null,"properties":{"ZIP_CODE":"97137","ZIP_TYPE":"STANDARD","PREFERRED_CITY":"SAINT PAUL","ACCEPTABLE_CITY1":null,"ACCEPTABLE_CITY2":null,"ACCEPTABLE_CITY3":null,"AVOID_CITY1":"ST PAUL","AVOID_CITY2":null,"AVOID_CITY3":null,"CENSUS_ZCTA":"97137","ObjectId":102}},{"type":"Feature","id":103,"geometry":null,"properties":{"ZIP_CODE":"97138","ZIP_TYPE":"STANDARD","PREFERRED_CITY":"SEASIDE","ACCEPTABLE_CITY1":"GEARHART","ACCEPTABLE_CITY2":null,"ACCEPTABLE_CITY3":null,"AVOID_CITY1":"ELSIE","AVOID_CITY2":"JEWELL","AVOID_CITY3":null,"CENSUS_ZCTA":"97138","ObjectId":103}},{"type":"Feature","id":104,"geometry":null,"properties":{"ZIP_CODE":"97140","ZIP_TYPE":"STANDARD","PREFERRED_CITY":"SHERWOOD","ACCEPTABLE_CITY1":null,"ACCEPTABLE_CITY2":null,"ACCEPTABLE_CITY3":null,"AVOID_CITY1":null,"AVOID_CITY2":null,"AVOID_CITY3":null,"CENSUS_ZCTA":"97140","ObjectId":104}},{"type":"Feature","id":105,"geometry":null,"properties":{"ZIP_CODE":"97141","ZIP_TYPE":"STANDARD","PREFERRED_CITY":"TILLAMOOK","ACCEPTABLE_CITY1":null,"ACCEPTABLE_CITY2":null,"ACCEPTABLE_CITY3":null,"AVOID_CITY1":"CAPE MEARES","AVOID_CITY2":"LEES CAMP","AVOID_CITY3":null,"CENSUS_ZCTA":"97141","ObjectId":105}},{"type":"Feature","id":106,"geometry":null,"properties":{"ZIP_CODE":"97143","ZIP_TYPE":"PO BOX ONLY","PREFERRED_CITY":"NETARTS","ACCEPTABLE_CITY1":"NETARTS BAY","ACCEPTABLE_CITY2":null,"ACCEPTABLE_CITY3":null,"AVOID_CITY1":null,"AVOID_CITY2":null,"AVOID_CITY3":null,"CENSUS_ZCTA":"NO ZCTA","ObjectId":106}},{"type":"Feature","id":107,"geometry":null,"properties":{"ZIP_CODE":"97144","ZIP_TYPE":"STANDARD","PREFERRED_CITY":"TIMBER","ACCEPTABLE_CITY1":null,"ACCEPTABLE_CITY2":null,"ACCEPTABLE_CITY3":null,"AVOID_CITY1":null,"AVOID_CITY2":null,"AVOID_CITY3":null,"CENSUS_ZCTA":"97144","ObjectId":107}},{"type":"Feature","id":108,"geometry":null,"properties":{"ZIP_CODE":"97145","ZIP_TYPE":"PO BOX ONLY","PREFERRED_CITY":"TOLOVANA PARK","ACCEPTABLE_CITY1":null,"ACCEPTABLE_CITY2":null,"ACCEPTABLE_CITY3":null,"AVOID_CITY1":null,"AVOID_CITY2":null,"AVOID_CITY3":null,"CENSUS_ZCTA":"97145","ObjectId":108}},{"type":"Feature","id":109,"geometry":null,"properties":{"ZIP_CODE":"97146","ZIP_TYPE":"STANDARD","PREFERRED_CITY":"WARRENTON","ACCEPTABLE_CITY1":null,"ACCEPTABLE_CITY2":null,"ACCEPTABLE_CITY3":null,"AVOID_CITY1":null,"AVOID_CITY2":null,"AVOID_CITY3":null,"CENSUS_ZCTA":"97146","ObjectId":109}},{"type":"Feature","id":110,"geometry":null,"properties":{"ZIP_CODE":"97147","ZIP_TYPE":"PO BOX ONLY","PREFERRED_CITY":"WHEELER","ACCEPTABLE_CITY1":null,"ACCEPTABLE_CITY2":null,"ACCEPTABLE_CITY3":null,"AVOID_CITY1":null,"AVOID_CITY2":null,"AVOID_CITY3":null,"CENSUS_ZCTA":"97147","ObjectId":110}},{"type":"Feature","id":111,"geometry":null,"properties":{"ZIP_CODE":"97148","ZIP_TYPE":"STANDARD","PREFERRED_CITY":"YAMHILL","ACCEPTABLE_CITY1":null,"ACCEPTABLE_CITY2":null,"ACCEPTABLE_CITY3":null,"AVOID_CITY1":null,"AVOID_CITY2":null,"AVOID_CITY3":null,"CENSUS_ZCTA":"97148","ObjectId":111}},{"type":"Feature","id":112,"geometry":null,"properties":{"ZIP_CODE":"97149","ZIP_TYPE":"STANDARD","PREFERRED_CITY":"NESKOWIN","ACCEPTABLE_CITY1":null,"ACCEPTABLE_CITY2":null,"ACCEPTABLE_CITY3":null,"AVOID_CITY1":null,"AVOID_CITY2":null,"AVOID_CITY3":null,"CENSUS_ZCTA":"97149","ObjectId":112}},{"type":"Feature","id":113,"geometry":null,"properties":{"ZIP_CODE":"97201","ZIP_TYPE":"STANDARD","PREFERRED_CITY":"PORTLAND","ACCEPTABLE_CITY1":null,"ACCEPTABLE_CITY2":null,"ACCEPTABLE_CITY3":null,"AVOID_CITY1":null,"AVOID_CITY2":null,"AVOID_CITY3":null,"CENSUS_ZCTA":"97201","ObjectId":113}},{"type":"Feature","id":114,"geometry":null,"properties":{"ZIP_CODE":"97202","ZIP_TYPE":"STANDARD","PREFERRED_CITY":"PORTLAND","ACCEPTABLE_CITY1":null,"ACCEPTABLE_CITY2":null,"ACCEPTABLE_CITY3":null,"AVOID_CITY1":null,"AVOID_CITY2":null,"AVOID_CITY3":null,"CENSUS_ZCTA":"97202","ObjectId":114}},{"type":"Feature","id":115,"geometry":null,"properties":{"ZIP_CODE":"97203","ZIP_TYPE":"STANDARD","PREFERRED_CITY":"PORTLAND","ACCEPTABLE_CITY1":null,"ACCEPTABLE_CITY2":null,"ACCEPTABLE_CITY3":null,"AVOID_CITY1":null,"AVOID_CITY2":null,"AVOID_CITY3":null,"CENSUS_ZCTA":"97203","ObjectId":115}},{"type":"Feature","id":116,"geometry":null,"properties":{"ZIP_CODE":"97204","ZIP_TYPE":"STANDARD","PREFERRED_CITY":"PORTLAND","ACCEPTABLE_CITY1":null,"ACCEPTABLE_CITY2":null,"ACCEPTABLE_CITY3":null,"AVOID_CITY1":null,"AVOID_CITY2":null,"AVOID_CITY3":null,"CENSUS_ZCTA":"97204","ObjectId":116}},{"type":"Feature","id":117,"geometry":null,"properties":{"ZIP_CODE":"97205","ZIP_TYPE":"STANDARD","PREFERRED_CITY":"PORTLAND","ACCEPTABLE_CITY1":null,"ACCEPTABLE_CITY2":null,"ACCEPTABLE_CITY3":null,"AVOID_CITY1":null,"AVOID_CITY2":null,"AVOID_CITY3":null,"CENSUS_ZCTA":"97205","ObjectId":117}},{"type":"Feature","id":118,"geometry":null,"properties":{"ZIP_CODE":"97206","ZIP_TYPE":"STANDARD","PREFERRED_CITY":"PORTLAND","ACCEPTABLE_CITY1":null,"ACCEPTABLE_CITY2":null,"ACCEPTABLE_CITY3":null,"AVOID_CITY1":null,"AVOID_CITY2":null,"AVOID_CITY3":null,"CENSUS_ZCTA":"97206","ObjectId":118}},{"type":"Feature","id":119,"geometry":null,"properties":{"ZIP_CODE":"97207","ZIP_TYPE":"PO BOX ONLY","PREFERRED_CITY":"PORTLAND","ACCEPTABLE_CITY1":null,"ACCEPTABLE_CITY2":null,"ACCEPTABLE_CITY3":null,"AVOID_CITY1":null,"AVOID_CITY2":null,"AVOID_CITY3":null,"CENSUS_ZCTA":"NO ZCTA","ObjectId":119}},{"type":"Feature","id":120,"geometry":null,"properties":{"ZIP_CODE":"97208","ZIP_TYPE":"PO BOX ONLY","PREFERRED_CITY":"PORTLAND","ACCEPTABLE_CITY1":null,"ACCEPTABLE_CITY2":null,"ACCEPTABLE_CITY3":null,"AVOID_CITY1":null,"AVOID_CITY2":null,"AVOID_CITY3":null,"CENSUS_ZCTA":"97208","ObjectId":120}},{"type":"Feature","id":121,"geometry":null,"properties":{"ZIP_CODE":"97209","ZIP_TYPE":"STANDARD","PREFERRED_CITY":"PORTLAND","ACCEPTABLE_CITY1":null,"ACCEPTABLE_CITY2":null,"ACCEPTABLE_CITY3":null,"AVOID_CITY1":null,"AVOID_CITY2":null,"AVOID_CITY3":null,"CENSUS_ZCTA":"97209","ObjectId":121}},{"type":"Feature","id":122,"geometry":null,"properties":{"ZIP_CODE":"97210","ZIP_TYPE":"STANDARD","PREFERRED_CITY":"PORTLAND","ACCEPTABLE_CITY1":null,"ACCEPTABLE_CITY2":null,"ACCEPTABLE_CITY3":null,"AVOID_CITY1":null,"AVOID_CITY2":null,"AVOID_CITY3":null,"CENSUS_ZCTA":"97210","ObjectId":122}},{"type":"Feature","id":123,"geometry":null,"properties":{"ZIP_CODE":"97211","ZIP_TYPE":"STANDARD","PREFERRED_CITY":"PORTLAND","ACCEPTABLE_CITY1":null,"ACCEPTABLE_CITY2":null,"ACCEPTABLE_CITY3":null,"AVOID_CITY1":null,"AVOID_CITY2":null,"AVOID_CITY3":null,"CENSUS_ZCTA":"97211","ObjectId":123}},{"type":"Feature","id":124,"geometry":null,"properties":{"ZIP_CODE":"97212","ZIP_TYPE":"STANDARD","PREFERRED_CITY":"PORTLAND","ACCEPTABLE_CITY1":null,"ACCEPTABLE_CITY2":null,"ACCEPTABLE_CITY3":null,"AVOID_CITY1":null,"AVOID_CITY2":null,"AVOID_CITY3":null,"CENSUS_ZCTA":"97212","ObjectId":124}},{"type":"Feature","id":125,"geometry":null,"properties":{"ZIP_CODE":"97213","ZIP_TYPE":"STANDARD","PREFERRED_CITY":"PORTLAND","ACCEPTABLE_CITY1":null,"ACCEPTABLE_CITY2":null,"ACCEPTABLE_CITY3":null,"AVOID_CITY1":null,"AVOID_CITY2":null,"AVOID_CITY3":null,"CENSUS_ZCTA":"97213","ObjectId":125}},{"type":"Feature","id":126,"geometry":null,"properties":{"ZIP_CODE":"97214","ZIP_TYPE":"STANDARD","PREFERRED_CITY":"PORTLAND","ACCEPTABLE_CITY1":null,"ACCEPTABLE_CITY2":null,"ACCEPTABLE_CITY3":null,"AVOID_CITY1":null,"AVOID_CITY2":null,"AVOID_CITY3":null,"CENSUS_ZCTA":"97214","ObjectId":126}},{"type":"Feature","id":127,"geometry":null,"properties":{"ZIP_CODE":"97215","ZIP_TYPE":"STANDARD","PREFERRED_CITY":"PORTLAND","ACCEPTABLE_CITY1":null,"ACCEPTABLE_CITY2":null,"ACCEPTABLE_CITY3":null,"AVOID_CITY1":null,"AVOID_CITY2":null,"AVOID_CITY3":null,"CENSUS_ZCTA":"97215","ObjectId":127}},{"type":"Feature","id":128,"geometry":null,"properties":{"ZIP_CODE":"97216","ZIP_TYPE":"STANDARD","PREFERRED_CITY":"PORTLAND","ACCEPTABLE_CITY1":null,"ACCEPTABLE_CITY2":null,"ACCEPTABLE_CITY3":null,"AVOID_CITY1":null,"AVOID_CITY2":null,"AVOID_CITY3":null,"CENSUS_ZCTA":"97216","ObjectId":128}},{"type":"Feature","id":129,"geometry":null,"properties":{"ZIP_CODE":"97217","ZIP_TYPE":"STANDARD","PREFERRED_CITY":"PORTLAND","ACCEPTABLE_CITY1":null,"ACCEPTABLE_CITY2":null,"ACCEPTABLE_CITY3":null,"AVOID_CITY1":null,"AVOID_CITY2":null,"AVOID_CITY3":null,"CENSUS_ZCTA":"97217","ObjectId":129}},{"type":"Feature","id":130,"geometry":null,"properties":{"ZIP_CODE":"97218","ZIP_TYPE":"STANDARD","PREFERRED_CITY":"PORTLAND","ACCEPTABLE_CITY1":null,"ACCEPTABLE_CITY2":null,"ACCEPTABLE_CITY3":null,"AVOID_CITY1":null,"AVOID_CITY2":null,"AVOID_CITY3":null,"CENSUS_ZCTA":"97218","ObjectId":130}},{"type":"Feature","id":131,"geometry":null,"properties":{"ZIP_CODE":"97219","ZIP_TYPE":"STANDARD","PREFERRED_CITY":"PORTLAND","ACCEPTABLE_CITY1":null,"ACCEPTABLE_CITY2":null,"ACCEPTABLE_CITY3":null,"AVOID_CITY1":null,"AVOID_CITY2":null,"AVOID_CITY3":null,"CENSUS_ZCTA":"97219","ObjectId":131}},{"type":"Feature","id":132,"geometry":null,"properties":{"ZIP_CODE":"97220","ZIP_TYPE":"STANDARD","PREFERRED_CITY":"PORTLAND","ACCEPTABLE_CITY1":null,"ACCEPTABLE_CITY2":null,"ACCEPTABLE_CITY3":null,"AVOID_CITY1":"MAYWOOD PARK","AVOID_CITY2":"MAYWOOD PK","AVOID_CITY3":"PARKROSE","CENSUS_ZCTA":"97220","ObjectId":132}},{"type":"Feature","id":133,"geometry":null,"properties":{"ZIP_CODE":"97221","ZIP_TYPE":"STANDARD","PREFERRED_CITY":"PORTLAND","ACCEPTABLE_CITY1":null,"ACCEPTABLE_CITY2":null,"ACCEPTABLE_CITY3":null,"AVOID_CITY1":null,"AVOID_CITY2":null,"AVOID_CITY3":null,"CENSUS_ZCTA":"97221","ObjectId":133}},{"type":"Feature","id":134,"geometry":null,"properties":{"ZIP_CODE":"97222","ZIP_TYPE":"STANDARD","PREFERRED_CITY":"PORTLAND","ACCEPTABLE_CITY1":"MILWAUKIE","ACCEPTABLE_CITY2":"OAK GROVE","ACCEPTABLE_CITY3":null,"AVOID_CITY1":null,"AVOID_CITY2":null,"AVOID_CITY3":null,"CENSUS_ZCTA":"97222","ObjectId":134}},{"type":"Feature","id":135,"geometry":null,"properties":{"ZIP_CODE":"97223","ZIP_TYPE":"STANDARD","PREFERRED_CITY":"PORTLAND","ACCEPTABLE_CITY1":"TIGARD","ACCEPTABLE_CITY2":null,"ACCEPTABLE_CITY3":null,"AVOID_CITY1":null,"AVOID_CITY2":null,"AVOID_CITY3":null,"CENSUS_ZCTA":"97223","ObjectId":135}},{"type":"Feature","id":136,"geometry":null,"properties":{"ZIP_CODE":"97224","ZIP_TYPE":"STANDARD","PREFERRED_CITY":"PORTLAND","ACCEPTABLE_CITY1":"KING CITY","ACCEPTABLE_CITY2":"TIGARD","ACCEPTABLE_CITY3":null,"AVOID_CITY1":"DURHAM","AVOID_CITY2":null,"AVOID_CITY3":null,"CENSUS_ZCTA":"97224","ObjectId":136}},{"type":"Feature","id":137,"geometry":null,"properties":{"ZIP_CODE":"97225","ZIP_TYPE":"STANDARD","PREFERRED_CITY":"PORTLAND","ACCEPTABLE_CITY1":null,"ACCEPTABLE_CITY2":null,"ACCEPTABLE_CITY3":null,"AVOID_CITY1":"WEST SLOPE","AVOID_CITY2":null,"AVOID_CITY3":null,"CENSUS_ZCTA":"97225","ObjectId":137}},{"type":"Feature","id":138,"geometry":null,"properties":{"ZIP_CODE":"97227","ZIP_TYPE":"STANDARD","PREFERRED_CITY":"PORTLAND","ACCEPTABLE_CITY1":null,"ACCEPTABLE_CITY2":null,"ACCEPTABLE_CITY3":null,"AVOID_CITY1":null,"AVOID_CITY2":null,"AVOID_CITY3":null,"CENSUS_ZCTA":"97227","ObjectId":138}},{"type":"Feature","id":139,"geometry":null,"properties":{"ZIP_CODE":"97228","ZIP_TYPE":"PO BOX ONLY","PREFERRED_CITY":"PORTLAND","ACCEPTABLE_CITY1":null,"ACCEPTABLE_CITY2":null,"ACCEPTABLE_CITY3":null,"AVOID_CITY1":null,"AVOID_CITY2":null,"AVOID_CITY3":null,"CENSUS_ZCTA":"NO ZCTA","ObjectId":139}},{"type":"Feature","id":140,"geometry":null,"properties":{"ZIP_CODE":"97229","ZIP_TYPE":"STANDARD","PREFERRED_CITY":"PORTLAND","ACCEPTABLE_CITY1":null,"ACCEPTABLE_CITY2":null,"ACCEPTABLE_CITY3":null,"AVOID_CITY1":"CEDAR MILL","AVOID_CITY2":"FOREST HEIGHTS","AVOID_CITY3":"ROCK CREEK","CENSUS_ZCTA":"97229","ObjectId":140}},{"type":"Feature","id":141,"geometry":null,"properties":{"ZIP_CODE":"97230","ZIP_TYPE":"STANDARD","PREFERRED_CITY":"PORTLAND","ACCEPTABLE_CITY1":null,"ACCEPTABLE_CITY2":null,"ACCEPTABLE_CITY3":null,"AVOID_CITY1":"PARKROSE","AVOID_CITY2":null,"AVOID_CITY3":null,"CENSUS_ZCTA":"97230","ObjectId":141}},{"type":"Feature","id":142,"geometry":null,"properties":{"ZIP_CODE":"97231","ZIP_TYPE":"STANDARD","PREFERRED_CITY":"PORTLAND","ACCEPTABLE_CITY1":null,"ACCEPTABLE_CITY2":null,"ACCEPTABLE_CITY3":null,"AVOID_CITY1":"BURLINGTON","AVOID_CITY2":null,"AVOID_CITY3":null,"CENSUS_ZCTA":"97231","ObjectId":142}},{"type":"Feature","id":143,"geometry":null,"properties":{"ZIP_CODE":"97342","ZIP_TYPE":"PO BOX ONLY","PREFERRED_CITY":"DETROIT","ACCEPTABLE_CITY1":null,"ACCEPTABLE_CITY2":null,"ACCEPTABLE_CITY3":null,"AVOID_CITY1":null,"AVOID_CITY2":null,"AVOID_CITY3":null,"CENSUS_ZCTA":"97342","ObjectId":143}},{"type":"Feature","id":144,"geometry":null,"properties":{"ZIP_CODE":"97232","ZIP_TYPE":"STANDARD","PREFERRED_CITY":"PORTLAND","ACCEPTABLE_CITY1":null,"ACCEPTABLE_CITY2":null,"ACCEPTABLE_CITY3":null,"AVOID_CITY1":null,"AVOID_CITY2":null,"AVOID_CITY3":null,"CENSUS_ZCTA":"97232","ObjectId":144}},{"type":"Feature","id":145,"geometry":null,"properties":{"ZIP_CODE":"97233","ZIP_TYPE":"STANDARD","PREFERRED_CITY":"PORTLAND","ACCEPTABLE_CITY1":null,"ACCEPTABLE_CITY2":null,"ACCEPTABLE_CITY3":null,"AVOID_CITY1":"ROCKWOOD","AVOID_CITY2":null,"AVOID_CITY3":null,"CENSUS_ZCTA":"97233","ObjectId":145}},{"type":"Feature","id":146,"geometry":null,"properties":{"ZIP_CODE":"97236","ZIP_TYPE":"STANDARD","PREFERRED_CITY":"PORTLAND","ACCEPTABLE_CITY1":null,"ACCEPTABLE_CITY2":null,"ACCEPTABLE_CITY3":null,"AVOID_CITY1":null,"AVOID_CITY2":null,"AVOID_CITY3":null,"CENSUS_ZCTA":"97236","ObjectId":146}},{"type":"Feature","id":147,"geometry":null,"properties":{"ZIP_CODE":"97238","ZIP_TYPE":"PO BOX ONLY","PREFERRED_CITY":"PORTLAND","ACCEPTABLE_CITY1":null,"ACCEPTABLE_CITY2":null,"ACCEPTABLE_CITY3":null,"AVOID_CITY1":null,"AVOID_CITY2":null,"AVOID_CITY3":null,"CENSUS_ZCTA":"NO ZCTA","ObjectId":147}},{"type":"Feature","id":148,"geometry":null,"properties":{"ZIP_CODE":"97239","ZIP_TYPE":"STANDARD","PREFERRED_CITY":"PORTLAND","ACCEPTABLE_CITY1":null,"ACCEPTABLE_CITY2":null,"ACCEPTABLE_CITY3":null,"AVOID_CITY1":null,"AVOID_CITY2":null,"AVOID_CITY3":null,"CENSUS_ZCTA":"97239","ObjectId":148}},{"type":"Feature","id":149,"geometry":null,"properties":{"ZIP_CODE":"97240","ZIP_TYPE":"PO BOX ONLY","PREFERRED_CITY":"PORTLAND","ACCEPTABLE_CITY1":null,"ACCEPTABLE_CITY2":null,"ACCEPTABLE_CITY3":null,"AVOID_CITY1":null,"AVOID_CITY2":null,"AVOID_CITY3":null,"CENSUS_ZCTA":"NO ZCTA","ObjectId":149}},{"type":"Feature","id":150,"geometry":null,"properties":{"ZIP_CODE":"97242","ZIP_TYPE":"PO BOX ONLY","PREFERRED_CITY":"PORTLAND","ACCEPTABLE_CITY1":null,"ACCEPTABLE_CITY2":null,"ACCEPTABLE_CITY3":null,"AVOID_CITY1":null,"AVOID_CITY2":null,"AVOID_CITY3":null,"CENSUS_ZCTA":"NO ZCTA","ObjectId":150}},{"type":"Feature","id":151,"geometry":null,"properties":{"ZIP_CODE":"97250","ZIP_TYPE":"UNIQUE","PREFERRED_CITY":"PORTLAND","ACCEPTABLE_CITY1":null,"ACCEPTABLE_CITY2":null,"ACCEPTABLE_CITY3":null,"AVOID_CITY1":"SHARED RESHIPPER","AVOID_CITY2":null,"AVOID_CITY3":null,"CENSUS_ZCTA":"NO ZCTA","ObjectId":151}},{"type":"Feature","id":152,"geometry":null,"properties":{"ZIP_CODE":"97251","ZIP_TYPE":"UNIQUE","PREFERRED_CITY":"PORTLAND","ACCEPTABLE_CITY1":null,"ACCEPTABLE_CITY2":null,"ACCEPTABLE_CITY3":null,"AVOID_CITY1":"ADAIR VILLAGE","AVOID_CITY2":"SHARED RESHIPPER","AVOID_CITY3":null,"CENSUS_ZCTA":"NO ZCTA","ObjectId":152}},{"type":"Feature","id":153,"geometry":null,"properties":{"ZIP_CODE":"97343","ZIP_TYPE":"STANDARD","PREFERRED_CITY":"EDDYVILLE","ACCEPTABLE_CITY1":null,"ACCEPTABLE_CITY2":null,"ACCEPTABLE_CITY3":null,"AVOID_CITY1":null,"AVOID_CITY2":null,"AVOID_CITY3":null,"CENSUS_ZCTA":"97343","ObjectId":153}},{"type":"Feature","id":154,"geometry":null,"properties":{"ZIP_CODE":"97252","ZIP_TYPE":"UNIQUE","PREFERRED_CITY":"PORTLAND","ACCEPTABLE_CITY1":null,"ACCEPTABLE_CITY2":null,"ACCEPTABLE_CITY3":null,"AVOID_CITY1":"SHARED RESHIPPER","AVOID_CITY2":null,"AVOID_CITY3":null,"CENSUS_ZCTA":"NO ZCTA","ObjectId":154}},{"type":"Feature","id":155,"geometry":null,"properties":{"ZIP_CODE":"97344","ZIP_TYPE":"STANDARD","PREFERRED_CITY":"FALLS CITY","ACCEPTABLE_CITY1":null,"ACCEPTABLE_CITY2":null,"ACCEPTABLE_CITY3":null,"AVOID_CITY1":null,"AVOID_CITY2":null,"AVOID_CITY3":null,"CENSUS_ZCTA":"97344","ObjectId":155}},{"type":"Feature","id":156,"geometry":null,"properties":{"ZIP_CODE":"97345","ZIP_TYPE":"STANDARD","PREFERRED_CITY":"FOSTER","ACCEPTABLE_CITY1":null,"ACCEPTABLE_CITY2":null,"ACCEPTABLE_CITY3":null,"AVOID_CITY1":null,"AVOID_CITY2":null,"AVOID_CITY3":null,"CENSUS_ZCTA":"97345","ObjectId":156}},{"type":"Feature","id":157,"geometry":null,"properties":{"ZIP_CODE":"97253","ZIP_TYPE":"UNIQUE","PREFERRED_CITY":"PORTLAND","ACCEPTABLE_CITY1":null,"ACCEPTABLE_CITY2":null,"ACCEPTABLE_CITY3":null,"AVOID_CITY1":"SHARED RESHIPPER","AVOID_CITY2":null,"AVOID_CITY3":null,"CENSUS_ZCTA":"NO ZCTA","ObjectId":157}},{"type":"Feature","id":158,"geometry":null,"properties":{"ZIP_CODE":"97346","ZIP_TYPE":"STANDARD","PREFERRED_CITY":"GATES","ACCEPTABLE_CITY1":null,"ACCEPTABLE_CITY2":null,"ACCEPTABLE_CITY3":null,"AVOID_CITY1":null,"AVOID_CITY2":null,"AVOID_CITY3":null,"CENSUS_ZCTA":"97346","ObjectId":158}},{"type":"Feature","id":159,"geometry":null,"properties":{"ZIP_CODE":"97254","ZIP_TYPE":"UNIQUE","PREFERRED_CITY":"PORTLAND","ACCEPTABLE_CITY1":null,"ACCEPTABLE_CITY2":null,"ACCEPTABLE_CITY3":null,"AVOID_CITY1":"SHARED RESHIPPER","AVOID_CITY2":null,"AVOID_CITY3":null,"CENSUS_ZCTA":"NO ZCTA","ObjectId":159}},{"type":"Feature","id":160,"geometry":null,"properties":{"ZIP_CODE":"97256","ZIP_TYPE":"UNIQUE","PREFERRED_CITY":"PORTLAND","ACCEPTABLE_CITY1":null,"ACCEPTABLE_CITY2":null,"ACCEPTABLE_CITY3":null,"AVOID_CITY1":"PACIFIC POWER","AVOID_CITY2":"PACIFICORP","AVOID_CITY3":null,"CENSUS_ZCTA":"NO ZCTA","ObjectId":160}},{"type":"Feature","id":161,"geometry":null,"properties":{"ZIP_CODE":"97266","ZIP_TYPE":"STANDARD","PREFERRED_CITY":"PORTLAND","ACCEPTABLE_CITY1":null,"ACCEPTABLE_CITY2":null,"ACCEPTABLE_CITY3":null,"AVOID_CITY1":null,"AVOID_CITY2":null,"AVOID_CITY3":null,"CENSUS_ZCTA":"97266","ObjectId":161}},{"type":"Feature","id":162,"geometry":null,"properties":{"ZIP_CODE":"97347","ZIP_TYPE":"STANDARD","PREFERRED_CITY":"GRAND RONDE","ACCEPTABLE_CITY1":null,"ACCEPTABLE_CITY2":null,"ACCEPTABLE_CITY3":null,"AVOID_CITY1":null,"AVOID_CITY2":null,"AVOID_CITY3":null,"CENSUS_ZCTA":"97347","ObjectId":162}},{"type":"Feature","id":163,"geometry":null,"properties":{"ZIP_CODE":"97267","ZIP_TYPE":"STANDARD","PREFERRED_CITY":"PORTLAND","ACCEPTABLE_CITY1":"MILWAUKIE","ACCEPTABLE_CITY2":"OAK GROVE","ACCEPTABLE_CITY3":null,"AVOID_CITY1":null,"AVOID_CITY2":null,"AVOID_CITY3":null,"CENSUS_ZCTA":"97267","ObjectId":163}},{"type":"Feature","id":164,"geometry":null,"properties":{"ZIP_CODE":"97348","ZIP_TYPE":"STANDARD","PREFERRED_CITY":"HALSEY","ACCEPTABLE_CITY1":null,"ACCEPTABLE_CITY2":null,"ACCEPTABLE_CITY3":null,"AVOID_CITY1":null,"AVOID_CITY2":null,"AVOID_CITY3":null,"CENSUS_ZCTA":"97348","ObjectId":164}},{"type":"Feature","id":165,"geometry":null,"properties":{"ZIP_CODE":"97268","ZIP_TYPE":"PO BOX ONLY","PREFERRED_CITY":"PORTLAND","ACCEPTABLE_CITY1":"OAK GROVE","ACCEPTABLE_CITY2":null,"ACCEPTABLE_CITY3":null,"AVOID_CITY1":null,"AVOID_CITY2":null,"AVOID_CITY3":null,"CENSUS_ZCTA":"NO ZCTA","ObjectId":165}},{"type":"Feature","id":166,"geometry":null,"properties":{"ZIP_CODE":"97350","ZIP_TYPE":"STANDARD","PREFERRED_CITY":"IDANHA","ACCEPTABLE_CITY1":null,"ACCEPTABLE_CITY2":null,"ACCEPTABLE_CITY3":null,"AVOID_CITY1":null,"AVOID_CITY2":null,"AVOID_CITY3":null,"CENSUS_ZCTA":"97350","ObjectId":166}},{"type":"Feature","id":167,"geometry":null,"properties":{"ZIP_CODE":"97269","ZIP_TYPE":"PO BOX ONLY","PREFERRED_CITY":"PORTLAND","ACCEPTABLE_CITY1":"MILWAUKIE","ACCEPTABLE_CITY2":null,"ACCEPTABLE_CITY3":null,"AVOID_CITY1":null,"AVOID_CITY2":null,"AVOID_CITY3":null,"CENSUS_ZCTA":"NO ZCTA","ObjectId":167}},{"type":"Feature","id":168,"geometry":null,"properties":{"ZIP_CODE":"97351","ZIP_TYPE":"STANDARD","PREFERRED_CITY":"INDEPENDENCE","ACCEPTABLE_CITY1":null,"ACCEPTABLE_CITY2":null,"ACCEPTABLE_CITY3":null,"AVOID_CITY1":null,"AVOID_CITY2":null,"AVOID_CITY3":null,"CENSUS_ZCTA":"97351","ObjectId":168}},{"type":"Feature","id":169,"geometry":null,"properties":{"ZIP_CODE":"97280","ZIP_TYPE":"PO BOX ONLY","PREFERRED_CITY":"PORTLAND","ACCEPTABLE_CITY1":null,"ACCEPTABLE_CITY2":null,"ACCEPTABLE_CITY3":null,"AVOID_CITY1":null,"AVOID_CITY2":null,"AVOID_CITY3":null,"CENSUS_ZCTA":"NO ZCTA","ObjectId":169}},{"type":"Feature","id":170,"geometry":null,"properties":{"ZIP_CODE":"97352","ZIP_TYPE":"STANDARD","PREFERRED_CITY":"JEFFERSON","ACCEPTABLE_CITY1":null,"ACCEPTABLE_CITY2":null,"ACCEPTABLE_CITY3":null,"AVOID_CITY1":null,"AVOID_CITY2":null,"AVOID_CITY3":null,"CENSUS_ZCTA":"97352","ObjectId":170}},{"type":"Feature","id":171,"geometry":null,"properties":{"ZIP_CODE":"97281","ZIP_TYPE":"PO BOX ONLY","PREFERRED_CITY":"PORTLAND","ACCEPTABLE_CITY1":"TIGARD","ACCEPTABLE_CITY2":null,"ACCEPTABLE_CITY3":null,"AVOID_CITY1":null,"AVOID_CITY2":null,"AVOID_CITY3":null,"CENSUS_ZCTA":"NO ZCTA","ObjectId":171}},{"type":"Feature","id":172,"geometry":null,"properties":{"ZIP_CODE":"97355","ZIP_TYPE":"STANDARD","PREFERRED_CITY":"LEBANON","ACCEPTABLE_CITY1":null,"ACCEPTABLE_CITY2":null,"ACCEPTABLE_CITY3":null,"AVOID_CITY1":null,"AVOID_CITY2":null,"AVOID_CITY3":null,"CENSUS_ZCTA":"97355","ObjectId":172}},{"type":"Feature","id":173,"geometry":null,"properties":{"ZIP_CODE":"97282","ZIP_TYPE":"PO BOX ONLY","PREFERRED_CITY":"PORTLAND","ACCEPTABLE_CITY1":null,"ACCEPTABLE_CITY2":null,"ACCEPTABLE_CITY3":null,"AVOID_CITY1":null,"AVOID_CITY2":null,"AVOID_CITY3":null,"CENSUS_ZCTA":"NO ZCTA","ObjectId":173}},{"type":"Feature","id":174,"geometry":null,"properties":{"ZIP_CODE":"97357","ZIP_TYPE":"STANDARD","PREFERRED_CITY":"LOGSDEN","ACCEPTABLE_CITY1":null,"ACCEPTABLE_CITY2":null,"ACCEPTABLE_CITY3":null,"AVOID_CITY1":null,"AVOID_CITY2":null,"AVOID_CITY3":null,"CENSUS_ZCTA":"97357","ObjectId":174}},{"type":"Feature","id":175,"geometry":null,"properties":{"ZIP_CODE":"97283","ZIP_TYPE":"PO BOX ONLY","PREFERRED_CITY":"PORTLAND","ACCEPTABLE_CITY1":null,"ACCEPTABLE_CITY2":null,"ACCEPTABLE_CITY3":null,"AVOID_CITY1":null,"AVOID_CITY2":null,"AVOID_CITY3":null,"CENSUS_ZCTA":"NO ZCTA","ObjectId":175}},{"type":"Feature","id":176,"geometry":null,"properties":{"ZIP_CODE":"97358","ZIP_TYPE":"STANDARD","PREFERRED_CITY":"LYONS","ACCEPTABLE_CITY1":null,"ACCEPTABLE_CITY2":null,"ACCEPTABLE_CITY3":null,"AVOID_CITY1":null,"AVOID_CITY2":null,"AVOID_CITY3":null,"CENSUS_ZCTA":"97358","ObjectId":176}},{"type":"Feature","id":177,"geometry":null,"properties":{"ZIP_CODE":"97286","ZIP_TYPE":"PO BOX ONLY","PREFERRED_CITY":"PORTLAND","ACCEPTABLE_CITY1":null,"ACCEPTABLE_CITY2":null,"ACCEPTABLE_CITY3":null,"AVOID_CITY1":null,"AVOID_CITY2":null,"AVOID_CITY3":null,"CENSUS_ZCTA":"NO ZCTA","ObjectId":177}},{"type":"Feature","id":178,"geometry":null,"properties":{"ZIP_CODE":"97360","ZIP_TYPE":"STANDARD","PREFERRED_CITY":"MILL CITY","ACCEPTABLE_CITY1":null,"ACCEPTABLE_CITY2":null,"ACCEPTABLE_CITY3":null,"AVOID_CITY1":null,"AVOID_CITY2":null,"AVOID_CITY3":null,"CENSUS_ZCTA":"97360","ObjectId":178}},{"type":"Feature","id":179,"geometry":null,"properties":{"ZIP_CODE":"97290","ZIP_TYPE":"PO BOX ONLY","PREFERRED_CITY":"PORTLAND","ACCEPTABLE_CITY1":null,"ACCEPTABLE_CITY2":null,"ACCEPTABLE_CITY3":null,"AVOID_CITY1":null,"AVOID_CITY2":null,"AVOID_CITY3":null,"CENSUS_ZCTA":"NO ZCTA","ObjectId":179}},{"type":"Feature","id":180,"geometry":null,"properties":{"ZIP_CODE":"97361","ZIP_TYPE":"STANDARD","PREFERRED_CITY":"MONMOUTH","ACCEPTABLE_CITY1":null,"ACCEPTABLE_CITY2":null,"ACCEPTABLE_CITY3":null,"AVOID_CITY1":null,"AVOID_CITY2":null,"AVOID_CITY3":null,"CENSUS_ZCTA":"97361","ObjectId":180}},{"type":"Feature","id":181,"geometry":null,"properties":{"ZIP_CODE":"97291","ZIP_TYPE":"PO BOX ONLY","PREFERRED_CITY":"PORTLAND","ACCEPTABLE_CITY1":null,"ACCEPTABLE_CITY2":null,"ACCEPTABLE_CITY3":null,"AVOID_CITY1":"CEDAR MILL","AVOID_CITY2":null,"AVOID_CITY3":null,"CENSUS_ZCTA":"NO ZCTA","ObjectId":181}},{"type":"Feature","id":182,"geometry":null,"properties":{"ZIP_CODE":"97362","ZIP_TYPE":"STANDARD","PREFERRED_CITY":"MOUNT ANGEL","ACCEPTABLE_CITY1":null,"ACCEPTABLE_CITY2":null,"ACCEPTABLE_CITY3":null,"AVOID_CITY1":null,"AVOID_CITY2":null,"AVOID_CITY3":null,"CENSUS_ZCTA":"97362","ObjectId":182}},{"type":"Feature","id":183,"geometry":null,"properties":{"ZIP_CODE":"97292","ZIP_TYPE":"PO BOX ONLY","PREFERRED_CITY":"PORTLAND","ACCEPTABLE_CITY1":null,"ACCEPTABLE_CITY2":null,"ACCEPTABLE_CITY3":null,"AVOID_CITY1":null,"AVOID_CITY2":null,"AVOID_CITY3":null,"CENSUS_ZCTA":"NO ZCTA","ObjectId":183}},{"type":"Feature","id":184,"geometry":null,"properties":{"ZIP_CODE":"97364","ZIP_TYPE":"STANDARD","PREFERRED_CITY":"NEOTSU","ACCEPTABLE_CITY1":null,"ACCEPTABLE_CITY2":null,"ACCEPTABLE_CITY3":null,"AVOID_CITY1":null,"AVOID_CITY2":null,"AVOID_CITY3":null,"CENSUS_ZCTA":"97364","ObjectId":184}},{"type":"Feature","id":185,"geometry":null,"properties":{"ZIP_CODE":"97293","ZIP_TYPE":"PO BOX ONLY","PREFERRED_CITY":"PORTLAND","ACCEPTABLE_CITY1":null,"ACCEPTABLE_CITY2":null,"ACCEPTABLE_CITY3":null,"AVOID_CITY1":null,"AVOID_CITY2":null,"AVOID_CITY3":null,"CENSUS_ZCTA":"NO ZCTA","ObjectId":185}},{"type":"Feature","id":186,"geometry":null,"properties":{"ZIP_CODE":"97365","ZIP_TYPE":"STANDARD","PREFERRED_CITY":"NEWPORT","ACCEPTABLE_CITY1":null,"ACCEPTABLE_CITY2":null,"ACCEPTABLE_CITY3":null,"AVOID_CITY1":"AGATE BEACH","AVOID_CITY2":null,"AVOID_CITY3":null,"CENSUS_ZCTA":"97365","ObjectId":186}},{"type":"Feature","id":187,"geometry":null,"properties":{"ZIP_CODE":"97294","ZIP_TYPE":"PO BOX ONLY","PREFERRED_CITY":"PORTLAND","ACCEPTABLE_CITY1":null,"ACCEPTABLE_CITY2":null,"ACCEPTABLE_CITY3":null,"AVOID_CITY1":null,"AVOID_CITY2":null,"AVOID_CITY3":null,"CENSUS_ZCTA":"NO ZCTA","ObjectId":187}},{"type":"Feature","id":188,"geometry":null,"properties":{"ZIP_CODE":"97366","ZIP_TYPE":"STANDARD","PREFERRED_CITY":"SOUTH BEACH","ACCEPTABLE_CITY1":"NEWPORT","ACCEPTABLE_CITY2":null,"ACCEPTABLE_CITY3":null,"AVOID_CITY1":null,"AVOID_CITY2":null,"AVOID_CITY3":null,"CENSUS_ZCTA":"97366","ObjectId":188}},{"type":"Feature","id":189,"geometry":null,"properties":{"ZIP_CODE":"97296","ZIP_TYPE":"PO BOX ONLY","PREFERRED_CITY":"PORTLAND","ACCEPTABLE_CITY1":null,"ACCEPTABLE_CITY2":null,"ACCEPTABLE_CITY3":null,"AVOID_CITY1":null,"AVOID_CITY2":null,"AVOID_CITY3":null,"CENSUS_ZCTA":"NO ZCTA","ObjectId":189}},{"type":"Feature","id":190,"geometry":null,"properties":{"ZIP_CODE":"97367","ZIP_TYPE":"STANDARD","PREFERRED_CITY":"LINCOLN CITY","ACCEPTABLE_CITY1":"ROSE LODGE","ACCEPTABLE_CITY2":null,"ACCEPTABLE_CITY3":null,"AVOID_CITY1":null,"AVOID_CITY2":null,"AVOID_CITY3":null,"CENSUS_ZCTA":"97367","ObjectId":190}},{"type":"Feature","id":191,"geometry":null,"properties":{"ZIP_CODE":"97298","ZIP_TYPE":"PO BOX ONLY","PREFERRED_CITY":"PORTLAND","ACCEPTABLE_CITY1":null,"ACCEPTABLE_CITY2":null,"ACCEPTABLE_CITY3":null,"AVOID_CITY1":null,"AVOID_CITY2":null,"AVOID_CITY3":null,"CENSUS_ZCTA":"NO ZCTA","ObjectId":191}},{"type":"Feature","id":192,"geometry":null,"properties":{"ZIP_CODE":"97368","ZIP_TYPE":"STANDARD","PREFERRED_CITY":"OTIS","ACCEPTABLE_CITY1":null,"ACCEPTABLE_CITY2":null,"ACCEPTABLE_CITY3":null,"AVOID_CITY1":null,"AVOID_CITY2":null,"AVOID_CITY3":null,"CENSUS_ZCTA":"97368","ObjectId":192}},{"type":"Feature","id":193,"geometry":null,"properties":{"ZIP_CODE":"97301","ZIP_TYPE":"STANDARD","PREFERRED_CITY":"SALEM","ACCEPTABLE_CITY1":null,"ACCEPTABLE_CITY2":null,"ACCEPTABLE_CITY3":null,"AVOID_CITY1":null,"AVOID_CITY2":null,"AVOID_CITY3":null,"CENSUS_ZCTA":"97301","ObjectId":193}},{"type":"Feature","id":194,"geometry":null,"properties":{"ZIP_CODE":"97369","ZIP_TYPE":"STANDARD","PREFERRED_CITY":"OTTER ROCK","ACCEPTABLE_CITY1":null,"ACCEPTABLE_CITY2":null,"ACCEPTABLE_CITY3":null,"AVOID_CITY1":null,"AVOID_CITY2":null,"AVOID_CITY3":null,"CENSUS_ZCTA":"97369","ObjectId":194}},{"type":"Feature","id":195,"geometry":null,"properties":{"ZIP_CODE":"97302","ZIP_TYPE":"STANDARD","PREFERRED_CITY":"SALEM","ACCEPTABLE_CITY1":null,"ACCEPTABLE_CITY2":null,"ACCEPTABLE_CITY3":null,"AVOID_CITY1":null,"AVOID_CITY2":null,"AVOID_CITY3":null,"CENSUS_ZCTA":"97302","ObjectId":195}},{"type":"Feature","id":196,"geometry":null,"properties":{"ZIP_CODE":"97370","ZIP_TYPE":"STANDARD","PREFERRED_CITY":"PHILOMATH","ACCEPTABLE_CITY1":null,"ACCEPTABLE_CITY2":null,"ACCEPTABLE_CITY3":null,"AVOID_CITY1":null,"AVOID_CITY2":null,"AVOID_CITY3":null,"CENSUS_ZCTA":"97370","ObjectId":196}},{"type":"Feature","id":197,"geometry":null,"properties":{"ZIP_CODE":"97303","ZIP_TYPE":"STANDARD","PREFERRED_CITY":"SALEM","ACCEPTABLE_CITY1":"KEIZER","ACCEPTABLE_CITY2":null,"ACCEPTABLE_CITY3":null,"AVOID_CITY1":null,"AVOID_CITY2":null,"AVOID_CITY3":null,"CENSUS_ZCTA":"97303","ObjectId":197}},{"type":"Feature","id":198,"geometry":null,"properties":{"ZIP_CODE":"97371","ZIP_TYPE":"STANDARD","PREFERRED_CITY":"RICKREALL","ACCEPTABLE_CITY1":null,"ACCEPTABLE_CITY2":null,"ACCEPTABLE_CITY3":null,"AVOID_CITY1":null,"AVOID_CITY2":null,"AVOID_CITY3":null,"CENSUS_ZCTA":"97371","ObjectId":198}},{"type":"Feature","id":199,"geometry":null,"properties":{"ZIP_CODE":"97304","ZIP_TYPE":"STANDARD","PREFERRED_CITY":"SALEM","ACCEPTABLE_CITY1":null,"ACCEPTABLE_CITY2":null,"ACCEPTABLE_CITY3":null,"AVOID_CITY1":null,"AVOID_CITY2":null,"AVOID_CITY3":null,"CENSUS_ZCTA":"97304","ObjectId":199}},{"type":"Feature","id":200,"geometry":null,"properties":{"ZIP_CODE":"97373","ZIP_TYPE":"PO BOX ONLY","PREFERRED_CITY":"SAINT BENEDICT","ACCEPTABLE_CITY1":"ST BENEDICT","ACCEPTABLE_CITY2":null,"ACCEPTABLE_CITY3":null,"AVOID_CITY1":null,"AVOID_CITY2":null,"AVOID_CITY3":null,"CENSUS_ZCTA":"97373","ObjectId":200}},{"type":"Feature","id":201,"geometry":null,"properties":{"ZIP_CODE":"97305","ZIP_TYPE":"STANDARD","PREFERRED_CITY":"SALEM","ACCEPTABLE_CITY1":"BROOKS","ACCEPTABLE_CITY2":null,"ACCEPTABLE_CITY3":null,"AVOID_CITY1":null,"AVOID_CITY2":null,"AVOID_CITY3":null,"CENSUS_ZCTA":"97305","ObjectId":201}},{"type":"Feature","id":202,"geometry":null,"properties":{"ZIP_CODE":"97374","ZIP_TYPE":"STANDARD","PREFERRED_CITY":"SCIO","ACCEPTABLE_CITY1":null,"ACCEPTABLE_CITY2":null,"ACCEPTABLE_CITY3":null,"AVOID_CITY1":null,"AVOID_CITY2":null,"AVOID_CITY3":null,"CENSUS_ZCTA":"97374","ObjectId":202}},{"type":"Feature","id":203,"geometry":null,"properties":{"ZIP_CODE":"97306","ZIP_TYPE":"STANDARD","PREFERRED_CITY":"SALEM","ACCEPTABLE_CITY1":null,"ACCEPTABLE_CITY2":null,"ACCEPTABLE_CITY3":null,"AVOID_CITY1":null,"AVOID_CITY2":null,"AVOID_CITY3":null,"CENSUS_ZCTA":"97306","ObjectId":203}},{"type":"Feature","id":204,"geometry":null,"properties":{"ZIP_CODE":"97375","ZIP_TYPE":"STANDARD","PREFERRED_CITY":"SCOTTS MILLS","ACCEPTABLE_CITY1":null,"ACCEPTABLE_CITY2":null,"ACCEPTABLE_CITY3":null,"AVOID_CITY1":null,"AVOID_CITY2":null,"AVOID_CITY3":null,"CENSUS_ZCTA":"97375","ObjectId":204}},{"type":"Feature","id":205,"geometry":null,"properties":{"ZIP_CODE":"97307","ZIP_TYPE":"PO BOX ONLY","PREFERRED_CITY":"KEIZER","ACCEPTABLE_CITY1":"SALEM","ACCEPTABLE_CITY2":null,"ACCEPTABLE_CITY3":null,"AVOID_CITY1":null,"AVOID_CITY2":null,"AVOID_CITY3":null,"CENSUS_ZCTA":"NO ZCTA","ObjectId":205}},{"type":"Feature","id":206,"geometry":null,"properties":{"ZIP_CODE":"97376","ZIP_TYPE":"STANDARD","PREFERRED_CITY":"SEAL ROCK","ACCEPTABLE_CITY1":null,"ACCEPTABLE_CITY2":null,"ACCEPTABLE_CITY3":null,"AVOID_CITY1":null,"AVOID_CITY2":null,"AVOID_CITY3":null,"CENSUS_ZCTA":"97376","ObjectId":206}},{"type":"Feature","id":207,"geometry":null,"properties":{"ZIP_CODE":"97308","ZIP_TYPE":"PO BOX ONLY","PREFERRED_CITY":"SALEM","ACCEPTABLE_CITY1":null,"ACCEPTABLE_CITY2":null,"ACCEPTABLE_CITY3":null,"AVOID_CITY1":null,"AVOID_CITY2":null,"AVOID_CITY3":null,"CENSUS_ZCTA":"NO ZCTA","ObjectId":207}},{"type":"Feature","id":208,"geometry":null,"properties":{"ZIP_CODE":"97377","ZIP_TYPE":"STANDARD","PREFERRED_CITY":"SHEDD","ACCEPTABLE_CITY1":null,"ACCEPTABLE_CITY2":null,"ACCEPTABLE_CITY3":null,"AVOID_CITY1":null,"AVOID_CITY2":null,"AVOID_CITY3":null,"CENSUS_ZCTA":"97377","ObjectId":208}},{"type":"Feature","id":209,"geometry":null,"properties":{"ZIP_CODE":"97309","ZIP_TYPE":"PO BOX ONLY","PREFERRED_CITY":"SALEM","ACCEPTABLE_CITY1":null,"ACCEPTABLE_CITY2":null,"ACCEPTABLE_CITY3":null,"AVOID_CITY1":null,"AVOID_CITY2":null,"AVOID_CITY3":null,"CENSUS_ZCTA":"NO ZCTA","ObjectId":209}},{"type":"Feature","id":210,"geometry":null,"properties":{"ZIP_CODE":"97378","ZIP_TYPE":"STANDARD","PREFERRED_CITY":"SHERIDAN","ACCEPTABLE_CITY1":null,"ACCEPTABLE_CITY2":null,"ACCEPTABLE_CITY3":null,"AVOID_CITY1":null,"AVOID_CITY2":null,"AVOID_CITY3":null,"CENSUS_ZCTA":"97378","ObjectId":210}},{"type":"Feature","id":211,"geometry":null,"properties":{"ZIP_CODE":"97310","ZIP_TYPE":"UNIQUE","PREFERRED_CITY":"SALEM","ACCEPTABLE_CITY1":null,"ACCEPTABLE_CITY2":null,"ACCEPTABLE_CITY3":null,"AVOID_CITY1":"STATE GOVERNMENT","AVOID_CITY2":null,"AVOID_CITY3":null,"CENSUS_ZCTA":"97310","ObjectId":211}},{"type":"Feature","id":212,"geometry":null,"properties":{"ZIP_CODE":"97380","ZIP_TYPE":"STANDARD","PREFERRED_CITY":"SILETZ","ACCEPTABLE_CITY1":null,"ACCEPTABLE_CITY2":null,"ACCEPTABLE_CITY3":null,"AVOID_CITY1":null,"AVOID_CITY2":null,"AVOID_CITY3":null,"CENSUS_ZCTA":"97380","ObjectId":212}},{"type":"Feature","id":213,"geometry":null,"properties":{"ZIP_CODE":"97311","ZIP_TYPE":"UNIQUE","PREFERRED_CITY":"SALEM","ACCEPTABLE_CITY1":null,"ACCEPTABLE_CITY2":null,"ACCEPTABLE_CITY3":null,"AVOID_CITY1":"DEPT EMPLOYMENT","AVOID_CITY2":null,"AVOID_CITY3":null,"CENSUS_ZCTA":"NO ZCTA","ObjectId":213}},{"type":"Feature","id":214,"geometry":null,"properties":{"ZIP_CODE":"97381","ZIP_TYPE":"STANDARD","PREFERRED_CITY":"SILVERTON","ACCEPTABLE_CITY1":null,"ACCEPTABLE_CITY2":null,"ACCEPTABLE_CITY3":null,"AVOID_CITY1":null,"AVOID_CITY2":null,"AVOID_CITY3":null,"CENSUS_ZCTA":"97381","ObjectId":214}},{"type":"Feature","id":215,"geometry":null,"properties":{"ZIP_CODE":"97312","ZIP_TYPE":"UNIQUE","PREFERRED_CITY":"SALEM","ACCEPTABLE_CITY1":null,"ACCEPTABLE_CITY2":null,"ACCEPTABLE_CITY3":null,"AVOID_CITY1":"STATE ACCIDENT INS","AVOID_CITY2":null,"AVOID_CITY3":null,"CENSUS_ZCTA":"NO ZCTA","ObjectId":215}},{"type":"Feature","id":216,"geometry":null,"properties":{"ZIP_CODE":"97383","ZIP_TYPE":"STANDARD","PREFERRED_CITY":"STAYTON","ACCEPTABLE_CITY1":null,"ACCEPTABLE_CITY2":null,"ACCEPTABLE_CITY3":null,"AVOID_CITY1":null,"AVOID_CITY2":null,"AVOID_CITY3":null,"CENSUS_ZCTA":"97383","ObjectId":216}},{"type":"Feature","id":217,"geometry":null,"properties":{"ZIP_CODE":"97384","ZIP_TYPE":"PO BOX ONLY","PREFERRED_CITY":"MEHAMA","ACCEPTABLE_CITY1":null,"ACCEPTABLE_CITY2":null,"ACCEPTABLE_CITY3":null,"AVOID_CITY1":null,"AVOID_CITY2":null,"AVOID_CITY3":null,"CENSUS_ZCTA":"97384","ObjectId":217}},{"type":"Feature","id":218,"geometry":null,"properties":{"ZIP_CODE":"97385","ZIP_TYPE":"STANDARD","PREFERRED_CITY":"SUBLIMITY","ACCEPTABLE_CITY1":null,"ACCEPTABLE_CITY2":null,"ACCEPTABLE_CITY3":null,"AVOID_CITY1":null,"AVOID_CITY2":null,"AVOID_CITY3":null,"CENSUS_ZCTA":"97385","ObjectId":218}},{"type":"Feature","id":219,"geometry":null,"properties":{"ZIP_CODE":"97386","ZIP_TYPE":"STANDARD","PREFERRED_CITY":"SWEET HOME","ACCEPTABLE_CITY1":null,"ACCEPTABLE_CITY2":null,"ACCEPTABLE_CITY3":null,"AVOID_CITY1":null,"AVOID_CITY2":null,"AVOID_CITY3":null,"CENSUS_ZCTA":"97386","ObjectId":219}},{"type":"Feature","id":220,"geometry":null,"properties":{"ZIP_CODE":"97388","ZIP_TYPE":"PO BOX ONLY","PREFERRED_CITY":"GLENEDEN BEACH","ACCEPTABLE_CITY1":"GLENEDEN BCH","ACCEPTABLE_CITY2":null,"ACCEPTABLE_CITY3":null,"AVOID_CITY1":null,"AVOID_CITY2":null,"AVOID_CITY3":null,"CENSUS_ZCTA":"97388","ObjectId":220}},{"type":"Feature","id":221,"geometry":null,"properties":{"ZIP_CODE":"97389","ZIP_TYPE":"STANDARD","PREFERRED_CITY":"TANGENT","ACCEPTABLE_CITY1":null,"ACCEPTABLE_CITY2":null,"ACCEPTABLE_CITY3":null,"AVOID_CITY1":null,"AVOID_CITY2":null,"AVOID_CITY3":null,"CENSUS_ZCTA":"97389","ObjectId":221}},{"type":"Feature","id":222,"geometry":null,"properties":{"ZIP_CODE":"97390","ZIP_TYPE":"STANDARD","PREFERRED_CITY":"TIDEWATER","ACCEPTABLE_CITY1":null,"ACCEPTABLE_CITY2":null,"ACCEPTABLE_CITY3":null,"AVOID_CITY1":null,"AVOID_CITY2":null,"AVOID_CITY3":null,"CENSUS_ZCTA":"97390","ObjectId":222}},{"type":"Feature","id":223,"geometry":null,"properties":{"ZIP_CODE":"97391","ZIP_TYPE":"STANDARD","PREFERRED_CITY":"TOLEDO","ACCEPTABLE_CITY1":null,"ACCEPTABLE_CITY2":null,"ACCEPTABLE_CITY3":null,"AVOID_CITY1":null,"AVOID_CITY2":null,"AVOID_CITY3":null,"CENSUS_ZCTA":"97391","ObjectId":223}},{"type":"Feature","id":224,"geometry":null,"properties":{"ZIP_CODE":"97392","ZIP_TYPE":"STANDARD","PREFERRED_CITY":"TURNER","ACCEPTABLE_CITY1":"MARION","ACCEPTABLE_CITY2":null,"ACCEPTABLE_CITY3":null,"AVOID_CITY1":null,"AVOID_CITY2":null,"AVOID_CITY3":null,"CENSUS_ZCTA":"97392","ObjectId":224}},{"type":"Feature","id":225,"geometry":null,"properties":{"ZIP_CODE":"97394","ZIP_TYPE":"STANDARD","PREFERRED_CITY":"WALDPORT","ACCEPTABLE_CITY1":null,"ACCEPTABLE_CITY2":null,"ACCEPTABLE_CITY3":null,"AVOID_CITY1":null,"AVOID_CITY2":null,"AVOID_CITY3":null,"CENSUS_ZCTA":"97394","ObjectId":225}},{"type":"Feature","id":226,"geometry":null,"properties":{"ZIP_CODE":"97396","ZIP_TYPE":"STANDARD","PREFERRED_CITY":"WILLAMINA","ACCEPTABLE_CITY1":null,"ACCEPTABLE_CITY2":null,"ACCEPTABLE_CITY3":null,"AVOID_CITY1":null,"AVOID_CITY2":null,"AVOID_CITY3":null,"CENSUS_ZCTA":"97396","ObjectId":226}},{"type":"Feature","id":227,"geometry":null,"properties":{"ZIP_CODE":"97401","ZIP_TYPE":"STANDARD","PREFERRED_CITY":"EUGENE","ACCEPTABLE_CITY1":null,"ACCEPTABLE_CITY2":null,"ACCEPTABLE_CITY3":null,"AVOID_CITY1":"CROW","AVOID_CITY2":null,"AVOID_CITY3":null,"CENSUS_ZCTA":"97401","ObjectId":227}},{"type":"Feature","id":228,"geometry":null,"properties":{"ZIP_CODE":"97402","ZIP_TYPE":"STANDARD","PREFERRED_CITY":"EUGENE","ACCEPTABLE_CITY1":null,"ACCEPTABLE_CITY2":null,"ACCEPTABLE_CITY3":null,"AVOID_CITY1":null,"AVOID_CITY2":null,"AVOID_CITY3":null,"CENSUS_ZCTA":"97402","ObjectId":228}},{"type":"Feature","id":229,"geometry":null,"properties":{"ZIP_CODE":"97403","ZIP_TYPE":"STANDARD","PREFERRED_CITY":"EUGENE","ACCEPTABLE_CITY1":null,"ACCEPTABLE_CITY2":null,"ACCEPTABLE_CITY3":null,"AVOID_CITY1":"EMU U OF OR","AVOID_CITY2":null,"AVOID_CITY3":null,"CENSUS_ZCTA":"97403","ObjectId":229}},{"type":"Feature","id":230,"geometry":null,"properties":{"ZIP_CODE":"97404","ZIP_TYPE":"STANDARD","PREFERRED_CITY":"EUGENE","ACCEPTABLE_CITY1":null,"ACCEPTABLE_CITY2":null,"ACCEPTABLE_CITY3":null,"AVOID_CITY1":"SANTA CLARA","AVOID_CITY2":null,"AVOID_CITY3":null,"CENSUS_ZCTA":"97404","ObjectId":230}},{"type":"Feature","id":231,"geometry":null,"properties":{"ZIP_CODE":"97405","ZIP_TYPE":"STANDARD","PREFERRED_CITY":"EUGENE","ACCEPTABLE_CITY1":null,"ACCEPTABLE_CITY2":null,"ACCEPTABLE_CITY3":null,"AVOID_CITY1":"PLEASANT HILL","AVOID_CITY2":null,"AVOID_CITY3":null,"CENSUS_ZCTA":"97405","ObjectId":231}},{"type":"Feature","id":232,"geometry":null,"properties":{"ZIP_CODE":"97406","ZIP_TYPE":"STANDARD","PREFERRED_CITY":"AGNESS","ACCEPTABLE_CITY1":null,"ACCEPTABLE_CITY2":null,"ACCEPTABLE_CITY3":null,"AVOID_CITY1":null,"AVOID_CITY2":null,"AVOID_CITY3":null,"CENSUS_ZCTA":"97406","ObjectId":232}},{"type":"Feature","id":233,"geometry":null,"properties":{"ZIP_CODE":"97407","ZIP_TYPE":"PO BOX ONLY","PREFERRED_CITY":"ALLEGANY","ACCEPTABLE_CITY1":null,"ACCEPTABLE_CITY2":null,"ACCEPTABLE_CITY3":null,"AVOID_CITY1":null,"AVOID_CITY2":null,"AVOID_CITY3":null,"CENSUS_ZCTA":"NO ZCTA","ObjectId":233}},{"type":"Feature","id":234,"geometry":null,"properties":{"ZIP_CODE":"97314","ZIP_TYPE":"UNIQUE","PREFERRED_CITY":"SALEM","ACCEPTABLE_CITY1":null,"ACCEPTABLE_CITY2":null,"ACCEPTABLE_CITY3":null,"AVOID_CITY1":"DEPT MOTOR VEHICLE","AVOID_CITY2":null,"AVOID_CITY3":null,"CENSUS_ZCTA":"NO ZCTA","ObjectId":234}},{"type":"Feature","id":235,"geometry":null,"properties":{"ZIP_CODE":"97317","ZIP_TYPE":"STANDARD","PREFERRED_CITY":"SALEM","ACCEPTABLE_CITY1":null,"ACCEPTABLE_CITY2":null,"ACCEPTABLE_CITY3":null,"AVOID_CITY1":null,"AVOID_CITY2":null,"AVOID_CITY3":null,"CENSUS_ZCTA":"97317","ObjectId":235}},{"type":"Feature","id":236,"geometry":null,"properties":{"ZIP_CODE":"97321","ZIP_TYPE":"STANDARD","PREFERRED_CITY":"ALBANY","ACCEPTABLE_CITY1":"MILLERSBURG","ACCEPTABLE_CITY2":null,"ACCEPTABLE_CITY3":null,"AVOID_CITY1":null,"AVOID_CITY2":null,"AVOID_CITY3":null,"CENSUS_ZCTA":"97321","ObjectId":236}},{"type":"Feature","id":237,"geometry":null,"properties":{"ZIP_CODE":"97322","ZIP_TYPE":"STANDARD","PREFERRED_CITY":"ALBANY","ACCEPTABLE_CITY1":null,"ACCEPTABLE_CITY2":null,"ACCEPTABLE_CITY3":null,"AVOID_CITY1":null,"AVOID_CITY2":null,"AVOID_CITY3":null,"CENSUS_ZCTA":"97322","ObjectId":237}},{"type":"Feature","id":238,"geometry":null,"properties":{"ZIP_CODE":"97324","ZIP_TYPE":"STANDARD","PREFERRED_CITY":"ALSEA","ACCEPTABLE_CITY1":null,"ACCEPTABLE_CITY2":null,"ACCEPTABLE_CITY3":null,"AVOID_CITY1":null,"AVOID_CITY2":null,"AVOID_CITY3":null,"CENSUS_ZCTA":"97324","ObjectId":238}},{"type":"Feature","id":239,"geometry":null,"properties":{"ZIP_CODE":"97325","ZIP_TYPE":"STANDARD","PREFERRED_CITY":"AUMSVILLE","ACCEPTABLE_CITY1":"WEST STAYTON","ACCEPTABLE_CITY2":null,"ACCEPTABLE_CITY3":null,"AVOID_CITY1":null,"AVOID_CITY2":null,"AVOID_CITY3":null,"CENSUS_ZCTA":"97325","ObjectId":239}},{"type":"Feature","id":240,"geometry":null,"properties":{"ZIP_CODE":"97326","ZIP_TYPE":"STANDARD","PREFERRED_CITY":"BLODGETT","ACCEPTABLE_CITY1":null,"ACCEPTABLE_CITY2":null,"ACCEPTABLE_CITY3":null,"AVOID_CITY1":null,"AVOID_CITY2":null,"AVOID_CITY3":null,"CENSUS_ZCTA":"97326","ObjectId":240}},{"type":"Feature","id":241,"geometry":null,"properties":{"ZIP_CODE":"97327","ZIP_TYPE":"STANDARD","PREFERRED_CITY":"BROWNSVILLE","ACCEPTABLE_CITY1":null,"ACCEPTABLE_CITY2":null,"ACCEPTABLE_CITY3":null,"AVOID_CITY1":null,"AVOID_CITY2":null,"AVOID_CITY3":null,"CENSUS_ZCTA":"97327","ObjectId":241}},{"type":"Feature","id":242,"geometry":null,"properties":{"ZIP_CODE":"97329","ZIP_TYPE":"STANDARD","PREFERRED_CITY":"CASCADIA","ACCEPTABLE_CITY1":null,"ACCEPTABLE_CITY2":null,"ACCEPTABLE_CITY3":null,"AVOID_CITY1":null,"AVOID_CITY2":null,"AVOID_CITY3":null,"CENSUS_ZCTA":"97329","ObjectId":242}},{"type":"Feature","id":243,"geometry":null,"properties":{"ZIP_CODE":"97330","ZIP_TYPE":"STANDARD","PREFERRED_CITY":"CORVALLIS","ACCEPTABLE_CITY1":"ADAIR VILLAGE","ACCEPTABLE_CITY2":null,"ACCEPTABLE_CITY3":null,"AVOID_CITY1":null,"AVOID_CITY2":null,"AVOID_CITY3":null,"CENSUS_ZCTA":"97330","ObjectId":243}},{"type":"Feature","id":244,"geometry":null,"properties":{"ZIP_CODE":"97331","ZIP_TYPE":"STANDARD","PREFERRED_CITY":"CORVALLIS","ACCEPTABLE_CITY1":null,"ACCEPTABLE_CITY2":null,"ACCEPTABLE_CITY3":null,"AVOID_CITY1":"OREGON STATE UNIV","AVOID_CITY2":null,"AVOID_CITY3":null,"CENSUS_ZCTA":"97331","ObjectId":244}},{"type":"Feature","id":245,"geometry":null,"properties":{"ZIP_CODE":"97333","ZIP_TYPE":"STANDARD","PREFERRED_CITY":"CORVALLIS","ACCEPTABLE_CITY1":null,"ACCEPTABLE_CITY2":null,"ACCEPTABLE_CITY3":null,"AVOID_CITY1":null,"AVOID_CITY2":null,"AVOID_CITY3":null,"CENSUS_ZCTA":"97333","ObjectId":245}},{"type":"Feature","id":246,"geometry":null,"properties":{"ZIP_CODE":"97335","ZIP_TYPE":"PO BOX ONLY","PREFERRED_CITY":"CRABTREE","ACCEPTABLE_CITY1":null,"ACCEPTABLE_CITY2":null,"ACCEPTABLE_CITY3":null,"AVOID_CITY1":null,"AVOID_CITY2":null,"AVOID_CITY3":null,"CENSUS_ZCTA":"97335","ObjectId":246}},{"type":"Feature","id":247,"geometry":null,"properties":{"ZIP_CODE":"97336","ZIP_TYPE":"PO BOX ONLY","PREFERRED_CITY":"CRAWFORDSVILLE","ACCEPTABLE_CITY1":"CRAWFORDSVLLE","ACCEPTABLE_CITY2":null,"ACCEPTABLE_CITY3":null,"AVOID_CITY1":null,"AVOID_CITY2":null,"AVOID_CITY3":null,"CENSUS_ZCTA":"97336","ObjectId":247}},{"type":"Feature","id":248,"geometry":null,"properties":{"ZIP_CODE":"97338","ZIP_TYPE":"STANDARD","PREFERRED_CITY":"DALLAS","ACCEPTABLE_CITY1":null,"ACCEPTABLE_CITY2":null,"ACCEPTABLE_CITY3":null,"AVOID_CITY1":null,"AVOID_CITY2":null,"AVOID_CITY3":null,"CENSUS_ZCTA":"97338","ObjectId":248}},{"type":"Feature","id":249,"geometry":null,"properties":{"ZIP_CODE":"97339","ZIP_TYPE":"PO BOX ONLY","PREFERRED_CITY":"CORVALLIS","ACCEPTABLE_CITY1":null,"ACCEPTABLE_CITY2":null,"ACCEPTABLE_CITY3":null,"AVOID_CITY1":null,"AVOID_CITY2":null,"AVOID_CITY3":null,"CENSUS_ZCTA":"NO ZCTA","ObjectId":249}},{"type":"Feature","id":250,"geometry":null,"properties":{"ZIP_CODE":"97341","ZIP_TYPE":"STANDARD","PREFERRED_CITY":"DEPOE BAY","ACCEPTABLE_CITY1":null,"ACCEPTABLE_CITY2":null,"ACCEPTABLE_CITY3":null,"AVOID_CITY1":null,"AVOID_CITY2":null,"AVOID_CITY3":null,"CENSUS_ZCTA":"97341","ObjectId":250}},{"type":"Feature","id":251,"geometry":null,"properties":{"ZIP_CODE":"97408","ZIP_TYPE":"STANDARD","PREFERRED_CITY":"EUGENE","ACCEPTABLE_CITY1":"COBURG","ACCEPTABLE_CITY2":null,"ACCEPTABLE_CITY3":null,"AVOID_CITY1":null,"AVOID_CITY2":null,"AVOID_CITY3":null,"CENSUS_ZCTA":"97408","ObjectId":251}},{"type":"Feature","id":252,"geometry":null,"properties":{"ZIP_CODE":"97409","ZIP_TYPE":"PO BOX ONLY","PREFERRED_CITY":"ALVADORE","ACCEPTABLE_CITY1":null,"ACCEPTABLE_CITY2":null,"ACCEPTABLE_CITY3":null,"AVOID_CITY1":null,"AVOID_CITY2":null,"AVOID_CITY3":null,"CENSUS_ZCTA":"NO ZCTA","ObjectId":252}},{"type":"Feature","id":253,"geometry":null,"properties":{"ZIP_CODE":"97410","ZIP_TYPE":"STANDARD","PREFERRED_CITY":"AZALEA","ACCEPTABLE_CITY1":null,"ACCEPTABLE_CITY2":null,"ACCEPTABLE_CITY3":null,"AVOID_CITY1":null,"AVOID_CITY2":null,"AVOID_CITY3":null,"CENSUS_ZCTA":"97410","ObjectId":253}},{"type":"Feature","id":254,"geometry":null,"properties":{"ZIP_CODE":"97411","ZIP_TYPE":"STANDARD","PREFERRED_CITY":"BANDON","ACCEPTABLE_CITY1":null,"ACCEPTABLE_CITY2":null,"ACCEPTABLE_CITY3":null,"AVOID_CITY1":null,"AVOID_CITY2":null,"AVOID_CITY3":null,"CENSUS_ZCTA":"97411","ObjectId":254}},{"type":"Feature","id":255,"geometry":null,"properties":{"ZIP_CODE":"97412","ZIP_TYPE":"STANDARD","PREFERRED_CITY":"BLACHLY","ACCEPTABLE_CITY1":"EUGENE","ACCEPTABLE_CITY2":null,"ACCEPTABLE_CITY3":null,"AVOID_CITY1":"TRIANGLE LAKE","AVOID_CITY2":null,"AVOID_CITY3":null,"CENSUS_ZCTA":"97412","ObjectId":255}},{"type":"Feature","id":256,"geometry":null,"properties":{"ZIP_CODE":"97413","ZIP_TYPE":"STANDARD","PREFERRED_CITY":"BLUE RIVER","ACCEPTABLE_CITY1":"CKENZIE BRIDGE","ACCEPTABLE_CITY2":"MC KENZIE BRG","ACCEPTABLE_CITY3":"MCKENZIE BRIDGE","AVOID_CITY1":null,"AVOID_CITY2":null,"AVOID_CITY3":null,"CENSUS_ZCTA":"97413","ObjectId":256}},{"type":"Feature","id":257,"geometry":null,"properties":{"ZIP_CODE":"97414","ZIP_TYPE":"STANDARD","PREFERRED_CITY":"BROADBENT","ACCEPTABLE_CITY1":null,"ACCEPTABLE_CITY2":null,"ACCEPTABLE_CITY3":null,"AVOID_CITY1":null,"AVOID_CITY2":null,"AVOID_CITY3":null,"CENSUS_ZCTA":"97414","ObjectId":257}},{"type":"Feature","id":258,"geometry":null,"properties":{"ZIP_CODE":"97415","ZIP_TYPE":"STANDARD","PREFERRED_CITY":"BROOKINGS","ACCEPTABLE_CITY1":"HARBOR","ACCEPTABLE_CITY2":null,"ACCEPTABLE_CITY3":null,"AVOID_CITY1":null,"AVOID_CITY2":null,"AVOID_CITY3":null,"CENSUS_ZCTA":"97415","ObjectId":258}},{"type":"Feature","id":259,"geometry":null,"properties":{"ZIP_CODE":"97416","ZIP_TYPE":"STANDARD","PREFERRED_CITY":"CAMAS VALLEY","ACCEPTABLE_CITY1":null,"ACCEPTABLE_CITY2":null,"ACCEPTABLE_CITY3":null,"AVOID_CITY1":null,"AVOID_CITY2":null,"AVOID_CITY3":null,"CENSUS_ZCTA":"97416","ObjectId":259}},{"type":"Feature","id":260,"geometry":null,"properties":{"ZIP_CODE":"97417","ZIP_TYPE":"STANDARD","PREFERRED_CITY":"CANYONVILLE","ACCEPTABLE_CITY1":null,"ACCEPTABLE_CITY2":null,"ACCEPTABLE_CITY3":null,"AVOID_CITY1":null,"AVOID_CITY2":null,"AVOID_CITY3":null,"CENSUS_ZCTA":"97417","ObjectId":260}},{"type":"Feature","id":261,"geometry":null,"properties":{"ZIP_CODE":"97419","ZIP_TYPE":"STANDARD","PREFERRED_CITY":"CHESHIRE","ACCEPTABLE_CITY1":null,"ACCEPTABLE_CITY2":null,"ACCEPTABLE_CITY3":null,"AVOID_CITY1":null,"AVOID_CITY2":null,"AVOID_CITY3":null,"CENSUS_ZCTA":"97419","ObjectId":261}},{"type":"Feature","id":262,"geometry":null,"properties":{"ZIP_CODE":"97420","ZIP_TYPE":"STANDARD","PREFERRED_CITY":"COOS BAY","ACCEPTABLE_CITY1":"CHARLESTON","ACCEPTABLE_CITY2":null,"ACCEPTABLE_CITY3":null,"AVOID_CITY1":"COOS HEAD NAVAL FACILITY","AVOID_CITY2":"EASTSIDE","AVOID_CITY3":null,"CENSUS_ZCTA":"97420","ObjectId":262}},{"type":"Feature","id":263,"geometry":null,"properties":{"ZIP_CODE":"97423","ZIP_TYPE":"STANDARD","PREFERRED_CITY":"COQUILLE","ACCEPTABLE_CITY1":null,"ACCEPTABLE_CITY2":null,"ACCEPTABLE_CITY3":null,"AVOID_CITY1":null,"AVOID_CITY2":null,"AVOID_CITY3":null,"CENSUS_ZCTA":"97423","ObjectId":263}},{"type":"Feature","id":264,"geometry":null,"properties":{"ZIP_CODE":"97424","ZIP_TYPE":"STANDARD","PREFERRED_CITY":"COTTAGE GROVE","ACCEPTABLE_CITY1":"CURTIN","ACCEPTABLE_CITY2":"SAGINAW","ACCEPTABLE_CITY3":null,"AVOID_CITY1":"WALDEN","AVOID_CITY2":null,"AVOID_CITY3":null,"CENSUS_ZCTA":"97424","ObjectId":264}},{"type":"Feature","id":265,"geometry":null,"properties":{"ZIP_CODE":"97426","ZIP_TYPE":"STANDARD","PREFERRED_CITY":"CRESWELL","ACCEPTABLE_CITY1":null,"ACCEPTABLE_CITY2":null,"ACCEPTABLE_CITY3":null,"AVOID_CITY1":"WALKER","AVOID_CITY2":null,"AVOID_CITY3":null,"CENSUS_ZCTA":"97426","ObjectId":265}},{"type":"Feature","id":266,"geometry":null,"properties":{"ZIP_CODE":"97429","ZIP_TYPE":"STANDARD","PREFERRED_CITY":"DAYS CREEK","ACCEPTABLE_CITY1":null,"ACCEPTABLE_CITY2":null,"ACCEPTABLE_CITY3":null,"AVOID_CITY1":null,"AVOID_CITY2":null,"AVOID_CITY3":null,"CENSUS_ZCTA":"97429","ObjectId":266}},{"type":"Feature","id":267,"geometry":null,"properties":{"ZIP_CODE":"97430","ZIP_TYPE":"STANDARD","PREFERRED_CITY":"DEADWOOD","ACCEPTABLE_CITY1":"GREENLEAF","ACCEPTABLE_CITY2":null,"ACCEPTABLE_CITY3":null,"AVOID_CITY1":null,"AVOID_CITY2":null,"AVOID_CITY3":null,"CENSUS_ZCTA":"97430","ObjectId":267}},{"type":"Feature","id":268,"geometry":null,"properties":{"ZIP_CODE":"97431","ZIP_TYPE":"STANDARD","PREFERRED_CITY":"DEXTER","ACCEPTABLE_CITY1":null,"ACCEPTABLE_CITY2":null,"ACCEPTABLE_CITY3":null,"AVOID_CITY1":null,"AVOID_CITY2":null,"AVOID_CITY3":null,"CENSUS_ZCTA":"97431","ObjectId":268}},{"type":"Feature","id":269,"geometry":null,"properties":{"ZIP_CODE":"97432","ZIP_TYPE":"PO BOX ONLY","PREFERRED_CITY":"DILLARD","ACCEPTABLE_CITY1":null,"ACCEPTABLE_CITY2":null,"ACCEPTABLE_CITY3":null,"AVOID_CITY1":null,"AVOID_CITY2":null,"AVOID_CITY3":null,"CENSUS_ZCTA":"97432","ObjectId":269}},{"type":"Feature","id":270,"geometry":null,"properties":{"ZIP_CODE":"97434","ZIP_TYPE":"STANDARD","PREFERRED_CITY":"DORENA","ACCEPTABLE_CITY1":"CULP CREEK","ACCEPTABLE_CITY2":null,"ACCEPTABLE_CITY3":null,"AVOID_CITY1":null,"AVOID_CITY2":null,"AVOID_CITY3":null,"CENSUS_ZCTA":"97434","ObjectId":270}},{"type":"Feature","id":271,"geometry":null,"properties":{"ZIP_CODE":"97435","ZIP_TYPE":"STANDARD","PREFERRED_CITY":"DRAIN","ACCEPTABLE_CITY1":null,"ACCEPTABLE_CITY2":null,"ACCEPTABLE_CITY3":null,"AVOID_CITY1":null,"AVOID_CITY2":null,"AVOID_CITY3":null,"CENSUS_ZCTA":"97435","ObjectId":271}},{"type":"Feature","id":272,"geometry":null,"properties":{"ZIP_CODE":"97436","ZIP_TYPE":"STANDARD","PREFERRED_CITY":"ELKTON","ACCEPTABLE_CITY1":null,"ACCEPTABLE_CITY2":null,"ACCEPTABLE_CITY3":null,"AVOID_CITY1":null,"AVOID_CITY2":null,"AVOID_CITY3":null,"CENSUS_ZCTA":"97436","ObjectId":272}},{"type":"Feature","id":273,"geometry":null,"properties":{"ZIP_CODE":"97437","ZIP_TYPE":"STANDARD","PREFERRED_CITY":"ELMIRA","ACCEPTABLE_CITY1":null,"ACCEPTABLE_CITY2":null,"ACCEPTABLE_CITY3":null,"AVOID_CITY1":null,"AVOID_CITY2":null,"AVOID_CITY3":null,"CENSUS_ZCTA":"97437","ObjectId":273}},{"type":"Feature","id":274,"geometry":null,"properties":{"ZIP_CODE":"97438","ZIP_TYPE":"STANDARD","PREFERRED_CITY":"FALL CREEK","ACCEPTABLE_CITY1":"JASPER","ACCEPTABLE_CITY2":null,"ACCEPTABLE_CITY3":null,"AVOID_CITY1":null,"AVOID_CITY2":null,"AVOID_CITY3":null,"CENSUS_ZCTA":"97438","ObjectId":274}},{"type":"Feature","id":275,"geometry":null,"properties":{"ZIP_CODE":"97439","ZIP_TYPE":"STANDARD","PREFERRED_CITY":"FLORENCE","ACCEPTABLE_CITY1":"DUNES CITY","ACCEPTABLE_CITY2":null,"ACCEPTABLE_CITY3":null,"AVOID_CITY1":null,"AVOID_CITY2":null,"AVOID_CITY3":null,"CENSUS_ZCTA":"97439","ObjectId":275}},{"type":"Feature","id":276,"geometry":null,"properties":{"ZIP_CODE":"97440","ZIP_TYPE":"PO BOX ONLY","PREFERRED_CITY":"EUGENE","ACCEPTABLE_CITY1":null,"ACCEPTABLE_CITY2":null,"ACCEPTABLE_CITY3":null,"AVOID_CITY1":null,"AVOID_CITY2":null,"AVOID_CITY3":null,"CENSUS_ZCTA":"NO ZCTA","ObjectId":276}},{"type":"Feature","id":277,"geometry":null,"properties":{"ZIP_CODE":"97441","ZIP_TYPE":"STANDARD","PREFERRED_CITY":"GARDINER","ACCEPTABLE_CITY1":null,"ACCEPTABLE_CITY2":null,"ACCEPTABLE_CITY3":null,"AVOID_CITY1":null,"AVOID_CITY2":null,"AVOID_CITY3":null,"CENSUS_ZCTA":"97441","ObjectId":277}},{"type":"Feature","id":278,"geometry":null,"properties":{"ZIP_CODE":"97442","ZIP_TYPE":"STANDARD","PREFERRED_CITY":"GLENDALE","ACCEPTABLE_CITY1":null,"ACCEPTABLE_CITY2":null,"ACCEPTABLE_CITY3":null,"AVOID_CITY1":null,"AVOID_CITY2":null,"AVOID_CITY3":null,"CENSUS_ZCTA":"97442","ObjectId":278}},{"type":"Feature","id":279,"geometry":null,"properties":{"ZIP_CODE":"97443","ZIP_TYPE":"STANDARD","PREFERRED_CITY":"GLIDE","ACCEPTABLE_CITY1":null,"ACCEPTABLE_CITY2":null,"ACCEPTABLE_CITY3":null,"AVOID_CITY1":null,"AVOID_CITY2":null,"AVOID_CITY3":null,"CENSUS_ZCTA":"97443","ObjectId":279}},{"type":"Feature","id":280,"geometry":null,"properties":{"ZIP_CODE":"97444","ZIP_TYPE":"STANDARD","PREFERRED_CITY":"GOLD BEACH","ACCEPTABLE_CITY1":null,"ACCEPTABLE_CITY2":null,"ACCEPTABLE_CITY3":null,"AVOID_CITY1":null,"AVOID_CITY2":null,"AVOID_CITY3":null,"CENSUS_ZCTA":"97444","ObjectId":280}},{"type":"Feature","id":281,"geometry":null,"properties":{"ZIP_CODE":"97446","ZIP_TYPE":"STANDARD","PREFERRED_CITY":"HARRISBURG","ACCEPTABLE_CITY1":null,"ACCEPTABLE_CITY2":null,"ACCEPTABLE_CITY3":null,"AVOID_CITY1":null,"AVOID_CITY2":null,"AVOID_CITY3":null,"CENSUS_ZCTA":"97446","ObjectId":281}},{"type":"Feature","id":282,"geometry":null,"properties":{"ZIP_CODE":"97447","ZIP_TYPE":"STANDARD","PREFERRED_CITY":"IDLEYLD PARK","ACCEPTABLE_CITY1":null,"ACCEPTABLE_CITY2":null,"ACCEPTABLE_CITY3":null,"AVOID_CITY1":null,"AVOID_CITY2":null,"AVOID_CITY3":null,"CENSUS_ZCTA":"97447","ObjectId":282}},{"type":"Feature","id":283,"geometry":null,"properties":{"ZIP_CODE":"97448","ZIP_TYPE":"STANDARD","PREFERRED_CITY":"JUNCTION CITY","ACCEPTABLE_CITY1":null,"ACCEPTABLE_CITY2":null,"ACCEPTABLE_CITY3":null,"AVOID_CITY1":null,"AVOID_CITY2":null,"AVOID_CITY3":null,"CENSUS_ZCTA":"97448","ObjectId":283}},{"type":"Feature","id":284,"geometry":null,"properties":{"ZIP_CODE":"97449","ZIP_TYPE":"STANDARD","PREFERRED_CITY":"LAKESIDE","ACCEPTABLE_CITY1":null,"ACCEPTABLE_CITY2":null,"ACCEPTABLE_CITY3":null,"AVOID_CITY1":null,"AVOID_CITY2":null,"AVOID_CITY3":null,"CENSUS_ZCTA":"97449","ObjectId":284}},{"type":"Feature","id":285,"geometry":null,"properties":{"ZIP_CODE":"97450","ZIP_TYPE":"STANDARD","PREFERRED_CITY":"LANGLOIS","ACCEPTABLE_CITY1":null,"ACCEPTABLE_CITY2":null,"ACCEPTABLE_CITY3":null,"AVOID_CITY1":null,"AVOID_CITY2":null,"AVOID_CITY3":null,"CENSUS_ZCTA":"97450","ObjectId":285}},{"type":"Feature","id":286,"geometry":null,"properties":{"ZIP_CODE":"97451","ZIP_TYPE":"STANDARD","PREFERRED_CITY":"LORANE","ACCEPTABLE_CITY1":null,"ACCEPTABLE_CITY2":null,"ACCEPTABLE_CITY3":null,"AVOID_CITY1":"ROGUE ELK","AVOID_CITY2":null,"AVOID_CITY3":null,"CENSUS_ZCTA":"97451","ObjectId":286}},{"type":"Feature","id":287,"geometry":null,"properties":{"ZIP_CODE":"97452","ZIP_TYPE":"STANDARD","PREFERRED_CITY":"LOWELL","ACCEPTABLE_CITY1":null,"ACCEPTABLE_CITY2":null,"ACCEPTABLE_CITY3":null,"AVOID_CITY1":null,"AVOID_CITY2":null,"AVOID_CITY3":null,"CENSUS_ZCTA":"97452","ObjectId":287}},{"type":"Feature","id":288,"geometry":null,"properties":{"ZIP_CODE":"97453","ZIP_TYPE":"STANDARD","PREFERRED_CITY":"MAPLETON","ACCEPTABLE_CITY1":null,"ACCEPTABLE_CITY2":null,"ACCEPTABLE_CITY3":null,"AVOID_CITY1":null,"AVOID_CITY2":null,"AVOID_CITY3":null,"CENSUS_ZCTA":"97453","ObjectId":288}},{"type":"Feature","id":289,"geometry":null,"properties":{"ZIP_CODE":"97454","ZIP_TYPE":"STANDARD","PREFERRED_CITY":"MARCOLA","ACCEPTABLE_CITY1":null,"ACCEPTABLE_CITY2":null,"ACCEPTABLE_CITY3":null,"AVOID_CITY1":null,"AVOID_CITY2":null,"AVOID_CITY3":null,"CENSUS_ZCTA":"97454","ObjectId":289}},{"type":"Feature","id":290,"geometry":null,"properties":{"ZIP_CODE":"97455","ZIP_TYPE":"STANDARD","PREFERRED_CITY":"PLEASANT HILL","ACCEPTABLE_CITY1":"EUGENE","ACCEPTABLE_CITY2":null,"ACCEPTABLE_CITY3":null,"AVOID_CITY1":"P HILL","AVOID_CITY2":null,"AVOID_CITY3":null,"CENSUS_ZCTA":"97455","ObjectId":290}},{"type":"Feature","id":291,"geometry":null,"properties":{"ZIP_CODE":"97456","ZIP_TYPE":"STANDARD","PREFERRED_CITY":"MONROE","ACCEPTABLE_CITY1":null,"ACCEPTABLE_CITY2":null,"ACCEPTABLE_CITY3":null,"AVOID_CITY1":"ALPINE","AVOID_CITY2":null,"AVOID_CITY3":null,"CENSUS_ZCTA":"97456","ObjectId":291}},{"type":"Feature","id":292,"geometry":null,"properties":{"ZIP_CODE":"97457","ZIP_TYPE":"STANDARD","PREFERRED_CITY":"MYRTLE CREEK","ACCEPTABLE_CITY1":null,"ACCEPTABLE_CITY2":null,"ACCEPTABLE_CITY3":null,"AVOID_CITY1":null,"AVOID_CITY2":null,"AVOID_CITY3":null,"CENSUS_ZCTA":"97457","ObjectId":292}},{"type":"Feature","id":293,"geometry":null,"properties":{"ZIP_CODE":"97458","ZIP_TYPE":"STANDARD","PREFERRED_CITY":"MYRTLE POINT","ACCEPTABLE_CITY1":"NORWAY","ACCEPTABLE_CITY2":"REMOTE","ACCEPTABLE_CITY3":null,"AVOID_CITY1":null,"AVOID_CITY2":null,"AVOID_CITY3":null,"CENSUS_ZCTA":"97458","ObjectId":293}},{"type":"Feature","id":294,"geometry":null,"properties":{"ZIP_CODE":"97459","ZIP_TYPE":"STANDARD","PREFERRED_CITY":"NORTH BEND","ACCEPTABLE_CITY1":null,"ACCEPTABLE_CITY2":null,"ACCEPTABLE_CITY3":null,"AVOID_CITY1":null,"AVOID_CITY2":null,"AVOID_CITY3":null,"CENSUS_ZCTA":"97459","ObjectId":294}},{"type":"Feature","id":295,"geometry":null,"properties":{"ZIP_CODE":"97461","ZIP_TYPE":"STANDARD","PREFERRED_CITY":"NOTI","ACCEPTABLE_CITY1":null,"ACCEPTABLE_CITY2":null,"ACCEPTABLE_CITY3":null,"AVOID_CITY1":null,"AVOID_CITY2":null,"AVOID_CITY3":null,"CENSUS_ZCTA":"97461","ObjectId":295}},{"type":"Feature","id":296,"geometry":null,"properties":{"ZIP_CODE":"97462","ZIP_TYPE":"STANDARD","PREFERRED_CITY":"OAKLAND","ACCEPTABLE_CITY1":null,"ACCEPTABLE_CITY2":null,"ACCEPTABLE_CITY3":null,"AVOID_CITY1":null,"AVOID_CITY2":null,"AVOID_CITY3":null,"CENSUS_ZCTA":"97462","ObjectId":296}},{"type":"Feature","id":297,"geometry":null,"properties":{"ZIP_CODE":"97463","ZIP_TYPE":"STANDARD","PREFERRED_CITY":"OAKRIDGE","ACCEPTABLE_CITY1":null,"ACCEPTABLE_CITY2":null,"ACCEPTABLE_CITY3":null,"AVOID_CITY1":null,"AVOID_CITY2":null,"AVOID_CITY3":null,"CENSUS_ZCTA":"97463","ObjectId":297}},{"type":"Feature","id":298,"geometry":null,"properties":{"ZIP_CODE":"97464","ZIP_TYPE":"PO BOX ONLY","PREFERRED_CITY":"OPHIR","ACCEPTABLE_CITY1":null,"ACCEPTABLE_CITY2":null,"ACCEPTABLE_CITY3":null,"AVOID_CITY1":null,"AVOID_CITY2":null,"AVOID_CITY3":null,"CENSUS_ZCTA":"NO ZCTA","ObjectId":298}},{"type":"Feature","id":299,"geometry":null,"properties":{"ZIP_CODE":"97465","ZIP_TYPE":"STANDARD","PREFERRED_CITY":"PORT ORFORD","ACCEPTABLE_CITY1":null,"ACCEPTABLE_CITY2":null,"ACCEPTABLE_CITY3":null,"AVOID_CITY1":null,"AVOID_CITY2":null,"AVOID_CITY3":null,"CENSUS_ZCTA":"97465","ObjectId":299}},{"type":"Feature","id":300,"geometry":null,"properties":{"ZIP_CODE":"97466","ZIP_TYPE":"STANDARD","PREFERRED_CITY":"POWERS","ACCEPTABLE_CITY1":null,"ACCEPTABLE_CITY2":null,"ACCEPTABLE_CITY3":null,"AVOID_CITY1":null,"AVOID_CITY2":null,"AVOID_CITY3":null,"CENSUS_ZCTA":"97466","ObjectId":300}},{"type":"Feature","id":301,"geometry":null,"properties":{"ZIP_CODE":"97541","ZIP_TYPE":"STANDARD","PREFERRED_CITY":"TRAIL","ACCEPTABLE_CITY1":null,"ACCEPTABLE_CITY2":null,"ACCEPTABLE_CITY3":null,"AVOID_CITY1":null,"AVOID_CITY2":null,"AVOID_CITY3":null,"CENSUS_ZCTA":"97541","ObjectId":301}},{"type":"Feature","id":302,"geometry":null,"properties":{"ZIP_CODE":"97543","ZIP_TYPE":"STANDARD","PREFERRED_CITY":"WILDERVILLE","ACCEPTABLE_CITY1":"GRANTS PASS","ACCEPTABLE_CITY2":null,"ACCEPTABLE_CITY3":null,"AVOID_CITY1":null,"AVOID_CITY2":null,"AVOID_CITY3":null,"CENSUS_ZCTA":"97543","ObjectId":302}},{"type":"Feature","id":303,"geometry":null,"properties":{"ZIP_CODE":"97544","ZIP_TYPE":"STANDARD","PREFERRED_CITY":"WILLIAMS","ACCEPTABLE_CITY1":null,"ACCEPTABLE_CITY2":null,"ACCEPTABLE_CITY3":null,"AVOID_CITY1":null,"AVOID_CITY2":null,"AVOID_CITY3":null,"CENSUS_ZCTA":"97544","ObjectId":303}},{"type":"Feature","id":304,"geometry":null,"properties":{"ZIP_CODE":"97601","ZIP_TYPE":"STANDARD","PREFERRED_CITY":"KLAMATH FALLS","ACCEPTABLE_CITY1":"ORETECH","ACCEPTABLE_CITY2":null,"ACCEPTABLE_CITY3":null,"AVOID_CITY1":"KFALLS","AVOID_CITY2":"KINGSLEY FIELD","AVOID_CITY3":"WORDEN","CENSUS_ZCTA":"97601","ObjectId":304}},{"type":"Feature","id":305,"geometry":null,"properties":{"ZIP_CODE":"97602","ZIP_TYPE":"PO BOX ONLY","PREFERRED_CITY":"KLAMATH FALLS","ACCEPTABLE_CITY1":null,"ACCEPTABLE_CITY2":null,"ACCEPTABLE_CITY3":null,"AVOID_CITY1":null,"AVOID_CITY2":null,"AVOID_CITY3":null,"CENSUS_ZCTA":"NO ZCTA","ObjectId":305}},{"type":"Feature","id":306,"geometry":null,"properties":{"ZIP_CODE":"97603","ZIP_TYPE":"STANDARD","PREFERRED_CITY":"KLAMATH FALLS","ACCEPTABLE_CITY1":null,"ACCEPTABLE_CITY2":null,"ACCEPTABLE_CITY3":null,"AVOID_CITY1":null,"AVOID_CITY2":null,"AVOID_CITY3":null,"CENSUS_ZCTA":"97603","ObjectId":306}},{"type":"Feature","id":307,"geometry":null,"properties":{"ZIP_CODE":"97604","ZIP_TYPE":"PO BOX ONLY","PREFERRED_CITY":"CRATER LAKE","ACCEPTABLE_CITY1":null,"ACCEPTABLE_CITY2":null,"ACCEPTABLE_CITY3":null,"AVOID_CITY1":null,"AVOID_CITY2":null,"AVOID_CITY3":null,"CENSUS_ZCTA":"97604","ObjectId":307}},{"type":"Feature","id":308,"geometry":null,"properties":{"ZIP_CODE":"97620","ZIP_TYPE":"PO BOX ONLY","PREFERRED_CITY":"ADEL","ACCEPTABLE_CITY1":null,"ACCEPTABLE_CITY2":null,"ACCEPTABLE_CITY3":null,"AVOID_CITY1":null,"AVOID_CITY2":null,"AVOID_CITY3":null,"CENSUS_ZCTA":"97620","ObjectId":308}},{"type":"Feature","id":309,"geometry":null,"properties":{"ZIP_CODE":"97621","ZIP_TYPE":"STANDARD","PREFERRED_CITY":"BEATTY","ACCEPTABLE_CITY1":null,"ACCEPTABLE_CITY2":null,"ACCEPTABLE_CITY3":null,"AVOID_CITY1":null,"AVOID_CITY2":null,"AVOID_CITY3":null,"CENSUS_ZCTA":"97621","ObjectId":309}},{"type":"Feature","id":310,"geometry":null,"properties":{"ZIP_CODE":"97622","ZIP_TYPE":"PO BOX ONLY","PREFERRED_CITY":"BLY","ACCEPTABLE_CITY1":null,"ACCEPTABLE_CITY2":null,"ACCEPTABLE_CITY3":null,"AVOID_CITY1":null,"AVOID_CITY2":null,"AVOID_CITY3":null,"CENSUS_ZCTA":"97622","ObjectId":310}},{"type":"Feature","id":311,"geometry":null,"properties":{"ZIP_CODE":"97623","ZIP_TYPE":"STANDARD","PREFERRED_CITY":"BONANZA","ACCEPTABLE_CITY1":null,"ACCEPTABLE_CITY2":null,"ACCEPTABLE_CITY3":null,"AVOID_CITY1":null,"AVOID_CITY2":null,"AVOID_CITY3":null,"CENSUS_ZCTA":"97623","ObjectId":311}},{"type":"Feature","id":312,"geometry":null,"properties":{"ZIP_CODE":"97624","ZIP_TYPE":"STANDARD","PREFERRED_CITY":"CHILOQUIN","ACCEPTABLE_CITY1":null,"ACCEPTABLE_CITY2":null,"ACCEPTABLE_CITY3":null,"AVOID_CITY1":null,"AVOID_CITY2":null,"AVOID_CITY3":null,"CENSUS_ZCTA":"97624","ObjectId":312}},{"type":"Feature","id":313,"geometry":null,"properties":{"ZIP_CODE":"97625","ZIP_TYPE":"STANDARD","PREFERRED_CITY":"DAIRY","ACCEPTABLE_CITY1":"KLAMATH FALLS","ACCEPTABLE_CITY2":null,"ACCEPTABLE_CITY3":null,"AVOID_CITY1":null,"AVOID_CITY2":null,"AVOID_CITY3":null,"CENSUS_ZCTA":"97625","ObjectId":313}},{"type":"Feature","id":314,"geometry":null,"properties":{"ZIP_CODE":"97626","ZIP_TYPE":"PO BOX ONLY","PREFERRED_CITY":"FORT KLAMATH","ACCEPTABLE_CITY1":null,"ACCEPTABLE_CITY2":null,"ACCEPTABLE_CITY3":null,"AVOID_CITY1":null,"AVOID_CITY2":null,"AVOID_CITY3":null,"CENSUS_ZCTA":"97626","ObjectId":314}},{"type":"Feature","id":315,"geometry":null,"properties":{"ZIP_CODE":"97627","ZIP_TYPE":"STANDARD","PREFERRED_CITY":"KENO","ACCEPTABLE_CITY1":null,"ACCEPTABLE_CITY2":null,"ACCEPTABLE_CITY3":null,"AVOID_CITY1":null,"AVOID_CITY2":null,"AVOID_CITY3":null,"CENSUS_ZCTA":"97627","ObjectId":315}},{"type":"Feature","id":316,"geometry":null,"properties":{"ZIP_CODE":"97630","ZIP_TYPE":"STANDARD","PREFERRED_CITY":"LAKEVIEW","ACCEPTABLE_CITY1":null,"ACCEPTABLE_CITY2":null,"ACCEPTABLE_CITY3":null,"AVOID_CITY1":null,"AVOID_CITY2":null,"AVOID_CITY3":null,"CENSUS_ZCTA":"97630","ObjectId":316}},{"type":"Feature","id":317,"geometry":null,"properties":{"ZIP_CODE":"97632","ZIP_TYPE":"STANDARD","PREFERRED_CITY":"MALIN","ACCEPTABLE_CITY1":null,"ACCEPTABLE_CITY2":null,"ACCEPTABLE_CITY3":null,"AVOID_CITY1":null,"AVOID_CITY2":null,"AVOID_CITY3":null,"CENSUS_ZCTA":"97632","ObjectId":317}},{"type":"Feature","id":318,"geometry":null,"properties":{"ZIP_CODE":"97633","ZIP_TYPE":"STANDARD","PREFERRED_CITY":"MERRILL","ACCEPTABLE_CITY1":null,"ACCEPTABLE_CITY2":null,"ACCEPTABLE_CITY3":null,"AVOID_CITY1":null,"AVOID_CITY2":null,"AVOID_CITY3":null,"CENSUS_ZCTA":"97633","ObjectId":318}},{"type":"Feature","id":319,"geometry":null,"properties":{"ZIP_CODE":"97634","ZIP_TYPE":"PO BOX ONLY","PREFERRED_CITY":"MIDLAND","ACCEPTABLE_CITY1":null,"ACCEPTABLE_CITY2":null,"ACCEPTABLE_CITY3":null,"AVOID_CITY1":null,"AVOID_CITY2":null,"AVOID_CITY3":null,"CENSUS_ZCTA":"97634","ObjectId":319}},{"type":"Feature","id":320,"geometry":null,"properties":{"ZIP_CODE":"97635","ZIP_TYPE":"STANDARD","PREFERRED_CITY":"NEW PINE CREEK","ACCEPTABLE_CITY1":"NEW PINE CRK","ACCEPTABLE_CITY2":null,"ACCEPTABLE_CITY3":null,"AVOID_CITY1":null,"AVOID_CITY2":null,"AVOID_CITY3":null,"CENSUS_ZCTA":"97635","ObjectId":320}},{"type":"Feature","id":321,"geometry":null,"properties":{"ZIP_CODE":"97636","ZIP_TYPE":"STANDARD","PREFERRED_CITY":"PAISLEY","ACCEPTABLE_CITY1":null,"ACCEPTABLE_CITY2":null,"ACCEPTABLE_CITY3":null,"AVOID_CITY1":null,"AVOID_CITY2":null,"AVOID_CITY3":null,"CENSUS_ZCTA":"97636","ObjectId":321}},{"type":"Feature","id":322,"geometry":null,"properties":{"ZIP_CODE":"97637","ZIP_TYPE":"STANDARD","PREFERRED_CITY":"PLUSH","ACCEPTABLE_CITY1":null,"ACCEPTABLE_CITY2":null,"ACCEPTABLE_CITY3":null,"AVOID_CITY1":null,"AVOID_CITY2":null,"AVOID_CITY3":null,"CENSUS_ZCTA":"97637","ObjectId":322}},{"type":"Feature","id":323,"geometry":null,"properties":{"ZIP_CODE":"97638","ZIP_TYPE":"STANDARD","PREFERRED_CITY":"SILVER LAKE","ACCEPTABLE_CITY1":null,"ACCEPTABLE_CITY2":null,"ACCEPTABLE_CITY3":null,"AVOID_CITY1":null,"AVOID_CITY2":null,"AVOID_CITY3":null,"CENSUS_ZCTA":"97638","ObjectId":323}},{"type":"Feature","id":324,"geometry":null,"properties":{"ZIP_CODE":"97639","ZIP_TYPE":"STANDARD","PREFERRED_CITY":"SPRAGUE RIVER","ACCEPTABLE_CITY1":"CHILOQUIN","ACCEPTABLE_CITY2":null,"ACCEPTABLE_CITY3":null,"AVOID_CITY1":null,"AVOID_CITY2":null,"AVOID_CITY3":null,"CENSUS_ZCTA":"97639","ObjectId":324}},{"type":"Feature","id":325,"geometry":null,"properties":{"ZIP_CODE":"97640","ZIP_TYPE":"STANDARD","PREFERRED_CITY":"SUMMER LAKE","ACCEPTABLE_CITY1":null,"ACCEPTABLE_CITY2":null,"ACCEPTABLE_CITY3":null,"AVOID_CITY1":null,"AVOID_CITY2":null,"AVOID_CITY3":null,"CENSUS_ZCTA":"97640","ObjectId":325}},{"type":"Feature","id":326,"geometry":null,"properties":{"ZIP_CODE":"97641","ZIP_TYPE":"PO BOX ONLY","PREFERRED_CITY":"CHRISTMAS VALLEY","ACCEPTABLE_CITY1":"CHRISTMAS VLY","ACCEPTABLE_CITY2":null,"ACCEPTABLE_CITY3":null,"AVOID_CITY1":null,"AVOID_CITY2":null,"AVOID_CITY3":null,"CENSUS_ZCTA":"97641","ObjectId":326}},{"type":"Feature","id":327,"geometry":null,"properties":{"ZIP_CODE":"97701","ZIP_TYPE":"STANDARD","PREFERRED_CITY":"BEND","ACCEPTABLE_CITY1":null,"ACCEPTABLE_CITY2":null,"ACCEPTABLE_CITY3":null,"AVOID_CITY1":null,"AVOID_CITY2":null,"AVOID_CITY3":null,"CENSUS_ZCTA":"97701","ObjectId":327}},{"type":"Feature","id":328,"geometry":null,"properties":{"ZIP_CODE":"97702","ZIP_TYPE":"STANDARD","PREFERRED_CITY":"BEND","ACCEPTABLE_CITY1":null,"ACCEPTABLE_CITY2":null,"ACCEPTABLE_CITY3":null,"AVOID_CITY1":null,"AVOID_CITY2":null,"AVOID_CITY3":null,"CENSUS_ZCTA":"97702","ObjectId":328}},{"type":"Feature","id":329,"geometry":null,"properties":{"ZIP_CODE":"97703","ZIP_TYPE":"STANDARD","PREFERRED_CITY":"BEND","ACCEPTABLE_CITY1":null,"ACCEPTABLE_CITY2":null,"ACCEPTABLE_CITY3":null,"AVOID_CITY1":null,"AVOID_CITY2":null,"AVOID_CITY3":null,"CENSUS_ZCTA":"97703","ObjectId":329}},{"type":"Feature","id":330,"geometry":null,"properties":{"ZIP_CODE":"97707","ZIP_TYPE":"STANDARD","PREFERRED_CITY":"BEND","ACCEPTABLE_CITY1":"SUNRIVER","ACCEPTABLE_CITY2":null,"ACCEPTABLE_CITY3":null,"AVOID_CITY1":null,"AVOID_CITY2":null,"AVOID_CITY3":null,"CENSUS_ZCTA":"97707","ObjectId":330}},{"type":"Feature","id":331,"geometry":null,"properties":{"ZIP_CODE":"97708","ZIP_TYPE":"PO BOX ONLY","PREFERRED_CITY":"BEND","ACCEPTABLE_CITY1":null,"ACCEPTABLE_CITY2":null,"ACCEPTABLE_CITY3":null,"AVOID_CITY1":null,"AVOID_CITY2":null,"AVOID_CITY3":null,"CENSUS_ZCTA":"NO ZCTA","ObjectId":331}},{"type":"Feature","id":332,"geometry":null,"properties":{"ZIP_CODE":"97709","ZIP_TYPE":"PO BOX ONLY","PREFERRED_CITY":"BEND","ACCEPTABLE_CITY1":null,"ACCEPTABLE_CITY2":null,"ACCEPTABLE_CITY3":null,"AVOID_CITY1":null,"AVOID_CITY2":null,"AVOID_CITY3":null,"CENSUS_ZCTA":"97709","ObjectId":332}},{"type":"Feature","id":333,"geometry":null,"properties":{"ZIP_CODE":"97710","ZIP_TYPE":"STANDARD","PREFERRED_CITY":"FIELDS","ACCEPTABLE_CITY1":null,"ACCEPTABLE_CITY2":null,"ACCEPTABLE_CITY3":null,"AVOID_CITY1":null,"AVOID_CITY2":null,"AVOID_CITY3":null,"CENSUS_ZCTA":"97710","ObjectId":333}},{"type":"Feature","id":334,"geometry":null,"properties":{"ZIP_CODE":"97711","ZIP_TYPE":"STANDARD","PREFERRED_CITY":"ASHWOOD","ACCEPTABLE_CITY1":null,"ACCEPTABLE_CITY2":null,"ACCEPTABLE_CITY3":null,"AVOID_CITY1":null,"AVOID_CITY2":null,"AVOID_CITY3":null,"CENSUS_ZCTA":"97711","ObjectId":334}},{"type":"Feature","id":335,"geometry":null,"properties":{"ZIP_CODE":"97712","ZIP_TYPE":"STANDARD","PREFERRED_CITY":"BROTHERS","ACCEPTABLE_CITY1":null,"ACCEPTABLE_CITY2":null,"ACCEPTABLE_CITY3":null,"AVOID_CITY1":null,"AVOID_CITY2":null,"AVOID_CITY3":null,"CENSUS_ZCTA":"97712","ObjectId":335}},{"type":"Feature","id":336,"geometry":null,"properties":{"ZIP_CODE":"97720","ZIP_TYPE":"STANDARD","PREFERRED_CITY":"BURNS","ACCEPTABLE_CITY1":"LAWEN","ACCEPTABLE_CITY2":null,"ACCEPTABLE_CITY3":null,"AVOID_CITY1":null,"AVOID_CITY2":null,"AVOID_CITY3":null,"CENSUS_ZCTA":"97720","ObjectId":336}},{"type":"Feature","id":337,"geometry":null,"properties":{"ZIP_CODE":"97721","ZIP_TYPE":"STANDARD","PREFERRED_CITY":"PRINCETON","ACCEPTABLE_CITY1":null,"ACCEPTABLE_CITY2":null,"ACCEPTABLE_CITY3":null,"AVOID_CITY1":null,"AVOID_CITY2":null,"AVOID_CITY3":null,"CENSUS_ZCTA":"97721","ObjectId":337}},{"type":"Feature","id":338,"geometry":null,"properties":{"ZIP_CODE":"97722","ZIP_TYPE":"STANDARD","PREFERRED_CITY":"DIAMOND","ACCEPTABLE_CITY1":null,"ACCEPTABLE_CITY2":null,"ACCEPTABLE_CITY3":null,"AVOID_CITY1":null,"AVOID_CITY2":null,"AVOID_CITY3":null,"CENSUS_ZCTA":"97722","ObjectId":338}},{"type":"Feature","id":339,"geometry":null,"properties":{"ZIP_CODE":"97730","ZIP_TYPE":"STANDARD","PREFERRED_CITY":"CAMP SHERMAN","ACCEPTABLE_CITY1":null,"ACCEPTABLE_CITY2":null,"ACCEPTABLE_CITY3":null,"AVOID_CITY1":null,"AVOID_CITY2":null,"AVOID_CITY3":null,"CENSUS_ZCTA":"97730","ObjectId":339}},{"type":"Feature","id":340,"geometry":null,"properties":{"ZIP_CODE":"97731","ZIP_TYPE":"STANDARD","PREFERRED_CITY":"CHEMULT","ACCEPTABLE_CITY1":"DIAMOND LAKE","ACCEPTABLE_CITY2":null,"ACCEPTABLE_CITY3":null,"AVOID_CITY1":null,"AVOID_CITY2":null,"AVOID_CITY3":null,"CENSUS_ZCTA":"97731","ObjectId":340}},{"type":"Feature","id":341,"geometry":null,"properties":{"ZIP_CODE":"97732","ZIP_TYPE":"PO BOX ONLY","PREFERRED_CITY":"CRANE","ACCEPTABLE_CITY1":null,"ACCEPTABLE_CITY2":null,"ACCEPTABLE_CITY3":null,"AVOID_CITY1":null,"AVOID_CITY2":null,"AVOID_CITY3":null,"CENSUS_ZCTA":"97732","ObjectId":341}},{"type":"Feature","id":342,"geometry":null,"properties":{"ZIP_CODE":"97733","ZIP_TYPE":"STANDARD","PREFERRED_CITY":"CRESCENT","ACCEPTABLE_CITY1":"CRESCENT LAKE","ACCEPTABLE_CITY2":null,"ACCEPTABLE_CITY3":null,"AVOID_CITY1":null,"AVOID_CITY2":null,"AVOID_CITY3":null,"CENSUS_ZCTA":"97733","ObjectId":342}},{"type":"Feature","id":343,"geometry":null,"properties":{"ZIP_CODE":"97734","ZIP_TYPE":"STANDARD","PREFERRED_CITY":"CULVER","ACCEPTABLE_CITY1":null,"ACCEPTABLE_CITY2":null,"ACCEPTABLE_CITY3":null,"AVOID_CITY1":null,"AVOID_CITY2":null,"AVOID_CITY3":null,"CENSUS_ZCTA":"97734","ObjectId":343}},{"type":"Feature","id":344,"geometry":null,"properties":{"ZIP_CODE":"97735","ZIP_TYPE":"PO BOX ONLY","PREFERRED_CITY":"FORT ROCK","ACCEPTABLE_CITY1":null,"ACCEPTABLE_CITY2":null,"ACCEPTABLE_CITY3":null,"AVOID_CITY1":null,"AVOID_CITY2":null,"AVOID_CITY3":null,"CENSUS_ZCTA":"97735","ObjectId":344}},{"type":"Feature","id":345,"geometry":null,"properties":{"ZIP_CODE":"97736","ZIP_TYPE":"STANDARD","PREFERRED_CITY":"FRENCHGLEN","ACCEPTABLE_CITY1":null,"ACCEPTABLE_CITY2":null,"ACCEPTABLE_CITY3":null,"AVOID_CITY1":null,"AVOID_CITY2":null,"AVOID_CITY3":null,"CENSUS_ZCTA":"97736","ObjectId":345}},{"type":"Feature","id":346,"geometry":null,"properties":{"ZIP_CODE":"97737","ZIP_TYPE":"STANDARD","PREFERRED_CITY":"GILCHRIST","ACCEPTABLE_CITY1":null,"ACCEPTABLE_CITY2":null,"ACCEPTABLE_CITY3":null,"AVOID_CITY1":null,"AVOID_CITY2":null,"AVOID_CITY3":null,"CENSUS_ZCTA":"97737","ObjectId":346}},{"type":"Feature","id":347,"geometry":null,"properties":{"ZIP_CODE":"97738","ZIP_TYPE":"STANDARD","PREFERRED_CITY":"HINES","ACCEPTABLE_CITY1":null,"ACCEPTABLE_CITY2":null,"ACCEPTABLE_CITY3":null,"AVOID_CITY1":null,"AVOID_CITY2":null,"AVOID_CITY3":null,"CENSUS_ZCTA":"97738","ObjectId":347}},{"type":"Feature","id":348,"geometry":null,"properties":{"ZIP_CODE":"97739","ZIP_TYPE":"STANDARD","PREFERRED_CITY":"LA PINE","ACCEPTABLE_CITY1":null,"ACCEPTABLE_CITY2":null,"ACCEPTABLE_CITY3":null,"AVOID_CITY1":"E LAKE","AVOID_CITY2":"EAST LAKE","AVOID_CITY3":null,"CENSUS_ZCTA":"97739","ObjectId":348}},{"type":"Feature","id":349,"geometry":null,"properties":{"ZIP_CODE":"97741","ZIP_TYPE":"STANDARD","PREFERRED_CITY":"MADRAS","ACCEPTABLE_CITY1":"METOLIUS","ACCEPTABLE_CITY2":null,"ACCEPTABLE_CITY3":null,"AVOID_CITY1":null,"AVOID_CITY2":null,"AVOID_CITY3":null,"CENSUS_ZCTA":"97741","ObjectId":349}},{"type":"Feature","id":350,"geometry":null,"properties":{"ZIP_CODE":"97750","ZIP_TYPE":"STANDARD","PREFERRED_CITY":"MITCHELL","ACCEPTABLE_CITY1":null,"ACCEPTABLE_CITY2":null,"ACCEPTABLE_CITY3":null,"AVOID_CITY1":null,"AVOID_CITY2":null,"AVOID_CITY3":null,"CENSUS_ZCTA":"97750","ObjectId":350}},{"type":"Feature","id":351,"geometry":null,"properties":{"ZIP_CODE":"97057","ZIP_TYPE":"PO BOX ONLY","PREFERRED_CITY":"SHANIKO","ACCEPTABLE_CITY1":null,"ACCEPTABLE_CITY2":null,"ACCEPTABLE_CITY3":null,"AVOID_CITY1":null,"AVOID_CITY2":null,"AVOID_CITY3":null,"CENSUS_ZCTA":"97057","ObjectId":351}},{"type":"Feature","id":352,"geometry":null,"properties":{"ZIP_CODE":"97058","ZIP_TYPE":"STANDARD","PREFERRED_CITY":"THE DALLES","ACCEPTABLE_CITY1":null,"ACCEPTABLE_CITY2":null,"ACCEPTABLE_CITY3":null,"AVOID_CITY1":"CELILO","AVOID_CITY2":"ROWENA","AVOID_CITY3":null,"CENSUS_ZCTA":"97058","ObjectId":352}},{"type":"Feature","id":353,"geometry":null,"properties":{"ZIP_CODE":"97060","ZIP_TYPE":"STANDARD","PREFERRED_CITY":"TROUTDALE","ACCEPTABLE_CITY1":"WOOD VILLAGE","ACCEPTABLE_CITY2":null,"ACCEPTABLE_CITY3":null,"AVOID_CITY1":"SPRINGDALE","AVOID_CITY2":null,"AVOID_CITY3":null,"CENSUS_ZCTA":"97060","ObjectId":353}},{"type":"Feature","id":354,"geometry":null,"properties":{"ZIP_CODE":"97062","ZIP_TYPE":"STANDARD","PREFERRED_CITY":"TUALATIN","ACCEPTABLE_CITY1":null,"ACCEPTABLE_CITY2":null,"ACCEPTABLE_CITY3":null,"AVOID_CITY1":null,"AVOID_CITY2":null,"AVOID_CITY3":null,"CENSUS_ZCTA":"97062","ObjectId":354}},{"type":"Feature","id":355,"geometry":null,"properties":{"ZIP_CODE":"97063","ZIP_TYPE":"STANDARD","PREFERRED_CITY":"TYGH VALLEY","ACCEPTABLE_CITY1":"WAMIC","ACCEPTABLE_CITY2":null,"ACCEPTABLE_CITY3":null,"AVOID_CITY1":null,"AVOID_CITY2":null,"AVOID_CITY3":null,"CENSUS_ZCTA":"97063","ObjectId":355}},{"type":"Feature","id":356,"geometry":null,"properties":{"ZIP_CODE":"97064","ZIP_TYPE":"STANDARD","PREFERRED_CITY":"VERNONIA","ACCEPTABLE_CITY1":null,"ACCEPTABLE_CITY2":null,"ACCEPTABLE_CITY3":null,"AVOID_CITY1":null,"AVOID_CITY2":null,"AVOID_CITY3":null,"CENSUS_ZCTA":"97064","ObjectId":356}},{"type":"Feature","id":357,"geometry":null,"properties":{"ZIP_CODE":"97065","ZIP_TYPE":"STANDARD","PREFERRED_CITY":"WASCO","ACCEPTABLE_CITY1":null,"ACCEPTABLE_CITY2":null,"ACCEPTABLE_CITY3":null,"AVOID_CITY1":"BIGGS","AVOID_CITY2":"BIGGS JUNCTION","AVOID_CITY3":null,"CENSUS_ZCTA":"97065","ObjectId":357}},{"type":"Feature","id":358,"geometry":null,"properties":{"ZIP_CODE":"97067","ZIP_TYPE":"STANDARD","PREFERRED_CITY":"WELCHES","ACCEPTABLE_CITY1":null,"ACCEPTABLE_CITY2":null,"ACCEPTABLE_CITY3":null,"AVOID_CITY1":"WEMME","AVOID_CITY2":null,"AVOID_CITY3":null,"CENSUS_ZCTA":"97067","ObjectId":358}},{"type":"Feature","id":359,"geometry":null,"properties":{"ZIP_CODE":"97068","ZIP_TYPE":"STANDARD","PREFERRED_CITY":"WEST LINN","ACCEPTABLE_CITY1":null,"ACCEPTABLE_CITY2":null,"ACCEPTABLE_CITY3":null,"AVOID_CITY1":"W LINN","AVOID_CITY2":"WANKERS CORNERS","AVOID_CITY3":"WILLAMETTE","CENSUS_ZCTA":"97068","ObjectId":359}},{"type":"Feature","id":360,"geometry":null,"properties":{"ZIP_CODE":"97070","ZIP_TYPE":"STANDARD","PREFERRED_CITY":"WILSONVILLE","ACCEPTABLE_CITY1":null,"ACCEPTABLE_CITY2":null,"ACCEPTABLE_CITY3":null,"AVOID_CITY1":"CHARBONNEAU","AVOID_CITY2":null,"AVOID_CITY3":null,"CENSUS_ZCTA":"97070","ObjectId":360}},{"type":"Feature","id":361,"geometry":null,"properties":{"ZIP_CODE":"97071","ZIP_TYPE":"STANDARD","PREFERRED_CITY":"WOODBURN","ACCEPTABLE_CITY1":null,"ACCEPTABLE_CITY2":null,"ACCEPTABLE_CITY3":null,"AVOID_CITY1":"MONITOR","AVOID_CITY2":null,"AVOID_CITY3":null,"CENSUS_ZCTA":"97071","ObjectId":361}},{"type":"Feature","id":362,"geometry":null,"properties":{"ZIP_CODE":"97075","ZIP_TYPE":"PO BOX ONLY","PREFERRED_CITY":"BEAVERTON","ACCEPTABLE_CITY1":null,"ACCEPTABLE_CITY2":null,"ACCEPTABLE_CITY3":null,"AVOID_CITY1":null,"AVOID_CITY2":null,"AVOID_CITY3":null,"CENSUS_ZCTA":"NO ZCTA","ObjectId":362}},{"type":"Feature","id":363,"geometry":null,"properties":{"ZIP_CODE":"97076","ZIP_TYPE":"PO BOX ONLY","PREFERRED_CITY":"BEAVERTON","ACCEPTABLE_CITY1":null,"ACCEPTABLE_CITY2":null,"ACCEPTABLE_CITY3":null,"AVOID_CITY1":null,"AVOID_CITY2":null,"AVOID_CITY3":null,"CENSUS_ZCTA":"NO ZCTA","ObjectId":363}},{"type":"Feature","id":364,"geometry":null,"properties":{"ZIP_CODE":"97077","ZIP_TYPE":"UNIQUE","PREFERRED_CITY":"BEAVERTON","ACCEPTABLE_CITY1":null,"ACCEPTABLE_CITY2":null,"ACCEPTABLE_CITY3":null,"AVOID_CITY1":"TEKTRONIX","AVOID_CITY2":null,"AVOID_CITY3":null,"CENSUS_ZCTA":"NO ZCTA","ObjectId":364}},{"type":"Feature","id":365,"geometry":null,"properties":{"ZIP_CODE":"97078","ZIP_TYPE":"STANDARD","PREFERRED_CITY":"BEAVERTON","ACCEPTABLE_CITY1":"ALOHA","ACCEPTABLE_CITY2":null,"ACCEPTABLE_CITY3":null,"AVOID_CITY1":null,"AVOID_CITY2":null,"AVOID_CITY3":null,"CENSUS_ZCTA":"97078","ObjectId":365}},{"type":"Feature","id":366,"geometry":null,"properties":{"ZIP_CODE":"97079","ZIP_TYPE":"UNIQUE","PREFERRED_CITY":"BEAVERTON","ACCEPTABLE_CITY1":null,"ACCEPTABLE_CITY2":null,"ACCEPTABLE_CITY3":null,"AVOID_CITY1":"SHARED RESHIPPER","AVOID_CITY2":null,"AVOID_CITY3":null,"CENSUS_ZCTA":"NO ZCTA","ObjectId":366}},{"type":"Feature","id":367,"geometry":null,"properties":{"ZIP_CODE":"97080","ZIP_TYPE":"STANDARD","PREFERRED_CITY":"GRESHAM","ACCEPTABLE_CITY1":null,"ACCEPTABLE_CITY2":null,"ACCEPTABLE_CITY3":null,"AVOID_CITY1":"DAMASCUS","AVOID_CITY2":null,"AVOID_CITY3":null,"CENSUS_ZCTA":"97080","ObjectId":367}},{"type":"Feature","id":368,"geometry":null,"properties":{"ZIP_CODE":"97086","ZIP_TYPE":"STANDARD","PREFERRED_CITY":"HAPPY VALLEY","ACCEPTABLE_CITY1":"CLACKAMAS","ACCEPTABLE_CITY2":"PORTLAND","ACCEPTABLE_CITY3":null,"AVOID_CITY1":null,"AVOID_CITY2":null,"AVOID_CITY3":null,"CENSUS_ZCTA":"97086","ObjectId":368}},{"type":"Feature","id":369,"geometry":null,"properties":{"ZIP_CODE":"97089","ZIP_TYPE":"STANDARD","PREFERRED_CITY":"DAMASCUS","ACCEPTABLE_CITY1":"BORING","ACCEPTABLE_CITY2":null,"ACCEPTABLE_CITY3":null,"AVOID_CITY1":"HAPPY VALLEY","AVOID_CITY2":null,"AVOID_CITY3":null,"CENSUS_ZCTA":"97089","ObjectId":369}},{"type":"Feature","id":370,"geometry":null,"properties":{"ZIP_CODE":"97101","ZIP_TYPE":"STANDARD","PREFERRED_CITY":"AMITY","ACCEPTABLE_CITY1":null,"ACCEPTABLE_CITY2":null,"ACCEPTABLE_CITY3":null,"AVOID_CITY1":null,"AVOID_CITY2":null,"AVOID_CITY3":null,"CENSUS_ZCTA":"97101","ObjectId":370}},{"type":"Feature","id":371,"geometry":null,"properties":{"ZIP_CODE":"97102","ZIP_TYPE":"STANDARD","PREFERRED_CITY":"ARCH CAPE","ACCEPTABLE_CITY1":null,"ACCEPTABLE_CITY2":null,"ACCEPTABLE_CITY3":null,"AVOID_CITY1":null,"AVOID_CITY2":null,"AVOID_CITY3":null,"CENSUS_ZCTA":"97102","ObjectId":371}},{"type":"Feature","id":372,"geometry":null,"properties":{"ZIP_CODE":"97103","ZIP_TYPE":"STANDARD","PREFERRED_CITY":"ASTORIA","ACCEPTABLE_CITY1":null,"ACCEPTABLE_CITY2":null,"ACCEPTABLE_CITY3":null,"AVOID_CITY1":"TONGUE POINT","AVOID_CITY2":null,"AVOID_CITY3":null,"CENSUS_ZCTA":"97103","ObjectId":372}},{"type":"Feature","id":373,"geometry":null,"properties":{"ZIP_CODE":"97106","ZIP_TYPE":"STANDARD","PREFERRED_CITY":"BANKS","ACCEPTABLE_CITY1":null,"ACCEPTABLE_CITY2":null,"ACCEPTABLE_CITY3":null,"AVOID_CITY1":null,"AVOID_CITY2":null,"AVOID_CITY3":null,"CENSUS_ZCTA":"97106","ObjectId":373}},{"type":"Feature","id":374,"geometry":null,"properties":{"ZIP_CODE":"97107","ZIP_TYPE":"STANDARD","PREFERRED_CITY":"BAY CITY","ACCEPTABLE_CITY1":null,"ACCEPTABLE_CITY2":null,"ACCEPTABLE_CITY3":null,"AVOID_CITY1":null,"AVOID_CITY2":null,"AVOID_CITY3":null,"CENSUS_ZCTA":"97107","ObjectId":374}},{"type":"Feature","id":375,"geometry":null,"properties":{"ZIP_CODE":"97108","ZIP_TYPE":"STANDARD","PREFERRED_CITY":"BEAVER","ACCEPTABLE_CITY1":null,"ACCEPTABLE_CITY2":null,"ACCEPTABLE_CITY3":null,"AVOID_CITY1":null,"AVOID_CITY2":null,"AVOID_CITY3":null,"CENSUS_ZCTA":"97108","ObjectId":375}},{"type":"Feature","id":376,"geometry":null,"properties":{"ZIP_CODE":"97109","ZIP_TYPE":"STANDARD","PREFERRED_CITY":"BUXTON","ACCEPTABLE_CITY1":"BANKS","ACCEPTABLE_CITY2":null,"ACCEPTABLE_CITY3":null,"AVOID_CITY1":null,"AVOID_CITY2":null,"AVOID_CITY3":null,"CENSUS_ZCTA":"97109","ObjectId":376}},{"type":"Feature","id":377,"geometry":null,"properties":{"ZIP_CODE":"97110","ZIP_TYPE":"PO BOX ONLY","PREFERRED_CITY":"CANNON BEACH","ACCEPTABLE_CITY1":null,"ACCEPTABLE_CITY2":null,"ACCEPTABLE_CITY3":null,"AVOID_CITY1":null,"AVOID_CITY2":null,"AVOID_CITY3":null,"CENSUS_ZCTA":"97110","ObjectId":377}},{"type":"Feature","id":378,"geometry":null,"properties":{"ZIP_CODE":"97111","ZIP_TYPE":"STANDARD","PREFERRED_CITY":"CARLTON","ACCEPTABLE_CITY1":null,"ACCEPTABLE_CITY2":null,"ACCEPTABLE_CITY3":null,"AVOID_CITY1":null,"AVOID_CITY2":null,"AVOID_CITY3":null,"CENSUS_ZCTA":"97111","ObjectId":378}},{"type":"Feature","id":379,"geometry":null,"properties":{"ZIP_CODE":"97112","ZIP_TYPE":"STANDARD","PREFERRED_CITY":"CLOVERDALE","ACCEPTABLE_CITY1":"BEAVER","ACCEPTABLE_CITY2":null,"ACCEPTABLE_CITY3":null,"AVOID_CITY1":null,"AVOID_CITY2":null,"AVOID_CITY3":null,"CENSUS_ZCTA":"97112","ObjectId":379}},{"type":"Feature","id":380,"geometry":null,"properties":{"ZIP_CODE":"97113","ZIP_TYPE":"STANDARD","PREFERRED_CITY":"CORNELIUS","ACCEPTABLE_CITY1":null,"ACCEPTABLE_CITY2":null,"ACCEPTABLE_CITY3":null,"AVOID_CITY1":null,"AVOID_CITY2":null,"AVOID_CITY3":null,"CENSUS_ZCTA":"97113","ObjectId":380}},{"type":"Feature","id":381,"geometry":null,"properties":{"ZIP_CODE":"97114","ZIP_TYPE":"STANDARD","PREFERRED_CITY":"DAYTON","ACCEPTABLE_CITY1":null,"ACCEPTABLE_CITY2":null,"ACCEPTABLE_CITY3":null,"AVOID_CITY1":"GRAND ISLAND","AVOID_CITY2":null,"AVOID_CITY3":null,"CENSUS_ZCTA":"97114","ObjectId":381}},{"type":"Feature","id":382,"geometry":null,"properties":{"ZIP_CODE":"97115","ZIP_TYPE":"STANDARD","PREFERRED_CITY":"DUNDEE","ACCEPTABLE_CITY1":null,"ACCEPTABLE_CITY2":null,"ACCEPTABLE_CITY3":null,"AVOID_CITY1":null,"AVOID_CITY2":null,"AVOID_CITY3":null,"CENSUS_ZCTA":"97115","ObjectId":382}},{"type":"Feature","id":383,"geometry":null,"properties":{"ZIP_CODE":"97116","ZIP_TYPE":"STANDARD","PREFERRED_CITY":"FOREST GROVE","ACCEPTABLE_CITY1":"GLENWOOD","ACCEPTABLE_CITY2":null,"ACCEPTABLE_CITY3":null,"AVOID_CITY1":"VERBOORT","AVOID_CITY2":null,"AVOID_CITY3":null,"CENSUS_ZCTA":"97116","ObjectId":383}},{"type":"Feature","id":384,"geometry":null,"properties":{"ZIP_CODE":"97117","ZIP_TYPE":"STANDARD","PREFERRED_CITY":"GALES CREEK","ACCEPTABLE_CITY1":null,"ACCEPTABLE_CITY2":null,"ACCEPTABLE_CITY3":null,"AVOID_CITY1":null,"AVOID_CITY2":null,"AVOID_CITY3":null,"CENSUS_ZCTA":"97117","ObjectId":384}},{"type":"Feature","id":385,"geometry":null,"properties":{"ZIP_CODE":"97118","ZIP_TYPE":"PO BOX ONLY","PREFERRED_CITY":"GARIBALDI","ACCEPTABLE_CITY1":null,"ACCEPTABLE_CITY2":null,"ACCEPTABLE_CITY3":null,"AVOID_CITY1":null,"AVOID_CITY2":null,"AVOID_CITY3":null,"CENSUS_ZCTA":"97118","ObjectId":385}},{"type":"Feature","id":386,"geometry":null,"properties":{"ZIP_CODE":"97119","ZIP_TYPE":"STANDARD","PREFERRED_CITY":"GASTON","ACCEPTABLE_CITY1":null,"ACCEPTABLE_CITY2":null,"ACCEPTABLE_CITY3":null,"AVOID_CITY1":null,"AVOID_CITY2":null,"AVOID_CITY3":null,"CENSUS_ZCTA":"97119","ObjectId":386}},{"type":"Feature","id":387,"geometry":null,"properties":{"ZIP_CODE":"97121","ZIP_TYPE":"STANDARD","PREFERRED_CITY":"HAMMOND","ACCEPTABLE_CITY1":null,"ACCEPTABLE_CITY2":null,"ACCEPTABLE_CITY3":null,"AVOID_CITY1":null,"AVOID_CITY2":null,"AVOID_CITY3":null,"CENSUS_ZCTA":"97121","ObjectId":387}},{"type":"Feature","id":388,"geometry":null,"properties":{"ZIP_CODE":"97122","ZIP_TYPE":"STANDARD","PREFERRED_CITY":"HEBO","ACCEPTABLE_CITY1":null,"ACCEPTABLE_CITY2":null,"ACCEPTABLE_CITY3":null,"AVOID_CITY1":null,"AVOID_CITY2":null,"AVOID_CITY3":null,"CENSUS_ZCTA":"97122","ObjectId":388}},{"type":"Feature","id":389,"geometry":null,"properties":{"ZIP_CODE":"97123","ZIP_TYPE":"STANDARD","PREFERRED_CITY":"HILLSBORO","ACCEPTABLE_CITY1":"CORNELIUS","ACCEPTABLE_CITY2":null,"ACCEPTABLE_CITY3":null,"AVOID_CITY1":"ORENCO","AVOID_CITY2":"SCHOLLS","AVOID_CITY3":null,"CENSUS_ZCTA":"97123","ObjectId":389}},{"type":"Feature","id":390,"geometry":null,"properties":{"ZIP_CODE":"97124","ZIP_TYPE":"STANDARD","PREFERRED_CITY":"HILLSBORO","ACCEPTABLE_CITY1":"CORNELIUS","ACCEPTABLE_CITY2":null,"ACCEPTABLE_CITY3":null,"AVOID_CITY1":"HELVETIA","AVOID_CITY2":"ORENCO","AVOID_CITY3":"WEST UNION","CENSUS_ZCTA":"97124","ObjectId":390}},{"type":"Feature","id":391,"geometry":null,"properties":{"ZIP_CODE":"97125","ZIP_TYPE":"STANDARD","PREFERRED_CITY":"MANNING","ACCEPTABLE_CITY1":"BANKS","ACCEPTABLE_CITY2":null,"ACCEPTABLE_CITY3":null,"AVOID_CITY1":null,"AVOID_CITY2":null,"AVOID_CITY3":null,"CENSUS_ZCTA":"97125","ObjectId":391}},{"type":"Feature","id":392,"geometry":null,"properties":{"ZIP_CODE":"97127","ZIP_TYPE":"STANDARD","PREFERRED_CITY":"LAFAYETTE","ACCEPTABLE_CITY1":null,"ACCEPTABLE_CITY2":null,"ACCEPTABLE_CITY3":null,"AVOID_CITY1":null,"AVOID_CITY2":null,"AVOID_CITY3":null,"CENSUS_ZCTA":"97127","ObjectId":392}},{"type":"Feature","id":393,"geometry":null,"properties":{"ZIP_CODE":"97128","ZIP_TYPE":"STANDARD","PREFERRED_CITY":"MCMINNVILLE","ACCEPTABLE_CITY1":null,"ACCEPTABLE_CITY2":null,"ACCEPTABLE_CITY3":null,"AVOID_CITY1":null,"AVOID_CITY2":null,"AVOID_CITY3":null,"CENSUS_ZCTA":"97128","ObjectId":393}},{"type":"Feature","id":394,"geometry":null,"properties":{"ZIP_CODE":"97129","ZIP_TYPE":"UNIQUE","PREFERRED_CITY":"HILLSBORO","ACCEPTABLE_CITY1":null,"ACCEPTABLE_CITY2":null,"ACCEPTABLE_CITY3":null,"AVOID_CITY1":"SHARED RESHIPPER","AVOID_CITY2":null,"AVOID_CITY3":null,"CENSUS_ZCTA":"NO ZCTA","ObjectId":394}},{"type":"Feature","id":395,"geometry":null,"properties":{"ZIP_CODE":"97130","ZIP_TYPE":"PO BOX ONLY","PREFERRED_CITY":"MANZANITA","ACCEPTABLE_CITY1":null,"ACCEPTABLE_CITY2":null,"ACCEPTABLE_CITY3":null,"AVOID_CITY1":null,"AVOID_CITY2":null,"AVOID_CITY3":null,"CENSUS_ZCTA":"97130","ObjectId":395}},{"type":"Feature","id":396,"geometry":null,"properties":{"ZIP_CODE":"97131","ZIP_TYPE":"STANDARD","PREFERRED_CITY":"NEHALEM","ACCEPTABLE_CITY1":null,"ACCEPTABLE_CITY2":null,"ACCEPTABLE_CITY3":null,"AVOID_CITY1":"MOHLER","AVOID_CITY2":"NEAHKAHNIE","AVOID_CITY3":null,"CENSUS_ZCTA":"97131","ObjectId":396}},{"type":"Feature","id":397,"geometry":null,"properties":{"ZIP_CODE":"97132","ZIP_TYPE":"STANDARD","PREFERRED_CITY":"NEWBERG","ACCEPTABLE_CITY1":null,"ACCEPTABLE_CITY2":null,"ACCEPTABLE_CITY3":null,"AVOID_CITY1":null,"AVOID_CITY2":null,"AVOID_CITY3":null,"CENSUS_ZCTA":"97132","ObjectId":397}},{"type":"Feature","id":398,"geometry":null,"properties":{"ZIP_CODE":"97133","ZIP_TYPE":"STANDARD","PREFERRED_CITY":"NORTH PLAINS","ACCEPTABLE_CITY1":null,"ACCEPTABLE_CITY2":null,"ACCEPTABLE_CITY3":null,"AVOID_CITY1":null,"AVOID_CITY2":null,"AVOID_CITY3":null,"CENSUS_ZCTA":"97133","ObjectId":398}},{"type":"Feature","id":399,"geometry":null,"properties":{"ZIP_CODE":"97134","ZIP_TYPE":"PO BOX ONLY","PREFERRED_CITY":"OCEANSIDE","ACCEPTABLE_CITY1":null,"ACCEPTABLE_CITY2":null,"ACCEPTABLE_CITY3":null,"AVOID_CITY1":null,"AVOID_CITY2":null,"AVOID_CITY3":null,"CENSUS_ZCTA":"97134","ObjectId":399}},{"type":"Feature","id":400,"geometry":null,"properties":{"ZIP_CODE":"97135","ZIP_TYPE":"PO BOX ONLY","PREFERRED_CITY":"PACIFIC CITY","ACCEPTABLE_CITY1":null,"ACCEPTABLE_CITY2":null,"ACCEPTABLE_CITY3":null,"AVOID_CITY1":null,"AVOID_CITY2":null,"AVOID_CITY3":null,"CENSUS_ZCTA":"97135","ObjectId":400}},{"type":"Feature","id":401,"geometry":null,"properties":{"ZIP_CODE":"97751","ZIP_TYPE":"STANDARD","PREFERRED_CITY":"PAULINA","ACCEPTABLE_CITY1":null,"ACCEPTABLE_CITY2":null,"ACCEPTABLE_CITY3":null,"AVOID_CITY1":null,"AVOID_CITY2":null,"AVOID_CITY3":null,"CENSUS_ZCTA":"97751","ObjectId":401}},{"type":"Feature","id":402,"geometry":null,"properties":{"ZIP_CODE":"97752","ZIP_TYPE":"STANDARD","PREFERRED_CITY":"POST","ACCEPTABLE_CITY1":null,"ACCEPTABLE_CITY2":null,"ACCEPTABLE_CITY3":null,"AVOID_CITY1":null,"AVOID_CITY2":null,"AVOID_CITY3":null,"CENSUS_ZCTA":"97752","ObjectId":402}},{"type":"Feature","id":403,"geometry":null,"properties":{"ZIP_CODE":"97753","ZIP_TYPE":"STANDARD","PREFERRED_CITY":"POWELL BUTTE","ACCEPTABLE_CITY1":null,"ACCEPTABLE_CITY2":null,"ACCEPTABLE_CITY3":null,"AVOID_CITY1":null,"AVOID_CITY2":null,"AVOID_CITY3":null,"CENSUS_ZCTA":"97753","ObjectId":403}},{"type":"Feature","id":404,"geometry":null,"properties":{"ZIP_CODE":"97754","ZIP_TYPE":"STANDARD","PREFERRED_CITY":"PRINEVILLE","ACCEPTABLE_CITY1":null,"ACCEPTABLE_CITY2":null,"ACCEPTABLE_CITY3":null,"AVOID_CITY1":null,"AVOID_CITY2":null,"AVOID_CITY3":null,"CENSUS_ZCTA":"97754","ObjectId":404}},{"type":"Feature","id":405,"geometry":null,"properties":{"ZIP_CODE":"97756","ZIP_TYPE":"STANDARD","PREFERRED_CITY":"REDMOND","ACCEPTABLE_CITY1":null,"ACCEPTABLE_CITY2":null,"ACCEPTABLE_CITY3":null,"AVOID_CITY1":"EAGLE CREST","AVOID_CITY2":null,"AVOID_CITY3":null,"CENSUS_ZCTA":"97756","ObjectId":405}},{"type":"Feature","id":406,"geometry":null,"properties":{"ZIP_CODE":"97758","ZIP_TYPE":"STANDARD","PREFERRED_CITY":"RILEY","ACCEPTABLE_CITY1":null,"ACCEPTABLE_CITY2":null,"ACCEPTABLE_CITY3":null,"AVOID_CITY1":null,"AVOID_CITY2":null,"AVOID_CITY3":null,"CENSUS_ZCTA":"97758","ObjectId":406}},{"type":"Feature","id":407,"geometry":null,"properties":{"ZIP_CODE":"97759","ZIP_TYPE":"STANDARD","PREFERRED_CITY":"SISTERS","ACCEPTABLE_CITY1":null,"ACCEPTABLE_CITY2":null,"ACCEPTABLE_CITY3":null,"AVOID_CITY1":"BLACK BUTTE RANCH","AVOID_CITY2":"BLK BTTE RNCH","AVOID_CITY3":"TOLLGATE","CENSUS_ZCTA":"97759","ObjectId":407}},{"type":"Feature","id":408,"geometry":null,"properties":{"ZIP_CODE":"97760","ZIP_TYPE":"STANDARD","PREFERRED_CITY":"TERREBONNE","ACCEPTABLE_CITY1":"CRKD RVR RNCH","ACCEPTABLE_CITY2":"CROOKED RIVER","ACCEPTABLE_CITY3":"CROOKED RIVER RANCH","AVOID_CITY1":null,"AVOID_CITY2":null,"AVOID_CITY3":null,"CENSUS_ZCTA":"97760","ObjectId":408}},{"type":"Feature","id":409,"geometry":null,"properties":{"ZIP_CODE":"97761","ZIP_TYPE":"PO BOX ONLY","PREFERRED_CITY":"WARM SPRINGS","ACCEPTABLE_CITY1":null,"ACCEPTABLE_CITY2":null,"ACCEPTABLE_CITY3":null,"AVOID_CITY1":"KAH NEE TA","AVOID_CITY2":"KAHNEETA","AVOID_CITY3":null,"CENSUS_ZCTA":"97761","ObjectId":409}},{"type":"Feature","id":410,"geometry":null,"properties":{"ZIP_CODE":"97801","ZIP_TYPE":"STANDARD","PREFERRED_CITY":"PENDLETON","ACCEPTABLE_CITY1":"CAYUSE","ACCEPTABLE_CITY2":null,"ACCEPTABLE_CITY3":null,"AVOID_CITY1":null,"AVOID_CITY2":null,"AVOID_CITY3":null,"CENSUS_ZCTA":"97801","ObjectId":410}},{"type":"Feature","id":411,"geometry":null,"properties":{"ZIP_CODE":"97810","ZIP_TYPE":"STANDARD","PREFERRED_CITY":"ADAMS","ACCEPTABLE_CITY1":null,"ACCEPTABLE_CITY2":null,"ACCEPTABLE_CITY3":null,"AVOID_CITY1":null,"AVOID_CITY2":null,"AVOID_CITY3":null,"CENSUS_ZCTA":"97810","ObjectId":411}},{"type":"Feature","id":412,"geometry":null,"properties":{"ZIP_CODE":"97812","ZIP_TYPE":"STANDARD","PREFERRED_CITY":"ARLINGTON","ACCEPTABLE_CITY1":null,"ACCEPTABLE_CITY2":null,"ACCEPTABLE_CITY3":null,"AVOID_CITY1":null,"AVOID_CITY2":null,"AVOID_CITY3":null,"CENSUS_ZCTA":"97812","ObjectId":412}},{"type":"Feature","id":413,"geometry":null,"properties":{"ZIP_CODE":"97813","ZIP_TYPE":"STANDARD","PREFERRED_CITY":"ATHENA","ACCEPTABLE_CITY1":null,"ACCEPTABLE_CITY2":null,"ACCEPTABLE_CITY3":null,"AVOID_CITY1":null,"AVOID_CITY2":null,"AVOID_CITY3":null,"CENSUS_ZCTA":"97813","ObjectId":413}},{"type":"Feature","id":414,"geometry":null,"properties":{"ZIP_CODE":"97814","ZIP_TYPE":"STANDARD","PREFERRED_CITY":"BAKER CITY","ACCEPTABLE_CITY1":"MEDICAL SPGS","ACCEPTABLE_CITY2":"MEDICAL SPRINGS","ACCEPTABLE_CITY3":null,"AVOID_CITY1":null,"AVOID_CITY2":null,"AVOID_CITY3":null,"CENSUS_ZCTA":"97814","ObjectId":414}},{"type":"Feature","id":415,"geometry":null,"properties":{"ZIP_CODE":"97817","ZIP_TYPE":"STANDARD","PREFERRED_CITY":"BATES","ACCEPTABLE_CITY1":null,"ACCEPTABLE_CITY2":null,"ACCEPTABLE_CITY3":null,"AVOID_CITY1":null,"AVOID_CITY2":null,"AVOID_CITY3":null,"CENSUS_ZCTA":"97817","ObjectId":415}},{"type":"Feature","id":416,"geometry":null,"properties":{"ZIP_CODE":"97818","ZIP_TYPE":"STANDARD","PREFERRED_CITY":"BOARDMAN","ACCEPTABLE_CITY1":null,"ACCEPTABLE_CITY2":null,"ACCEPTABLE_CITY3":null,"AVOID_CITY1":null,"AVOID_CITY2":null,"AVOID_CITY3":null,"CENSUS_ZCTA":"97818","ObjectId":416}},{"type":"Feature","id":417,"geometry":null,"properties":{"ZIP_CODE":"97819","ZIP_TYPE":"STANDARD","PREFERRED_CITY":"BRIDGEPORT","ACCEPTABLE_CITY1":null,"ACCEPTABLE_CITY2":null,"ACCEPTABLE_CITY3":null,"AVOID_CITY1":null,"AVOID_CITY2":null,"AVOID_CITY3":null,"CENSUS_ZCTA":"97819","ObjectId":417}},{"type":"Feature","id":418,"geometry":null,"properties":{"ZIP_CODE":"97820","ZIP_TYPE":"STANDARD","PREFERRED_CITY":"CANYON CITY","ACCEPTABLE_CITY1":null,"ACCEPTABLE_CITY2":null,"ACCEPTABLE_CITY3":null,"AVOID_CITY1":null,"AVOID_CITY2":null,"AVOID_CITY3":null,"CENSUS_ZCTA":"97820","ObjectId":418}},{"type":"Feature","id":419,"geometry":null,"properties":{"ZIP_CODE":"97823","ZIP_TYPE":"STANDARD","PREFERRED_CITY":"CONDON","ACCEPTABLE_CITY1":"LONEROCK","ACCEPTABLE_CITY2":null,"ACCEPTABLE_CITY3":null,"AVOID_CITY1":null,"AVOID_CITY2":null,"AVOID_CITY3":null,"CENSUS_ZCTA":"97823","ObjectId":419}},{"type":"Feature","id":420,"geometry":null,"properties":{"ZIP_CODE":"97824","ZIP_TYPE":"STANDARD","PREFERRED_CITY":"COVE","ACCEPTABLE_CITY1":null,"ACCEPTABLE_CITY2":null,"ACCEPTABLE_CITY3":null,"AVOID_CITY1":null,"AVOID_CITY2":null,"AVOID_CITY3":null,"CENSUS_ZCTA":"97824","ObjectId":420}},{"type":"Feature","id":421,"geometry":null,"properties":{"ZIP_CODE":"97825","ZIP_TYPE":"STANDARD","PREFERRED_CITY":"DAYVILLE","ACCEPTABLE_CITY1":null,"ACCEPTABLE_CITY2":null,"ACCEPTABLE_CITY3":null,"AVOID_CITY1":null,"AVOID_CITY2":null,"AVOID_CITY3":null,"CENSUS_ZCTA":"97825","ObjectId":421}},{"type":"Feature","id":422,"geometry":null,"properties":{"ZIP_CODE":"97826","ZIP_TYPE":"STANDARD","PREFERRED_CITY":"ECHO","ACCEPTABLE_CITY1":null,"ACCEPTABLE_CITY2":null,"ACCEPTABLE_CITY3":null,"AVOID_CITY1":null,"AVOID_CITY2":null,"AVOID_CITY3":null,"CENSUS_ZCTA":"97826","ObjectId":422}},{"type":"Feature","id":423,"geometry":null,"properties":{"ZIP_CODE":"97827","ZIP_TYPE":"STANDARD","PREFERRED_CITY":"ELGIN","ACCEPTABLE_CITY1":null,"ACCEPTABLE_CITY2":null,"ACCEPTABLE_CITY3":null,"AVOID_CITY1":null,"AVOID_CITY2":null,"AVOID_CITY3":null,"CENSUS_ZCTA":"97827","ObjectId":423}},{"type":"Feature","id":424,"geometry":null,"properties":{"ZIP_CODE":"97828","ZIP_TYPE":"STANDARD","PREFERRED_CITY":"ENTERPRISE","ACCEPTABLE_CITY1":null,"ACCEPTABLE_CITY2":null,"ACCEPTABLE_CITY3":null,"AVOID_CITY1":null,"AVOID_CITY2":null,"AVOID_CITY3":null,"CENSUS_ZCTA":"97828","ObjectId":424}},{"type":"Feature","id":425,"geometry":null,"properties":{"ZIP_CODE":"97830","ZIP_TYPE":"STANDARD","PREFERRED_CITY":"FOSSIL","ACCEPTABLE_CITY1":"KINZUA","ACCEPTABLE_CITY2":"MAYVILLE","ACCEPTABLE_CITY3":null,"AVOID_CITY1":null,"AVOID_CITY2":null,"AVOID_CITY3":null,"CENSUS_ZCTA":"97830","ObjectId":425}},{"type":"Feature","id":426,"geometry":null,"properties":{"ZIP_CODE":"97833","ZIP_TYPE":"STANDARD","PREFERRED_CITY":"HAINES","ACCEPTABLE_CITY1":null,"ACCEPTABLE_CITY2":null,"ACCEPTABLE_CITY3":null,"AVOID_CITY1":null,"AVOID_CITY2":null,"AVOID_CITY3":null,"CENSUS_ZCTA":"97833","ObjectId":426}},{"type":"Feature","id":427,"geometry":null,"properties":{"ZIP_CODE":"97834","ZIP_TYPE":"STANDARD","PREFERRED_CITY":"HALFWAY","ACCEPTABLE_CITY1":null,"ACCEPTABLE_CITY2":null,"ACCEPTABLE_CITY3":null,"AVOID_CITY1":null,"AVOID_CITY2":null,"AVOID_CITY3":null,"CENSUS_ZCTA":"97834","ObjectId":427}},{"type":"Feature","id":428,"geometry":null,"properties":{"ZIP_CODE":"97835","ZIP_TYPE":"STANDARD","PREFERRED_CITY":"HELIX","ACCEPTABLE_CITY1":null,"ACCEPTABLE_CITY2":null,"ACCEPTABLE_CITY3":null,"AVOID_CITY1":null,"AVOID_CITY2":null,"AVOID_CITY3":null,"CENSUS_ZCTA":"97835","ObjectId":428}},{"type":"Feature","id":429,"geometry":null,"properties":{"ZIP_CODE":"97836","ZIP_TYPE":"STANDARD","PREFERRED_CITY":"HEPPNER","ACCEPTABLE_CITY1":null,"ACCEPTABLE_CITY2":null,"ACCEPTABLE_CITY3":null,"AVOID_CITY1":null,"AVOID_CITY2":null,"AVOID_CITY3":null,"CENSUS_ZCTA":"97836","ObjectId":429}},{"type":"Feature","id":430,"geometry":null,"properties":{"ZIP_CODE":"97837","ZIP_TYPE":"STANDARD","PREFERRED_CITY":"HEREFORD","ACCEPTABLE_CITY1":null,"ACCEPTABLE_CITY2":null,"ACCEPTABLE_CITY3":null,"AVOID_CITY1":null,"AVOID_CITY2":null,"AVOID_CITY3":null,"CENSUS_ZCTA":"97837","ObjectId":430}},{"type":"Feature","id":431,"geometry":null,"properties":{"ZIP_CODE":"97838","ZIP_TYPE":"STANDARD","PREFERRED_CITY":"HERMISTON","ACCEPTABLE_CITY1":null,"ACCEPTABLE_CITY2":null,"ACCEPTABLE_CITY3":null,"AVOID_CITY1":null,"AVOID_CITY2":null,"AVOID_CITY3":null,"CENSUS_ZCTA":"97838","ObjectId":431}},{"type":"Feature","id":432,"geometry":null,"properties":{"ZIP_CODE":"97839","ZIP_TYPE":"STANDARD","PREFERRED_CITY":"LEXINGTON","ACCEPTABLE_CITY1":null,"ACCEPTABLE_CITY2":null,"ACCEPTABLE_CITY3":null,"AVOID_CITY1":null,"AVOID_CITY2":null,"AVOID_CITY3":null,"CENSUS_ZCTA":"97839","ObjectId":432}},{"type":"Feature","id":433,"geometry":null,"properties":{"ZIP_CODE":"97840","ZIP_TYPE":"STANDARD","PREFERRED_CITY":"OXBOW","ACCEPTABLE_CITY1":null,"ACCEPTABLE_CITY2":null,"ACCEPTABLE_CITY3":null,"AVOID_CITY1":null,"AVOID_CITY2":null,"AVOID_CITY3":null,"CENSUS_ZCTA":"97840","ObjectId":433}},{"type":"Feature","id":434,"geometry":null,"properties":{"ZIP_CODE":"97841","ZIP_TYPE":"STANDARD","PREFERRED_CITY":"IMBLER","ACCEPTABLE_CITY1":null,"ACCEPTABLE_CITY2":null,"ACCEPTABLE_CITY3":null,"AVOID_CITY1":null,"AVOID_CITY2":null,"AVOID_CITY3":null,"CENSUS_ZCTA":"97841","ObjectId":434}},{"type":"Feature","id":435,"geometry":null,"properties":{"ZIP_CODE":"97842","ZIP_TYPE":"STANDARD","PREFERRED_CITY":"IMNAHA","ACCEPTABLE_CITY1":null,"ACCEPTABLE_CITY2":null,"ACCEPTABLE_CITY3":null,"AVOID_CITY1":null,"AVOID_CITY2":null,"AVOID_CITY3":null,"CENSUS_ZCTA":"97842","ObjectId":435}},{"type":"Feature","id":436,"geometry":null,"properties":{"ZIP_CODE":"97843","ZIP_TYPE":"STANDARD","PREFERRED_CITY":"IONE","ACCEPTABLE_CITY1":null,"ACCEPTABLE_CITY2":null,"ACCEPTABLE_CITY3":null,"AVOID_CITY1":null,"AVOID_CITY2":null,"AVOID_CITY3":null,"CENSUS_ZCTA":"97843","ObjectId":436}},{"type":"Feature","id":437,"geometry":null,"properties":{"ZIP_CODE":"97844","ZIP_TYPE":"STANDARD","PREFERRED_CITY":"IRRIGON","ACCEPTABLE_CITY1":null,"ACCEPTABLE_CITY2":null,"ACCEPTABLE_CITY3":null,"AVOID_CITY1":null,"AVOID_CITY2":null,"AVOID_CITY3":null,"CENSUS_ZCTA":"97844","ObjectId":437}},{"type":"Feature","id":438,"geometry":null,"properties":{"ZIP_CODE":"97845","ZIP_TYPE":"STANDARD","PREFERRED_CITY":"JOHN DAY","ACCEPTABLE_CITY1":null,"ACCEPTABLE_CITY2":null,"ACCEPTABLE_CITY3":null,"AVOID_CITY1":null,"AVOID_CITY2":null,"AVOID_CITY3":null,"CENSUS_ZCTA":"97845","ObjectId":438}},{"type":"Feature","id":439,"geometry":null,"properties":{"ZIP_CODE":"97846","ZIP_TYPE":"STANDARD","PREFERRED_CITY":"JOSEPH","ACCEPTABLE_CITY1":null,"ACCEPTABLE_CITY2":null,"ACCEPTABLE_CITY3":null,"AVOID_CITY1":null,"AVOID_CITY2":null,"AVOID_CITY3":null,"CENSUS_ZCTA":"97846","ObjectId":439}},{"type":"Feature","id":440,"geometry":null,"properties":{"ZIP_CODE":"97848","ZIP_TYPE":"STANDARD","PREFERRED_CITY":"KIMBERLY","ACCEPTABLE_CITY1":null,"ACCEPTABLE_CITY2":null,"ACCEPTABLE_CITY3":null,"AVOID_CITY1":null,"AVOID_CITY2":null,"AVOID_CITY3":null,"CENSUS_ZCTA":"97848","ObjectId":440}},{"type":"Feature","id":441,"geometry":null,"properties":{"ZIP_CODE":"97850","ZIP_TYPE":"STANDARD","PREFERRED_CITY":"LA GRANDE","ACCEPTABLE_CITY1":"ISLAND CITY","ACCEPTABLE_CITY2":null,"ACCEPTABLE_CITY3":null,"AVOID_CITY1":null,"AVOID_CITY2":null,"AVOID_CITY3":null,"CENSUS_ZCTA":"97850","ObjectId":441}},{"type":"Feature","id":442,"geometry":null,"properties":{"ZIP_CODE":"97856","ZIP_TYPE":"STANDARD","PREFERRED_CITY":"LONG CREEK","ACCEPTABLE_CITY1":"FOX","ACCEPTABLE_CITY2":"RITTER","ACCEPTABLE_CITY3":null,"AVOID_CITY1":null,"AVOID_CITY2":null,"AVOID_CITY3":null,"CENSUS_ZCTA":"97856","ObjectId":442}},{"type":"Feature","id":443,"geometry":null,"properties":{"ZIP_CODE":"97857","ZIP_TYPE":"STANDARD","PREFERRED_CITY":"LOSTINE","ACCEPTABLE_CITY1":null,"ACCEPTABLE_CITY2":null,"ACCEPTABLE_CITY3":null,"AVOID_CITY1":null,"AVOID_CITY2":null,"AVOID_CITY3":null,"CENSUS_ZCTA":"97857","ObjectId":443}},{"type":"Feature","id":444,"geometry":null,"properties":{"ZIP_CODE":"97859","ZIP_TYPE":"PO BOX ONLY","PREFERRED_CITY":"MEACHAM","ACCEPTABLE_CITY1":null,"ACCEPTABLE_CITY2":null,"ACCEPTABLE_CITY3":null,"AVOID_CITY1":null,"AVOID_CITY2":null,"AVOID_CITY3":null,"CENSUS_ZCTA":"97859","ObjectId":444}},{"type":"Feature","id":445,"geometry":null,"properties":{"ZIP_CODE":"97861","ZIP_TYPE":"STANDARD","PREFERRED_CITY":"MIKKALO","ACCEPTABLE_CITY1":"ARLINGTON","ACCEPTABLE_CITY2":null,"ACCEPTABLE_CITY3":null,"AVOID_CITY1":null,"AVOID_CITY2":null,"AVOID_CITY3":null,"CENSUS_ZCTA":"NO ZCTA","ObjectId":445}},{"type":"Feature","id":446,"geometry":null,"properties":{"ZIP_CODE":"97862","ZIP_TYPE":"STANDARD","PREFERRED_CITY":"MILTON FREEWATER","ACCEPTABLE_CITY1":"MILTON FRWTR","ACCEPTABLE_CITY2":null,"ACCEPTABLE_CITY3":null,"AVOID_CITY1":null,"AVOID_CITY2":null,"AVOID_CITY3":null,"CENSUS_ZCTA":"97862","ObjectId":446}},{"type":"Feature","id":447,"geometry":null,"properties":{"ZIP_CODE":"97864","ZIP_TYPE":"STANDARD","PREFERRED_CITY":"MONUMENT","ACCEPTABLE_CITY1":null,"ACCEPTABLE_CITY2":null,"ACCEPTABLE_CITY3":null,"AVOID_CITY1":null,"AVOID_CITY2":null,"AVOID_CITY3":null,"CENSUS_ZCTA":"97864","ObjectId":447}},{"type":"Feature","id":448,"geometry":null,"properties":{"ZIP_CODE":"97865","ZIP_TYPE":"STANDARD","PREFERRED_CITY":"MOUNT VERNON","ACCEPTABLE_CITY1":null,"ACCEPTABLE_CITY2":null,"ACCEPTABLE_CITY3":null,"AVOID_CITY1":"MT VERNON","AVOID_CITY2":null,"AVOID_CITY3":null,"CENSUS_ZCTA":"97865","ObjectId":448}},{"type":"Feature","id":449,"geometry":null,"properties":{"ZIP_CODE":"97867","ZIP_TYPE":"STANDARD","PREFERRED_CITY":"NORTH POWDER","ACCEPTABLE_CITY1":null,"ACCEPTABLE_CITY2":null,"ACCEPTABLE_CITY3":null,"AVOID_CITY1":"N POWDER","AVOID_CITY2":null,"AVOID_CITY3":null,"CENSUS_ZCTA":"97867","ObjectId":449}},{"type":"Feature","id":450,"geometry":null,"properties":{"ZIP_CODE":"97868","ZIP_TYPE":"STANDARD","PREFERRED_CITY":"PILOT ROCK","ACCEPTABLE_CITY1":null,"ACCEPTABLE_CITY2":null,"ACCEPTABLE_CITY3":null,"AVOID_CITY1":null,"AVOID_CITY2":null,"AVOID_CITY3":null,"CENSUS_ZCTA":"97868","ObjectId":450}},{"type":"Feature","id":451,"geometry":null,"properties":{"ZIP_CODE":"97869","ZIP_TYPE":"STANDARD","PREFERRED_CITY":"PRAIRIE CITY","ACCEPTABLE_CITY1":null,"ACCEPTABLE_CITY2":null,"ACCEPTABLE_CITY3":null,"AVOID_CITY1":null,"AVOID_CITY2":null,"AVOID_CITY3":null,"CENSUS_ZCTA":"97869","ObjectId":451}},{"type":"Feature","id":452,"geometry":null,"properties":{"ZIP_CODE":"97870","ZIP_TYPE":"STANDARD","PREFERRED_CITY":"RICHLAND","ACCEPTABLE_CITY1":null,"ACCEPTABLE_CITY2":null,"ACCEPTABLE_CITY3":null,"AVOID_CITY1":null,"AVOID_CITY2":null,"AVOID_CITY3":null,"CENSUS_ZCTA":"97870","ObjectId":452}},{"type":"Feature","id":453,"geometry":null,"properties":{"ZIP_CODE":"97873","ZIP_TYPE":"STANDARD","PREFERRED_CITY":"SENECA","ACCEPTABLE_CITY1":null,"ACCEPTABLE_CITY2":null,"ACCEPTABLE_CITY3":null,"AVOID_CITY1":null,"AVOID_CITY2":null,"AVOID_CITY3":null,"CENSUS_ZCTA":"97873","ObjectId":453}},{"type":"Feature","id":454,"geometry":null,"properties":{"ZIP_CODE":"97874","ZIP_TYPE":"STANDARD","PREFERRED_CITY":"SPRAY","ACCEPTABLE_CITY1":null,"ACCEPTABLE_CITY2":null,"ACCEPTABLE_CITY3":null,"AVOID_CITY1":null,"AVOID_CITY2":null,"AVOID_CITY3":null,"CENSUS_ZCTA":"97874","ObjectId":454}},{"type":"Feature","id":455,"geometry":null,"properties":{"ZIP_CODE":"97875","ZIP_TYPE":"STANDARD","PREFERRED_CITY":"STANFIELD","ACCEPTABLE_CITY1":null,"ACCEPTABLE_CITY2":null,"ACCEPTABLE_CITY3":null,"AVOID_CITY1":null,"AVOID_CITY2":null,"AVOID_CITY3":null,"CENSUS_ZCTA":"97875","ObjectId":455}},{"type":"Feature","id":456,"geometry":null,"properties":{"ZIP_CODE":"97876","ZIP_TYPE":"STANDARD","PREFERRED_CITY":"SUMMERVILLE","ACCEPTABLE_CITY1":null,"ACCEPTABLE_CITY2":null,"ACCEPTABLE_CITY3":null,"AVOID_CITY1":null,"AVOID_CITY2":null,"AVOID_CITY3":null,"CENSUS_ZCTA":"97876","ObjectId":456}},{"type":"Feature","id":457,"geometry":null,"properties":{"ZIP_CODE":"97877","ZIP_TYPE":"STANDARD","PREFERRED_CITY":"SUMPTER","ACCEPTABLE_CITY1":"GRANITE","ACCEPTABLE_CITY2":"GREENHORN","ACCEPTABLE_CITY3":null,"AVOID_CITY1":null,"AVOID_CITY2":null,"AVOID_CITY3":null,"CENSUS_ZCTA":"97877","ObjectId":457}},{"type":"Feature","id":458,"geometry":null,"properties":{"ZIP_CODE":"97880","ZIP_TYPE":"PO BOX ONLY","PREFERRED_CITY":"UKIAH","ACCEPTABLE_CITY1":"DALE","ACCEPTABLE_CITY2":null,"ACCEPTABLE_CITY3":null,"AVOID_CITY1":null,"AVOID_CITY2":null,"AVOID_CITY3":null,"CENSUS_ZCTA":"97880","ObjectId":458}},{"type":"Feature","id":459,"geometry":null,"properties":{"ZIP_CODE":"97882","ZIP_TYPE":"STANDARD","PREFERRED_CITY":"UMATILLA","ACCEPTABLE_CITY1":"MCNARY","ACCEPTABLE_CITY2":null,"ACCEPTABLE_CITY3":null,"AVOID_CITY1":null,"AVOID_CITY2":null,"AVOID_CITY3":null,"CENSUS_ZCTA":"97882","ObjectId":459}},{"type":"Feature","id":460,"geometry":null,"properties":{"ZIP_CODE":"97883","ZIP_TYPE":"STANDARD","PREFERRED_CITY":"UNION","ACCEPTABLE_CITY1":null,"ACCEPTABLE_CITY2":null,"ACCEPTABLE_CITY3":null,"AVOID_CITY1":null,"AVOID_CITY2":null,"AVOID_CITY3":null,"CENSUS_ZCTA":"97883","ObjectId":460}},{"type":"Feature","id":461,"geometry":null,"properties":{"ZIP_CODE":"97884","ZIP_TYPE":"STANDARD","PREFERRED_CITY":"UNITY","ACCEPTABLE_CITY1":null,"ACCEPTABLE_CITY2":null,"ACCEPTABLE_CITY3":null,"AVOID_CITY1":null,"AVOID_CITY2":null,"AVOID_CITY3":null,"CENSUS_ZCTA":"97884","ObjectId":461}},{"type":"Feature","id":462,"geometry":null,"properties":{"ZIP_CODE":"97885","ZIP_TYPE":"STANDARD","PREFERRED_CITY":"WALLOWA","ACCEPTABLE_CITY1":null,"ACCEPTABLE_CITY2":null,"ACCEPTABLE_CITY3":null,"AVOID_CITY1":null,"AVOID_CITY2":null,"AVOID_CITY3":null,"CENSUS_ZCTA":"97885","ObjectId":462}},{"type":"Feature","id":463,"geometry":null,"properties":{"ZIP_CODE":"97886","ZIP_TYPE":"STANDARD","PREFERRED_CITY":"WESTON","ACCEPTABLE_CITY1":null,"ACCEPTABLE_CITY2":null,"ACCEPTABLE_CITY3":null,"AVOID_CITY1":null,"AVOID_CITY2":null,"AVOID_CITY3":null,"CENSUS_ZCTA":"97886","ObjectId":463}},{"type":"Feature","id":464,"geometry":null,"properties":{"ZIP_CODE":"97901","ZIP_TYPE":"STANDARD","PREFERRED_CITY":"ADRIAN","ACCEPTABLE_CITY1":null,"ACCEPTABLE_CITY2":null,"ACCEPTABLE_CITY3":null,"AVOID_CITY1":null,"AVOID_CITY2":null,"AVOID_CITY3":null,"CENSUS_ZCTA":"97901","ObjectId":464}},{"type":"Feature","id":465,"geometry":null,"properties":{"ZIP_CODE":"97902","ZIP_TYPE":"PO BOX ONLY","PREFERRED_CITY":"AROCK","ACCEPTABLE_CITY1":null,"ACCEPTABLE_CITY2":null,"ACCEPTABLE_CITY3":null,"AVOID_CITY1":null,"AVOID_CITY2":null,"AVOID_CITY3":null,"CENSUS_ZCTA":"97902","ObjectId":465}},{"type":"Feature","id":466,"geometry":null,"properties":{"ZIP_CODE":"97903","ZIP_TYPE":"STANDARD","PREFERRED_CITY":"BROGAN","ACCEPTABLE_CITY1":null,"ACCEPTABLE_CITY2":null,"ACCEPTABLE_CITY3":null,"AVOID_CITY1":null,"AVOID_CITY2":null,"AVOID_CITY3":null,"CENSUS_ZCTA":"97903","ObjectId":466}},{"type":"Feature","id":467,"geometry":null,"properties":{"ZIP_CODE":"97904","ZIP_TYPE":"STANDARD","PREFERRED_CITY":"DREWSEY","ACCEPTABLE_CITY1":null,"ACCEPTABLE_CITY2":null,"ACCEPTABLE_CITY3":null,"AVOID_CITY1":null,"AVOID_CITY2":null,"AVOID_CITY3":null,"CENSUS_ZCTA":"97904","ObjectId":467}},{"type":"Feature","id":468,"geometry":null,"properties":{"ZIP_CODE":"97905","ZIP_TYPE":"PO BOX ONLY","PREFERRED_CITY":"DURKEE","ACCEPTABLE_CITY1":null,"ACCEPTABLE_CITY2":null,"ACCEPTABLE_CITY3":null,"AVOID_CITY1":"WEATHERBY","AVOID_CITY2":null,"AVOID_CITY3":null,"CENSUS_ZCTA":"97905","ObjectId":468}},{"type":"Feature","id":469,"geometry":null,"properties":{"ZIP_CODE":"97906","ZIP_TYPE":"STANDARD","PREFERRED_CITY":"HARPER","ACCEPTABLE_CITY1":null,"ACCEPTABLE_CITY2":null,"ACCEPTABLE_CITY3":null,"AVOID_CITY1":null,"AVOID_CITY2":null,"AVOID_CITY3":null,"CENSUS_ZCTA":"97906","ObjectId":469}},{"type":"Feature","id":470,"geometry":null,"properties":{"ZIP_CODE":"97907","ZIP_TYPE":"STANDARD","PREFERRED_CITY":"HUNTINGTON","ACCEPTABLE_CITY1":null,"ACCEPTABLE_CITY2":null,"ACCEPTABLE_CITY3":null,"AVOID_CITY1":"LIME","AVOID_CITY2":"RYE VALLEY","AVOID_CITY3":null,"CENSUS_ZCTA":"97907","ObjectId":470}},{"type":"Feature","id":471,"geometry":null,"properties":{"ZIP_CODE":"97908","ZIP_TYPE":"STANDARD","PREFERRED_CITY":"IRONSIDE","ACCEPTABLE_CITY1":null,"ACCEPTABLE_CITY2":null,"ACCEPTABLE_CITY3":null,"AVOID_CITY1":null,"AVOID_CITY2":null,"AVOID_CITY3":null,"CENSUS_ZCTA":"97908","ObjectId":471}},{"type":"Feature","id":472,"geometry":null,"properties":{"ZIP_CODE":"97909","ZIP_TYPE":"STANDARD","PREFERRED_CITY":"JAMIESON","ACCEPTABLE_CITY1":null,"ACCEPTABLE_CITY2":null,"ACCEPTABLE_CITY3":null,"AVOID_CITY1":null,"AVOID_CITY2":null,"AVOID_CITY3":null,"CENSUS_ZCTA":"97909","ObjectId":472}},{"type":"Feature","id":473,"geometry":null,"properties":{"ZIP_CODE":"97910","ZIP_TYPE":"STANDARD","PREFERRED_CITY":"JORDAN VALLEY","ACCEPTABLE_CITY1":"SOUTH MOUNTAIN","ACCEPTABLE_CITY2":"SO MTN","ACCEPTABLE_CITY3":null,"AVOID_CITY1":"BURNS JUNCTION","AVOID_CITY2":"DANNER","AVOID_CITY3":"ROME","CENSUS_ZCTA":"97910","ObjectId":473}},{"type":"Feature","id":474,"geometry":null,"properties":{"ZIP_CODE":"97911","ZIP_TYPE":"STANDARD","PREFERRED_CITY":"JUNTURA","ACCEPTABLE_CITY1":null,"ACCEPTABLE_CITY2":null,"ACCEPTABLE_CITY3":null,"AVOID_CITY1":"BEULAH","AVOID_CITY2":"JONESBORO","AVOID_CITY3":null,"CENSUS_ZCTA":"97911","ObjectId":474}},{"type":"Feature","id":475,"geometry":null,"properties":{"ZIP_CODE":"97913","ZIP_TYPE":"STANDARD","PREFERRED_CITY":"NYSSA","ACCEPTABLE_CITY1":null,"ACCEPTABLE_CITY2":null,"ACCEPTABLE_CITY3":null,"AVOID_CITY1":"ARCADIA","AVOID_CITY2":"OWYHEE CORNERS","AVOID_CITY3":null,"CENSUS_ZCTA":"97913","ObjectId":475}},{"type":"Feature","id":476,"geometry":null,"properties":{"ZIP_CODE":"97914","ZIP_TYPE":"STANDARD","PREFERRED_CITY":"ONTARIO","ACCEPTABLE_CITY1":null,"ACCEPTABLE_CITY2":null,"ACCEPTABLE_CITY3":null,"AVOID_CITY1":"CAIRO","AVOID_CITY2":"CLAUDE","AVOID_CITY3":null,"CENSUS_ZCTA":"97914","ObjectId":476}},{"type":"Feature","id":477,"geometry":null,"properties":{"ZIP_CODE":"97917","ZIP_TYPE":"STANDARD","PREFERRED_CITY":"RIVERSIDE","ACCEPTABLE_CITY1":null,"ACCEPTABLE_CITY2":null,"ACCEPTABLE_CITY3":null,"AVOID_CITY1":null,"AVOID_CITY2":null,"AVOID_CITY3":null,"CENSUS_ZCTA":"97917","ObjectId":477}},{"type":"Feature","id":478,"geometry":null,"properties":{"ZIP_CODE":"97918","ZIP_TYPE":"STANDARD","PREFERRED_CITY":"VALE","ACCEPTABLE_CITY1":null,"ACCEPTABLE_CITY2":null,"ACCEPTABLE_CITY3":null,"AVOID_CITY1":"WILLOWCREEK","AVOID_CITY2":null,"AVOID_CITY3":null,"CENSUS_ZCTA":"97918","ObjectId":478}},{"type":"Feature","id":479,"geometry":null,"properties":{"ZIP_CODE":"97920","ZIP_TYPE":"PO BOX ONLY","PREFERRED_CITY":"WESTFALL","ACCEPTABLE_CITY1":null,"ACCEPTABLE_CITY2":null,"ACCEPTABLE_CITY3":null,"AVOID_CITY1":null,"AVOID_CITY2":null,"AVOID_CITY3":null,"CENSUS_ZCTA":"97920","ObjectId":479}}]}